{"0": [{"type": "FeatureCollection", "features": [{"type": "Feature", "id": 1089591567, "geometry": {"type": "LineString", "coordinates": [[144.084357, -38.468432], [144.084346, -38.468319], [144.084205, -38.468328], [144.084201, -38.46829], [144.083946, -38.468305], [144.083951, -38.468349], [144.083984, -38.468347], [144.083995, -38.468455], [144.084357, -38.468432]]}, "properties": {"addr:housenumber": "370", "addr:postcode": "3231", "addr:street": "Great Ocean Road", "club": "surf_life_saving", "emergency": "lifeguard", "lifeguard": "base", "name": "Fairhaven Surf Life Saving Club"}}]}], "1": [{"type": "FeatureCollection", "features": [{"type": "Feature", "id": 1007494584, "geometry": {"type": "LineString", "coordinates": [[144.066857, -38.468624], [144.066917, -38.469372], [144.06843, -38.469325], [144.07035, -38.469255], [144.072638, -38.469137], [144.074175, -38.468991], [144.07568, -38.468926], [144.077754, -38.468871], [144.079848, -38.469037], [144.081846, -38.469006], [144.083609, -38.468979], [144.086429, -38.468876], [144.089203, -38.468748], [144.091086, -38.468591], [144.09397, -38.468577], [144.098393, -38.468801], [144.100162, -38.469054], [144.100689, -38.469149], [144.100673, -38.468757], [144.100659, -38.468406], [144.100275, -38.468426], [144.099641, -38.468459], [144.099515, -38.468465], [144.09925, -38.468442], [144.098761, -38.468398], [144.098169, -38.468346], [144.098115, -38.468341], [144.096353, -38.468324], [144.09521, -38.468289], [144.094585, -38.468271], [144.0925, -38.468235], [144.091854, -38.468256], [144.090867, -38.468288], [144.089647, -38.468288], [144.08933, -38.46831], [144.087946, -38.468406], [144.0868, -38.46844], [144.086554, -38.468447], [144.086442, -38.468452], [144.085669, -38.468486], [144.085621, -38.468489], [144.085024, -38.468529], [144.084228, -38.468583], [144.083527, -38.468625], [144.083348, -38.468636], [144.083279, -38.468611], [144.082828, -38.468447], [144.082422, -38.468601], [144.080999, -38.468636], [144.079216, -38.468612], [144.07756, -38.468595], [144.075008, -38.468624], [144.073376, -38.468682], [144.073195, -38.468689], [144.071328, -38.468819], [144.071017, -38.468826], [144.070259, -38.468842], [144.069078, -38.468854], [144.068697, -38.468867], [144.067613, -38.468904], [144.067527, -38.468907], [144.067015, -38.468691], [144.066857, -38.468624]]}, "properties": {"name": "Fairhaven", "natural": "beach", "surface": "sand"}}]}], "2": [], "3": [], "4": [{"type": "FeatureCollection", "features": []}], "5": [], "6": [{"type": "FeatureCollection", "features": [{"type": "Feature", "id": 69366108, "geometry": {"type": "LineString", "coordinates": [[144.098461, -38.465955], [144.098678, -38.466035], [144.098597, -38.466167], [144.098379, -38.466082], [144.098461, -38.465955]]}, "properties": {"leisure": "playground"}}]}, {"type": "FeatureCollection", "features": [{"type": "Feature", "id": 5315720235, "geometry": {"type": "Point", "coordinates": [144.100731, -38.466811]}, "properties": {"leisure": "picnic_table"}}]}], "7": [{"type": "FeatureCollection", "features": [{"type": "Feature", "id": 11158854687, "geometry": {"type": "Point", "coordinates": [144.099168, -38.465051]}, "properties": {"amenity": "fast_food", "cuisine": "fish_and_chips", "name": "Aireys Inlet Fish & Chips"}}]}, {"type": "FeatureCollection", "features": [{"type": "Feature", "id": 4583492091, "geometry": {"type": "Point", "coordinates": [144.098371, -38.465323]}, "properties": {"amenity": "cafe", "name": "Skinny Legs Caf\u00e9", "name:en": "Skinny Legs Caf\u00e9", "opening_hours": "Mo-Su 06:00-16:30"}}]}, {"type": "FeatureCollection", "features": [{"type": "Feature", "id": 831201411, "geometry": {"type": "Point", "coordinates": [144.098567, -38.465921]}, "properties": {"amenity": "bbq"}}]}, {"type": "FeatureCollection", "features": [{"type": "Feature", "id": 11158854665, "geometry": {"type": "Point", "coordinates": [144.097873, -38.465328]}, "properties": {"amenity": "cafe", "name": "Onda Food House"}}]}, {"type": "FeatureCollection", "features": [{"type": "Feature", "id": 11158854688, "geometry": {"type": "Point", "coordinates": [144.09901, -38.465131]}, "properties": {"amenity": "restaurant", "cuisine": "pizza", "name": "The Captain of Aireys"}}]}], "8": [{"type": "FeatureCollection", "features": [{"type": "Feature", "id": 3621405496, "geometry": {"type": "Point", "coordinates": [144.102476, -38.468186]}, "properties": {"name": "Loutit Bay Lookout", "tourism": "viewpoint"}}]}], "9": [], "10": [{"type": "FeatureCollection", "features": [{"type": "Feature", "id": 831201041, "geometry": {"type": "Point", "coordinates": [144.104468, -38.468003]}, "properties": {"man_made": "lighthouse", "name": "Split Point Lighthouse", "name:zh": "\u65af\u666e\u5229\u7279\u89d2\u706f\u5854", "seamark:type": "light_major", "tourism": "attraction", "website": "https://splitpointlighthouse.com.au/", "wheelchair": "yes", "wikidata": "Q1251272", "wikipedia": "en:Split Point Lighthouse"}}]}], "11": [{"type": "FeatureCollection", "features": [{"type": "Feature", "id": 3933086392, "geometry": {"type": "Point", "coordinates": [144.962781, -37.806797]}, "properties": {"highway": "traffic_signals", "traffic_signals:direction": "forward"}}]}], "12": [{"type": "FeatureCollection", "features": [{"type": "Feature", "id": 26564416, "geometry": {"type": "LineString", "coordinates": [[144.963061, -37.806803], [144.962988, -37.80724], [144.96303, -37.807263], [144.964047, -37.806975], [144.96406, -37.806915], [144.963851, -37.806893], [144.963776, -37.806922], [144.963783, -37.806886], [144.963061, -37.806803]]}, "properties": {"brand": "YMCA", "brand:wikidata": "Q157169", "building": "yes", "heritage": "yes", "leisure": "sports_centre", "name": "Melbourne City Baths", "operator": "ymca", "sport": "swimming", "wikidata": "Q2786840", "wikipedia": "en:City Baths, Melbourne"}}]}], "13": [{"type": "FeatureCollection", "features": [{"type": "Feature", "id": 49961266, "geometry": {"type": "LineString", "coordinates": [[144.957093, -37.813631], [144.956675, -37.813754], [144.956535, -37.813457], [144.956487, -37.813356], [144.956583, -37.813328], [144.956906, -37.813233], [144.957093, -37.813631]]}, "properties": {"addr:city": "Melbourne", "addr:housenumber": "233", "addr:postcode": "3000", "addr:street": "William Street", "amenity": "courthouse", "building": "yes", "building:levels": "8", "name": "Melbourne Magistrates' Court", "website": "http://www.magistratescourt.vic.gov.au/", "wikidata": "Q6811824"}}]}], "14": [{"type": "FeatureCollection", "features": [{"type": "Feature", "id": 26564392, "geometry": {"type": "LineString", "coordinates": [[144.964803, -37.807691], [144.964946, -37.807648], [144.964954, -37.807641], [144.964979, -37.807653], [144.964968, -37.80767], [144.964958, -37.807673], [144.964962, -37.807681], [144.965034, -37.807831], [144.965413, -37.807718], [144.965458, -37.807811], [144.965465, -37.807827], [144.964953, -37.80798], [144.964943, -37.807983], [144.964814, -37.807713], [144.964805, -37.807716], [144.964785, -37.807709], [144.964797, -37.807689], [144.964803, -37.807691]]}, "properties": {"addr:city": "Melbourne", "addr:housenumber": "377", "addr:postcode": "3000", "addr:state": "VIC", "addr:street": "Russell Street", "addr:suburb": "Melbourne", "building": "yes", "contact:email": "info@oldmelbournegaol.com.au", "contact:phone": "+61 3 8663 7228", "description": "Closed prison, now a museum and tourist attraction.", "name": "Old Melbourne Gaol", "opening_hours": "09:30-17:00; Dec 25 closed; easter -2 days closed", "phone": "+61 3 8663 7228", "tourism": "attraction", "website": "https://www.oldmelbournegaol.com.au", "wikidata": "Q2018436", "wikipedia": "en:Old Melbourne Gaol"}}]}], "15": [{"type": "FeatureCollection", "features": [{"type": "Feature", "id": 5371634608, "geometry": {"type": "Point", "coordinates": [144.965589, -37.807149]}, "properties": {"historic": "monument", "inscription": "To commemorate the 8 Hours Movement initiated in Victoria 1856 erected 1903", "name": "Eight Hour Monument"}}]}], "16": [{"type": "FeatureCollection", "features": [{"type": "Feature", "id": 7228362154, "geometry": {"type": "Point", "coordinates": [144.966245, -37.806426]}, "properties": {"name": "Victorian Trades Hall Council", "note": "Accessibility: category 4", "office": "surveyor"}}]}, {"type": "FeatureCollection", "features": [{"type": "Feature", "id": 32710391, "geometry": {"type": "LineString", "coordinates": [[144.966251, -37.805978], [144.966467, -37.806002], [144.966421, -37.806265], [144.966405, -37.806264], [144.966379, -37.806411], [144.966478, -37.806422], [144.96653, -37.806128], [144.966691, -37.806146], [144.96664, -37.80644], [144.9667, -37.806447], [144.966655, -37.806709], [144.966502, -37.806692], [144.966484, -37.806793], [144.966548, -37.8068], [144.966532, -37.806895], [144.966146, -37.806852], [144.966163, -37.806758], [144.966224, -37.806764], [144.966242, -37.806663], [144.966148, -37.806653], [144.966185, -37.806445], [144.966159, -37.806442], [144.966194, -37.806241], [144.966204, -37.806242], [144.966251, -37.805978]]}, "properties": {"addr:country": "AU", "addr:housenumber": "54", "addr:postcode": "3053", "addr:state": "VIC", "addr:street": "Victoria Street", "addr:suburb": "Carlton", "building": "yes", "name": "Victorian Trades Hall", "source": "Vicmap Address", "wikidata": "Q7927336"}}]}], "17": [{"type": "FeatureCollection", "features": [{"type": "Feature", "id": 435967756, "geometry": {"type": "LineString", "coordinates": [[144.967894, -37.805919], [144.967906, -37.805853], [144.9678, -37.805842], [144.967811, -37.805782], [144.967801, -37.805781], [144.967808, -37.80574], [144.967818, -37.805741], [144.967827, -37.805688], [144.967983, -37.805705], [144.967988, -37.805673], [144.967826, -37.805655], [144.967838, -37.805591], [144.967861, -37.805594], [144.968002, -37.805609], [144.968197, -37.80563], [144.968141, -37.805946], [144.967894, -37.805919]]}, "properties": {"addr:country": "AU", "addr:housenumber": "48-56", "addr:postcode": "3053", "addr:state": "VIC", "addr:street": "Drummond Street", "addr:suburb": "Carlton", "building": "residential", "building:levels": "2", "name": "Medley Hall", "operator": "University of Melbourne", "source": "Vicmap Address", "wikidata": "Q14935211"}}]}], "18": [], "19": [], "20": [{"type": "FeatureCollection", "features": [{"type": "Feature", "id": 1016758027, "geometry": {"type": "LineString", "coordinates": [[144.968861, -37.802714], [144.968881, -37.802717], [144.96889, -37.80266], [144.968996, -37.802671], [144.968991, -37.802702], [144.969008, -37.802704], [144.969014, -37.802673], [144.969065, -37.802679], [144.96906, -37.802709], [144.969319, -37.802737], [144.969327, -37.802687], [144.969404, -37.802695], [144.969391, -37.802771], [144.969401, -37.802772], [144.969381, -37.802892], [144.96937, -37.802891], [144.969358, -37.802966], [144.969281, -37.802957], [144.969291, -37.8029], [144.969032, -37.802872], [144.969026, -37.802909], [144.968974, -37.802904], [144.96898, -37.802867], [144.968963, -37.802865], [144.968966, -37.802848], [144.96884, -37.802834], [144.968861, -37.802714]]}, "properties": {"addr:country": "AU", "addr:housenumber": "169", "addr:postcode": "3053", "addr:state": "VIC", "addr:street": "Rathdowne Street", "addr:suburb": "Carlton", "amenity": "place_of_worship", "building": "church", "denomination": "catholic", "name": "Sacred Heart Church", "religion": "christian", "source": "Vicmap Address"}}]}], "21": [{"type": "FeatureCollection", "features": [{"type": "Feature", "id": 368393200, "geometry": {"type": "Point", "coordinates": [144.970636, -37.803506]}, "properties": {"amenity": "cinema", "check_date": "2022-10-02", "name": "IMAX Melbourne", "operator": "Melbourne museum", "payment:mastercard": "yes", "payment:visa": "yes", "phone": "+61 3 9663 5454", "screen": "1", "website": "https://imaxmelbourne.com.au/", "wikidata": "Q47000854"}}]}], "22": [{"type": "FeatureCollection", "features": [{"type": "Feature", "id": 4817074, "geometry": {"type": "LineString", "coordinates": [[144.972471, -37.803746], [144.971943, -37.803689], [144.971931, -37.803764], [144.971669, -37.803736], [144.971412, -37.803708], [144.971424, -37.803634], [144.970933, -37.803581], [144.97095, -37.803681], [144.970617, -37.803674], [144.970487, -37.803672], [144.97043, -37.803484], [144.970378, -37.803308], [144.970612, -37.803313], [144.970624, -37.803244], [144.970914, -37.803275], [144.970916, -37.803266], [144.970838, -37.803241], [144.970743, -37.803218], [144.970699, -37.803214], [144.970657, -37.803203], [144.970619, -37.803185], [144.970591, -37.803167], [144.970568, -37.803145], [144.970549, -37.803121], [144.970412, -37.803167], [144.970312, -37.802983], [144.970549, -37.802903], [144.971136, -37.802784], [144.971106, -37.802758], [144.971083, -37.802728], [144.97148, -37.802587], [144.971489, -37.80261], [144.971494, -37.802622], [144.971498, -37.802658], [144.971492, -37.802694], [144.971477, -37.802728], [144.971454, -37.802759], [144.971423, -37.802785], [144.971392, -37.802802], [144.97147, -37.802901], [144.971505, -37.802904], [144.971521, -37.802816], [144.971608, -37.802825], [144.971631, -37.802696], [144.971689, -37.802703], [144.971584, -37.803311], [144.971569, -37.803399], [144.971879, -37.803433], [144.971894, -37.803344], [144.971999, -37.802736], [144.97206, -37.802742], [144.972078, -37.802638], [144.972136, -37.802664], [144.97219, -37.802693], [144.972241, -37.802727], [144.972287, -37.802765], [144.97234, -37.802819], [144.972383, -37.802877], [144.972421, -37.80291], [144.972454, -37.802946], [144.972478, -37.802978], [144.972498, -37.803011], [144.972684, -37.803031], [144.972658, -37.803183], [144.9729, -37.803273], [144.972945, -37.803257], [144.972992, -37.803247], [144.97304, -37.803243], [144.973088, -37.803246], [144.972977, -37.803431], [144.972864, -37.803333], [144.972829, -37.803337], [144.972796, -37.803333], [144.972766, -37.803323], [144.972751, -37.803324], [144.972737, -37.803327], [144.972722, -37.803337], [144.972712, -37.803352], [144.972688, -37.803359], [144.972663, -37.803359], [144.972645, -37.803355], [144.97263, -37.803348], [144.972625, -37.803378], [144.972566, -37.803372], [144.972552, -37.80345], [144.973024, -37.8035], [144.972869, -37.803646], [144.972864, -37.803746], [144.972856, -37.803888], [144.972458, -37.803825], [144.972471, -37.803746]]}, "properties": {"addr:city": "Carlton", "addr:country": "AU", "addr:housenumber": "11", "addr:postcode": "3053", "addr:state": "VIC", "addr:street": "Nicholson Street", "addr:suburb": "Carlton", "atm": "yes", "building": "yes", "fee": "yes", "internet_access": "wlan", "layer": "1", "name": "Melbourne Museum", "name:el": "\u039c\u03bf\u03c5\u03c3\u03b5\u03af\u03bf \u03c4\u03b7\u03c2 \u039c\u03b5\u03bb\u03b2\u03bf\u03cd\u03c1\u03bd\u03b7\u03c2", "name:fr": "Mus\u00e9e de Melbourne", "opening_hours": "Mo-Su 10:00-17:00,09:00-17:00", "operator": "Museum Victoria", "operator:type": "public", "phone": "+61 3 8341 7777", "source": "Vicmap Address", "tourism": "museum", "website": "https://museumsvictoria.com.au/melbournemuseum/", "wheelchair": "yes", "wikidata": "Q1353869"}}]}], "23": [{"type": "FeatureCollection", "features": [{"type": "Feature", "id": 4817059, "geometry": {"type": "LineString", "coordinates": [[144.971431, -37.804261], [144.971444, -37.804187], [144.97148, -37.80419], [144.971704, -37.804214], [144.971737, -37.804218], [144.971725, -37.804293], [144.971756, -37.804296], [144.971713, -37.804541], [144.971982, -37.804569], [144.971984, -37.804561], [144.972054, -37.804568], [144.972052, -37.804577], [144.972315, -37.804605], [144.97233, -37.804521], [144.972451, -37.804534], [144.972434, -37.804631], [144.972397, -37.804627], [144.972384, -37.804703], [144.972452, -37.80471], [144.972445, -37.804748], [144.972467, -37.80475], [144.972463, -37.804776], [144.972438, -37.804921], [144.972434, -37.804945], [144.972412, -37.804943], [144.972409, -37.804961], [144.972406, -37.804979], [144.972338, -37.804971], [144.972324, -37.805052], [144.972361, -37.805056], [144.972349, -37.805129], [144.972345, -37.80515], [144.972224, -37.805137], [144.972238, -37.805056], [144.971974, -37.805028], [144.971973, -37.805036], [144.971903, -37.805028], [144.971905, -37.80502], [144.971625, -37.80499], [144.971611, -37.805071], [144.971528, -37.805062], [144.971529, -37.805051], [144.971367, -37.805034], [144.971365, -37.805045], [144.97128, -37.805036], [144.971294, -37.804955], [144.971013, -37.804924], [144.971011, -37.804933], [144.970943, -37.804925], [144.970945, -37.804917], [144.970677, -37.804888], [144.970663, -37.804969], [144.970545, -37.804957], [144.970562, -37.804857], [144.970594, -37.804861], [144.970607, -37.804785], [144.970539, -37.804778], [144.970545, -37.804742], [144.97053, -37.804741], [144.970535, -37.804716], [144.97056, -37.804571], [144.970564, -37.804546], [144.970579, -37.804547], [144.970585, -37.80451], [144.970653, -37.804517], [144.970666, -37.804444], [144.970634, -37.804441], [144.970651, -37.804341], [144.970774, -37.804354], [144.970759, -37.804438], [144.971022, -37.804466], [144.971024, -37.804457], [144.971092, -37.804465], [144.97109, -37.804474], [144.971355, -37.804502], [144.971398, -37.804257], [144.971431, -37.804261]]}, "properties": {"addr:country": "AU", "addr:housenumber": "9", "addr:postcode": "3053", "addr:state": "VIC", "addr:street": "Nicholson Street", "addr:suburb": "Carlton", "building": "yes", "building:colour": "white", "height": "20", "historic": "building", "layer": "1", "name": "Royal Exhibition Building", "name:fr": "Palais royal des expositions", "name:vi": "Cung tri\u1ec3n l\u00e3m Ho\u00e0ng gia", "name:zh": "\u7687\u5bb6\u5c55\u89c8\u9986", "source": "Vicmap Address", "tourism": "attraction", "website": "https://museumsvictoria.com.au/reb/", "wikidata": "Q695935", "wikipedia": "en:Royal Exhibition Building"}}]}], "24": [{"type": "FeatureCollection", "features": [{"type": "Feature", "id": 6614802, "geometry": {"type": "MultiPolygon", "coordinates": [[[[144.96913, -37.807187], [144.969031, -37.807105], [144.969424, -37.804972], [144.973403, -37.805391], [144.973081, -37.807538], [144.972984, -37.807595], [144.96913, -37.807187]]], [[[144.970208, -37.800894], [144.970099, -37.800962], [144.969698, -37.803298], [144.970021, -37.803335], [144.970001, -37.80344], [144.970412, -37.80348], [144.970394, -37.803424], [144.970132, -37.803284], [144.970254, -37.803129], [144.970351, -37.803104], [144.970288, -37.802985], [144.971725, -37.802513], [144.971853, -37.802504], [144.971979, -37.802517], [144.972094, -37.802555], [144.972971, -37.80316], [144.973088, -37.803171], [144.973076, -37.803246], [144.973017, -37.803412], [144.973059, -37.803418], [144.973147, -37.803445], [144.973204, -37.803476], [144.973228, -37.803504], [144.973261, -37.803548], [144.973271, -37.803588], [144.973254, -37.803626], [144.973216, -37.803668], [144.973108, -37.80373], [144.973029, -37.803764], [144.973258, -37.803786], [144.973325, -37.803795], [144.973381, -37.803799], [144.973396, -37.803703], [144.973712, -37.803732], [144.974103, -37.801382], [144.974041, -37.801296], [144.970208, -37.800894]]]]}, "properties": {"addr:suburb": "Carlton", "leisure": "park", "name": "Carlton Gardens", "operator": "Melbourne City Council", "type": "multipolygon", "wikidata": "Q829338", "wikipedia": "en:Carlton Gardens"}}]}], "25": [{"type": "FeatureCollection", "features": [{"type": "Feature", "id": 29369985, "geometry": {"type": "LineString", "coordinates": [[144.970378, -37.802119], [144.970441, -37.802336], [144.970553, -37.802315], [144.970784, -37.80227], [144.970878, -37.802031], [144.97092, -37.802013], [144.970952, -37.801989], [144.970977, -37.801946], [144.970993, -37.801902], [144.970991, -37.801853], [144.970969, -37.80182], [144.970928, -37.801794], [144.970878, -37.801775], [144.970842, -37.801847], [144.970832, -37.801887], [144.970798, -37.801892], [144.970647, -37.801946], [144.970637, -37.802026], [144.970666, -37.802066], [144.970378, -37.802119]]}, "properties": {"access": "yes", "leisure": "playground"}}]}], "26": [{"type": "FeatureCollection", "features": [{"type": "Feature", "id": 30066634, "geometry": {"type": "LineString", "coordinates": [[144.969512, -37.802255], [144.968981, -37.8022], [144.969076, -37.801631], [144.969267, -37.801651], [144.969607, -37.801687], [144.969512, -37.802255]]}, "properties": {"addr:country": "AU", "addr:housenumber": "201-231", "addr:postcode": "3053", "addr:state": "VIC", "addr:street": "Rathdowne Street", "addr:suburb": "Carlton", "amenity": "school", "grades": "0-6", "isced:level": "1", "name": "Carlton Gardens Primary School", "operator": "Victorian Department of Education", "operator:type": "public", "operator:wikidata": "Q5260272", "source": "Vicmap Address", "wikidata": "Q5043002"}}]}], "27": [{"type": "FeatureCollection", "features": [{"type": "Feature", "id": 830995835, "geometry": {"type": "LineString", "coordinates": [[144.968108, -37.801368], [144.968122, -37.801369], [144.968112, -37.801428], [144.967988, -37.801414], [144.967991, -37.801399], [144.967867, -37.801385], [144.967874, -37.801342], [144.968108, -37.801368]]}, "properties": {"addr:country": "AU", "addr:housenumber": "205", "addr:postcode": "3053", "addr:state": "VIC", "addr:street": "Drummond Street", "addr:suburb": "Carlton", "building": "yes", "source": "Vicmap Address"}}]}, {"type": "FeatureCollection", "features": [{"type": "Feature", "id": 830995836, "geometry": {"type": "LineString", "coordinates": [[144.967988, -37.801414], [144.968112, -37.801428], [144.968102, -37.801487], [144.967853, -37.801459], [144.967861, -37.801418], [144.967985, -37.801432], [144.967988, -37.801414]]}, "properties": {"addr:country": "AU", "addr:housenumber": "203", "addr:postcode": "3053", "addr:state": "VIC", "addr:street": "Drummond Street", "addr:suburb": "Carlton", "building": "yes", "source": "Vicmap Address"}}]}, {"type": "FeatureCollection", "features": [{"type": "Feature", "id": 830995837, "geometry": {"type": "LineString", "coordinates": [[144.968102, -37.801487], [144.968091, -37.801546], [144.967967, -37.801532], [144.967971, -37.801511], [144.967928, -37.801506], [144.967922, -37.801535], [144.967875, -37.80153], [144.96788, -37.801501], [144.967847, -37.801498], [144.967853, -37.801459], [144.968102, -37.801487]]}, "properties": {"addr:country": "AU", "addr:housenumber": "201", "addr:postcode": "3053", "addr:state": "VIC", "addr:street": "Drummond Street", "addr:suburb": "Carlton", "building": "yes", "source": "Vicmap Address"}}]}], "28": [{"type": "FeatureCollection", "features": [{"type": "Feature", "id": 6515021014, "geometry": {"type": "Point", "coordinates": [144.968043, -37.798906]}, "properties": {"addr:housenumber": "199", "addr:street": "Faraday Street", "description": "cultural museum", "fee": "no", "name": "Museo Italiano", "opening_hours": "Tu-Fr 09:00-17:00; Sa 12:00-17:00", "tourism": "museum", "website": "https://www.coasit.com.au/museoitaliano"}}]}], "29": [{"type": "FeatureCollection", "features": [{"type": "Feature", "id": 331165028, "geometry": {"type": "Point", "coordinates": [144.967692, -37.799099]}, "properties": {"addr:housenumber": "205", "addr:postcode": "3053", "addr:street": "Faraday Street", "amenity": "theatre", "name": "La Mama Theatre", "website": "https://lamama.com.au/", "wikidata": "Q6463660"}}]}], "30": [{"type": "FeatureCollection", "features": [{"type": "Feature", "id": 243419251, "geometry": {"type": "Point", "coordinates": [144.967595, -37.798693]}, "properties": {"check_date": "2019-01-09", "disused:amenity": "toilets", "wheelchair": "no"}}]}], "31": [{"type": "FeatureCollection", "features": [{"type": "Feature", "id": 649798969, "geometry": {"type": "Point", "coordinates": [144.968636, -37.798394]}, "properties": {"addr:housenumber": "313", "addr:street": "Drummond Street", "amenity": "restaurant", "check_date:opening_hours": "2023-08-11", "cuisine": "italian", "name": "Masani", "opening_hours": "Mo-Su 11:00-18:00+", "outdoor_seating": "yes", "phone": "+61 3 9347 5610", "website": "https://www.masani.com.au/"}}]}], "32": [{"type": "FeatureCollection", "features": [{"type": "Feature", "id": 668210311, "geometry": {"type": "LineString", "coordinates": [[144.968771, -37.79779], [144.968547, -37.797767], [144.968575, -37.797599], [144.9688, -37.797626], [144.968771, -37.79779]]}, "properties": {"boundary": "protected_area", "name": "Carlton Court House Historic Reserve", "note": "Way has been simplified using a maximum error criterion of 3m", "operator": "Committee of Management", "protect_class": "22", "protection_title": "Historic Reserve", "ref:vicmap:prims_id": "4352", "short_name": "Carlton Court House HR", "source": "VicMap ParkRes", "source:geometry": "VicMap ParkRes", "start_date": "1995-01-10"}}]}], "33": [{"type": "FeatureCollection", "features": [{"type": "Feature", "id": 288182899, "geometry": {"type": "LineString", "coordinates": [[142.166449, -34.183034], [142.166503, -34.182962], [142.166889, -34.183115], [142.167149, -34.18327], [142.16707, -34.183362], [142.166449, -34.183034]]}, "properties": {"amenity": "wharf", "name": "Mildura Wharf"}}]}], "34": [{"type": "FeatureCollection", "features": [{"type": "Feature", "id": 337874851, "geometry": {"type": "LineString", "coordinates": [[142.165009, -34.182647], [142.164934, -34.182676], [142.164975, -34.182738], [142.165081, -34.182873], [142.165166, -34.182985], [142.165288, -34.183128], [142.165322, -34.183161], [142.165431, -34.183281], [142.165543, -34.183385], [142.165729, -34.183559], [142.165879, -34.18369], [142.165948, -34.183755], [142.166001, -34.183802], [142.166036, -34.18385], [142.166059, -34.183904], [142.166068, -34.18397], [142.166063, -34.184021], [142.166043, -34.184075], [142.166015, -34.184118], [142.16598, -34.184148], [142.165913, -34.184195], [142.165794, -34.184288], [142.16564, -34.184401], [142.165611, -34.184414], [142.165582, -34.184418], [142.165551, -34.184415], [142.165521, -34.184396], [142.165442, -34.184461], [142.165352, -34.184537]]}, "properties": {"bicycle": "no", "foot": "yes", "highway": "footway", "surface": "concrete"}}]}], "36": [{"type": "FeatureCollection", "features": [{"type": "Feature", "id": 6457301034, "geometry": {"type": "Point", "coordinates": [142.165383, -34.183941]}, "properties": {"historic": "memorial", "memorial": "war_memorial"}}]}], "37": [], "38": [{"type": "FeatureCollection", "features": [{"type": "Feature", "id": 687712378, "geometry": {"type": "LineString", "coordinates": [[142.163331, -34.182871], [142.162868, -34.183252], [142.16296, -34.183325], [142.162943, -34.18334], [142.163059, -34.183434], [142.163103, -34.183397], [142.163083, -34.18338], [142.163099, -34.183367], [142.163685, -34.183858], [142.163922, -34.183659], [142.163884, -34.183629], [142.163845, -34.18366], [142.163696, -34.183537], [142.16377, -34.183477], [142.163754, -34.183465], [142.163797, -34.183426], [142.163768, -34.183402], [142.163772, -34.183398], [142.163572, -34.183237], [142.163607, -34.183207], [142.163495, -34.183117], [142.163565, -34.183063], [142.163331, -34.182871]]}, "properties": {"building": "yes", "name": "The Grand Hotel"}}]}], "39": [{"type": "FeatureCollection", "features": [{"type": "Feature", "id": 632497723, "geometry": {"type": "LineString", "coordinates": [[142.164541, -34.183939], [142.165009, -34.184323], [142.164761, -34.184529], [142.164696, -34.184476], [142.164885, -34.184319], [142.164646, -34.184122], [142.164601, -34.18416], [142.164573, -34.184137], [142.164615, -34.184101], [142.164541, -34.184041], [142.164424, -34.184139], [142.164452, -34.184161], [142.16432, -34.184271], [142.164564, -34.184472], [142.164486, -34.184537], [142.164135, -34.184248], [142.164264, -34.184141], [142.164285, -34.184158], [142.164541, -34.183939]]}, "properties": {"building": "yes", "name": "Commodore Motel", "tourism": "motel"}}]}], "40": [{"type": "FeatureCollection", "features": [{"type": "Feature", "id": 686511907, "geometry": {"type": "LineString", "coordinates": [[142.164352, -34.184498], [142.164097, -34.184294], [142.164022, -34.184358], [142.164277, -34.184562], [142.164352, -34.184498]]}, "properties": {"building": "yes", "name": "Win Network", "office": "company"}}]}], "41": [], "42": [{"type": "FeatureCollection", "features": [{"type": "Feature", "id": 686511908, "geometry": {"type": "LineString", "coordinates": [[142.16424, -34.184547], [142.164226, -34.184558], [142.164006, -34.184377], [142.163868, -34.184491], [142.164223, -34.184784], [142.164375, -34.184658], [142.16424, -34.184547]]}, "properties": {"building": "yes", "name": "Sunraysia Daily", "office": "newspaper"}}]}], "43": [], "44": [], "45": [], "46": [{"type": "FeatureCollection", "features": [{"type": "Feature", "id": 686515751, "geometry": {"type": "LineString", "coordinates": [[142.161509, -34.18449], [142.161522, -34.18448], [142.161818, -34.184727], [142.161918, -34.184648], [142.161553, -34.184338], [142.161439, -34.184433], [142.161509, -34.18449]]}, "properties": {"building": "retail", "name": "Bowring's Building"}}]}], "47": [], "48": [{"type": "FeatureCollection", "features": [{"type": "Feature", "id": 1998491084, "geometry": {"type": "Point", "coordinates": [142.162443, -34.185262]}, "properties": {"amenity": "fountain"}}]}], "49": [{"type": "FeatureCollection", "features": [{"type": "Feature", "id": 686249537, "geometry": {"type": "LineString", "coordinates": [[142.162571, -34.185619], [142.162532, -34.185649], [142.162508, -34.185628], [142.162411, -34.185706], [142.162388, -34.185687], [142.162341, -34.185725], [142.162367, -34.185747], [142.162201, -34.185881], [142.162318, -34.18598], [142.162304, -34.185991], [142.162522, -34.186177], [142.162884, -34.185886], [142.162571, -34.185619]]}, "properties": {"addr:housenumber": "56", "addr:postcode": "3500", "addr:state": "VIC", "addr:street": "Deakin Avenue", "addr:suburb": "Mildura", "amenity": "courthouse", "building": "yes", "name": "Law Courts"}}]}], "50": [], "51": [{"type": "FeatureCollection", "features": [{"type": "Feature", "id": 686249528, "geometry": {"type": "LineString", "coordinates": [[142.161797, -34.186211], [142.16185, -34.186254], [142.161837, -34.186266], [142.161918, -34.186332], [142.161903, -34.186344], [142.16195, -34.186382], [142.161904, -34.186421], [142.161946, -34.186455], [142.161977, -34.186428], [142.162009, -34.186453], [142.161892, -34.186553], [142.161638, -34.186349], [142.161704, -34.186293], [142.161679, -34.186273], [142.161708, -34.186248], [142.161731, -34.186267], [142.161797, -34.186211]]}, "properties": {"building": "yes", "name": "Mildura & District Historical Society", "office": "association"}}]}], "52": [{"type": "FeatureCollection", "features": [{"type": "Feature", "id": 686249531, "geometry": {"type": "LineString", "coordinates": [[142.161597, -34.18635], [142.161814, -34.18653], [142.161829, -34.186517], [142.161886, -34.186564], [142.161803, -34.186632], [142.1617, -34.186546], [142.161529, -34.186688], [142.161568, -34.18672], [142.161542, -34.186741], [142.161436, -34.186653], [142.161424, -34.186663], [142.161474, -34.186704], [142.161462, -34.186713], [142.161523, -34.186764], [142.161477, -34.186801], [142.161408, -34.186744], [142.161375, -34.186771], [142.16123, -34.186651], [142.16138, -34.186528], [142.161355, -34.186507], [142.161395, -34.186474], [142.161421, -34.186496], [142.161597, -34.18635]]}, "properties": {"building": "yes", "name": "Civic Buildings", "office": "government"}}]}], "53": [{"type": "FeatureCollection", "features": [{"type": "Feature", "id": 6485063081, "geometry": {"type": "Point", "coordinates": [142.161055, -34.186393]}, "properties": {"artwork_type": "statue", "tourism": "artwork"}}]}], "54": [], "55": [], "56": [], "57": [], "58": [{"type": "FeatureCollection", "features": [{"type": "Feature", "id": 687252477, "geometry": {"type": "LineString", "coordinates": [[142.159762, -34.186591], [142.159756, -34.186586], [142.159915, -34.186455], [142.160204, -34.186701], [142.160221, -34.186714], [142.159986, -34.186906], [142.159945, -34.186874], [142.159867, -34.186937], [142.159816, -34.186897], [142.159604, -34.186722], [142.159762, -34.186591]]}, "properties": {"addr:housenumber": "93", "addr:postcode": "3500", "addr:state": "VIC", "addr:street": "Deakin Avenue", "addr:suburb": "Mildura", "amenity": "cinema", "building": "yes", "name": "Deakin Cinema Complex", "phone": "+61 3 5023 4452", "website": "https://www.wallis.com.au/cinemas/mildura", "wheelchair": "yes", "wikidata": "Q47000745"}}]}], "59": [{"type": "FeatureCollection", "features": [{"type": "Feature", "id": 9810267033, "geometry": {"type": "Point", "coordinates": [142.160339, -34.187648]}, "properties": {"addr:housenumber": "100-110", "addr:postcode": "3502", "addr:state": "VIC", "addr:street": "Deakin Avenue", "addr:suburb": "Mildura", "brewery": "various", "club": "social", "email": "info@milduraworkers.com.au", "name": "Mildura Working Man's Club", "opening_hours": "Mo-Sa 07:00-23:59; Su 07:00-23:00", "phone": "+61 3 5023 0531", "website": "https://www.milduraworkers.com.au/"}}]}], "60": [], "61": [{"type": "FeatureCollection", "features": [{"type": "Feature", "id": 687253356, "geometry": {"type": "LineString", "coordinates": [[142.159149, -34.188448], [142.159172, -34.188468], [142.159183, -34.188459], [142.159237, -34.18846], [142.159309, -34.188517], [142.159315, -34.188551], [142.159317, -34.188562], [142.159237, -34.188629], [142.159185, -34.18863], [142.159098, -34.188557], [142.159111, -34.188516], [142.159088, -34.188496], [142.159149, -34.188448]]}, "properties": {"amenity": "place_of_worship", "building": "yes", "name": "Methodist Church", "religion": "christian"}}]}], "62": [{"type": "FeatureCollection", "features": [{"type": "Feature", "id": 688057979, "geometry": {"type": "LineString", "coordinates": [[142.158411, -34.18766], [142.15817, -34.187862], [142.158272, -34.187946], [142.158363, -34.18787], [142.158374, -34.187879], [142.158371, -34.187893], [142.1584, -34.187916], [142.15827, -34.188024], [142.158398, -34.188128], [142.158667, -34.187904], [142.158541, -34.1878], [142.158561, -34.187783], [142.158411, -34.18766]]}, "properties": {"addr:housenumber": "125", "addr:postcode": "3500", "addr:state": "VIC", "addr:street": "Deakin Avenue", "addr:suburb": "Mildura", "air_conditioning": "yes", "amenity": "place_of_worship", "building": "yes", "email": "office@milduracofc.org.au", "name": "Mildura Church of Christ", "phone": "+61 3 5023 1201", "religion": "christian", "service_times": "Su 09:00; Su 10:30", "website": "https://www.milduracofc.org.au/"}}]}], "63": [{"type": "FeatureCollection", "features": [{"type": "Feature", "id": 6469255452, "geometry": {"type": "Point", "coordinates": [142.158205, -34.188763]}, "properties": {"historic": "memorial", "inscription": "To the memory of the men of Mildura District who fell in the Great War 1914-1919.", "memorial": "war_memorial"}}]}], "64": [{"type": "FeatureCollection", "features": [{"type": "Feature", "id": 688057382, "geometry": {"type": "LineString", "coordinates": [[142.156473, -34.189224], [142.156503, -34.189252], [142.156513, -34.189246], [142.156669, -34.189375], [142.156591, -34.189442], [142.156569, -34.189422], [142.156551, -34.189436], [142.156474, -34.189372], [142.156384, -34.189291], [142.156473, -34.189224]]}, "properties": {"addr:housenumber": "165", "addr:postcode": "3500", "addr:state": "VIC", "addr:street": "Deakin Avenue", "addr:suburb": "Mildura", "amenity": "place_of_worship", "building": "yes", "denomination": "uniting", "name": "St. Andrews Church", "religion": "christian"}}]}], "65": [{"type": "FeatureCollection", "features": [{"type": "Feature", "id": 687904953, "geometry": {"type": "LineString", "coordinates": [[142.157589, -34.190155], [142.157552, -34.190127], [142.157552, -34.190112], [142.157542, -34.190104], [142.157577, -34.190074], [142.157565, -34.190064], [142.157607, -34.190026], [142.157565, -34.189991], [142.157519, -34.19003], [142.157507, -34.19002], [142.157468, -34.190053], [142.157394, -34.189993], [142.157372, -34.190012], [142.157359, -34.190002], [142.157333, -34.190025], [142.157346, -34.190036], [142.157317, -34.190062], [142.157392, -34.190122], [142.157318, -34.190188], [142.157384, -34.19024], [142.157455, -34.190177], [142.157472, -34.190191], [142.157477, -34.190186], [142.157517, -34.190217], [142.157589, -34.190155]]}, "properties": {"amenity": "place_of_worship", "building": "yes", "denomination": "anglican", "name": "Saint Margaret's Anglican Church", "religion": "christian"}}]}], "66": [{"type": "FeatureCollection", "features": [{"type": "Feature", "id": 1160145426, "geometry": {"type": "LineString", "coordinates": [[142.165473, -34.184627], [142.165532, -34.184534]]}, "properties": {"highway": "residential", "name": "Madden Avenue", "oneway": "yes", "surface": "paved"}}]}], "67": [{"type": "FeatureCollection", "features": [{"type": "Feature", "id": 9810267032, "geometry": {"type": "Point", "coordinates": [142.160254, -34.189432]}, "properties": {"club": "veterans", "contact:website": "http://www.mildurarsl.com.au/", "internet_access": "wlan", "name": "Mildura RSL", "phone": "+61 3 5023 1888"}}]}], "68": [{"type": "FeatureCollection", "features": [{"type": "Feature", "id": 675079682, "geometry": {"type": "LineString", "coordinates": [[142.161115, -34.189368], [142.161138, -34.189343], [142.161169, -34.189324], [142.161206, -34.189315], [142.161248, -34.189317], [142.161286, -34.189329], [142.161317, -34.189352], [142.161337, -34.189382], [142.161344, -34.189416], [142.161336, -34.189449], [142.161316, -34.189479], [142.161284, -34.189501], [142.161245, -34.189513], [142.161207, -34.189514], [142.16117, -34.189505], [142.161138, -34.189487], [142.161115, -34.189461], [142.161103, -34.189431], [142.161103, -34.189399], [142.161115, -34.189368]]}, "properties": {"building": "yes", "man_made": "water_tower"}}]}], "69": [{"type": "FeatureCollection", "features": [{"type": "Feature", "id": 686511921, "geometry": {"type": "LineString", "coordinates": [[142.16375, -34.185844], [142.163743, -34.185792], [142.163714, -34.185771], [142.163689, -34.185787], [142.163522, -34.185649], [142.163536, -34.185633], [142.163487, -34.185593], [142.163465, -34.185611], [142.163445, -34.185595], [142.163468, -34.185576], [142.163454, -34.185564], [142.163432, -34.185582], [142.163387, -34.185545], [142.163606, -34.185365], [142.163635, -34.185389], [142.163615, -34.185406], [142.163624, -34.185413], [142.163551, -34.185474], [142.163583, -34.185501], [142.1637, -34.185405], [142.163668, -34.185378], [142.163699, -34.185352], [142.163934, -34.185547], [142.163891, -34.185583], [142.163903, -34.185593], [142.163975, -34.185535], [142.16406, -34.185606], [142.164101, -34.185572], [142.164132, -34.185597], [142.164049, -34.185665], [142.164022, -34.185643], [142.163971, -34.185684], [142.163998, -34.185707], [142.163915, -34.185775], [142.163886, -34.18575], [142.163851, -34.185779], [142.163855, -34.185783], [142.163828, -34.185805], [142.163826, -34.185843], [142.16375, -34.185844]]}, "properties": {"brand": "Mercure", "brand:wikidata": "Q1709809", "brand:wikipedia": "en:Mercure (hotel)", "building": "yes", "layer": "1", "name": "Mercure Hotel Mildura", "tourism": "hotel"}}]}], "70": [{"type": "FeatureCollection", "features": [{"type": "Feature", "id": 686511916, "geometry": {"type": "LineString", "coordinates": [[142.164076, -34.18538], [142.164059, -34.185378], [142.164042, -34.185381], [142.164028, -34.185389], [142.164017, -34.1854], [142.164011, -34.185413], [142.164011, -34.185427], [142.164017, -34.18544], [142.164028, -34.185451], [142.164043, -34.185458], [142.164059, -34.185461], [142.164076, -34.185459], [142.164091, -34.185453], [142.164103, -34.185442], [142.164109, -34.185429], [142.164111, -34.18542], [142.164109, -34.18541], [142.164103, -34.185397], [142.164091, -34.185387], [142.164076, -34.18538]]}, "properties": {"building": "yes", "man_made": "water_tower"}}]}], "71": [{"type": "FeatureCollection", "features": [{"type": "Feature", "id": 10635926320, "geometry": {"type": "Point", "coordinates": [144.967182, -37.817759]}, "properties": {"amenity": "clock", "board_type": "public_transport", "date": "no", "departures_board": "realtime", "display": "analog", "information": "board", "loc_name": "Under the Clocks", "name": "Flinders Street Clocks", "support": "wall", "tourism": "information"}}]}], "72": [], "73": [], "74": [{"type": "FeatureCollection", "features": [{"type": "Feature", "id": 1098427843, "geometry": {"type": "LineString", "coordinates": [[144.967768, -37.817839], [144.967824, -37.817941], [144.968056, -37.818446], [144.968095, -37.818546], [144.968123, -37.818622], [144.96816, -37.818676], [144.968207, -37.818721], [144.968213, -37.818728], [144.968216, -37.818723], [144.968219, -37.81872], [144.968226, -37.818717], [144.968236, -37.818715], [144.968329, -37.818713], [144.96833, -37.81872], [144.968356, -37.81872], [144.968356, -37.818712], [144.968371, -37.818712], [144.968371, -37.818704], [144.968371, -37.818694], [144.968437, -37.818697], [144.968447, -37.818696], [144.968459, -37.818696], [144.970089, -37.81862], [144.970302, -37.818627], [144.970516, -37.818645], [144.970574, -37.818576], [144.970939, -37.818562], [144.970934, -37.818477], [144.97091, -37.818072], [144.970777, -37.818109], [144.970592, -37.817712], [144.9702, -37.816918], [144.970165, -37.816834], [144.968301, -37.817398], [144.968158, -37.817442], [144.967671, -37.817587], [144.967768, -37.817839]]}, "properties": {"addr:street": "Swanston Street", "identifiable_factor:cultural_significance": "yes", "identifiable_factor:structural_significance": "yes", "identifiable_factor:type": "yes", "internet_access": "wlan", "name": "Federation Square", "name:ko": "\ud398\ub354\ub808\uc774\uc158 \uad11\uc7a5", "name:vi": "Qu\u1ea3ng tr\u01b0\u1eddng Li\u00ean Bang", "name:zh": "\u8054\u90a6\u5e7f\u573a", "opening_hours": "24/7", "phone": "+61 3 9655 1900", "place": "square", "short_name": "Fed Square", "source:geometry": "services.land.vic.gov.au", "tourism": "attraction", "website": "https://fedsquare.com/", "wikidata": "Q923304", "wikipedia": "en:Federation Square"}}]}], "75": [], "76": [{"type": "FeatureCollection", "features": [{"type": "Feature", "id": 2774230035, "geometry": {"type": "Point", "coordinates": [144.971138, -37.818208]}, "properties": {"leisure": "playground", "name": "ArtPlay Playground"}}]}], "77": [{"type": "FeatureCollection", "features": [{"type": "Feature", "id": 233836125, "geometry": {"type": "LineString", "coordinates": [[144.971442, -37.818212], [144.971696, -37.818229], [144.971682, -37.818358], [144.971658, -37.818356], [144.971428, -37.81834], [144.971442, -37.818212]]}, "properties": {"building": "kindergarten", "name": "ArtPlay", "operator": "City of Melbourne", "phone": "+61 3 9664 7900", "smoking": "no", "website": "https://www.melbourne.vic.gov.au/artplay/"}}]}], "78": [{"type": "FeatureCollection", "features": [{"type": "Feature", "id": 9161912879, "geometry": {"type": "Point", "coordinates": [144.97164, -37.818415]}, "properties": {"artwork_type": "sculpture", "name": "Once Upon A Slime", "tourism": "artwork"}}]}], "79": [], "80": [{"type": "FeatureCollection", "features": [{"type": "Feature", "id": 11311118815, "geometry": {"type": "Point", "coordinates": [144.972074, -37.81873]}, "properties": {"amenity": "bench", "backrest": "yes"}}]}, {"type": "FeatureCollection", "features": [{"type": "Feature", "id": 11311107053, "geometry": {"type": "Point", "coordinates": [144.972361, -37.81878]}, "properties": {"amenity": "bench", "backrest": "yes"}}]}], "81": [{"type": "FeatureCollection", "features": [{"type": "Feature", "id": 342431866, "geometry": {"type": "LineString", "coordinates": [[144.970111, -37.818529], [144.970045, -37.81854], [144.969785, -37.818585], [144.969551, -37.818595], [144.968929, -37.818621], [144.968348, -37.818645], [144.968176, -37.818652]]}, "properties": {"bicycle": "yes", "foot": "yes", "highway": "footway", "name": "Princes Walk", "surface": "paved"}}]}], "82": [], "83": [{"type": "FeatureCollection", "features": [{"type": "Feature", "id": 6741658224, "geometry": {"type": "Point", "coordinates": [144.972936, -37.818941]}, "properties": {"artist_name": "Deborah Halpern", "artwork_type": "sculpture", "name": "Angel", "tourism": "artwork"}}]}], "84": [{"type": "FeatureCollection", "features": [{"type": "Feature", "id": 721761329, "geometry": {"type": "LineString", "coordinates": [[144.971772, -37.818472], [144.972394, -37.818454], [144.972748, -37.818351], [144.972985, -37.818357], [144.97331, -37.81834], [144.97506, -37.81824], [144.974545, -37.817928], [144.974167, -37.818033], [144.973222, -37.817529], [144.972773, -37.817672], [144.972789, -37.817712], [144.971653, -37.818088], [144.971757, -37.818179], [144.971902, -37.81817], [144.971711, -37.818409], [144.971772, -37.818472]]}, "properties": {"landuse": "grass"}}]}], "85": [{"type": "FeatureCollection", "features": [{"type": "Feature", "id": 539618149, "geometry": {"type": "LineString", "coordinates": [[144.974642, -37.818464], [144.974612, -37.818463], [144.974488, -37.81847], [144.973884, -37.818455]]}, "properties": {"bicycle": "designated", "bridge": "yes", "foot": "designated", "highway": "cycleway", "layer": "1", "segregated": "no", "source": "nearmap", "surface": "asphalt"}}]}], "86": [{"type": "FeatureCollection", "features": [{"type": "Feature", "id": 8038239, "geometry": {"type": "LineString", "coordinates": [[144.979769, -37.818632], [144.976504, -37.818266]]}, "properties": {"bicycle": "designated", "bridge": "yes", "foot": "designated", "highway": "cycleway", "layer": "1", "lit": "yes", "name": "William Barak Bridge", "segregated": "no", "source": "nearmap", "surface": "concrete"}}]}], "87": [], "88": [{"type": "FeatureCollection", "features": [{"type": "Feature", "id": 8038239, "geometry": {"type": "LineString", "coordinates": [[144.979769, -37.818632], [144.976504, -37.818266]]}, "properties": {"bicycle": "designated", "bridge": "yes", "foot": "designated", "highway": "cycleway", "layer": "1", "lit": "yes", "name": "William Barak Bridge", "segregated": "no", "source": "nearmap", "surface": "concrete"}}]}], "89": [{"type": "FeatureCollection", "features": [{"type": "Feature", "id": 8038230, "geometry": {"type": "LineString", "coordinates": [[144.981829, -37.818964], [144.981756, -37.818953], [144.981375, -37.818891], [144.981068, -37.818842], [144.980989, -37.818829], [144.980105, -37.818686], [144.979853, -37.818646], [144.979769, -37.818632]]}, "properties": {"bicycle": "designated", "foot": "designated", "highway": "cycleway", "name": "Daniher's Way", "segregated": "no", "surface": "asphalt"}}]}], "90": [{"type": "FeatureCollection", "features": [{"type": "Feature", "id": 210337258, "geometry": {"type": "LineString", "coordinates": [[144.98434, -37.821066], [144.984513, -37.820982], [144.984695, -37.820865], [144.984821, -37.820757], [144.984843, -37.82077], [144.984882, -37.820732], [144.984909, -37.8207], [144.984965, -37.820635], [144.985024, -37.820567], [144.984997, -37.820554], [144.985055, -37.820469], [144.985119, -37.820349], [144.985167, -37.820222], [144.985308, -37.820244], [144.98544, -37.820265], [144.985469, -37.820252], [144.985496, -37.820241], [144.985334, -37.819997], [144.985319, -37.819978], [144.985301, -37.819884], [144.985291, -37.819804], [144.985256, -37.819693], [144.985204, -37.8195], [144.985242, -37.819309], [144.985153, -37.819338], [144.985096, -37.819182], [144.985187, -37.819047], [144.985083, -37.819001], [144.985019, -37.818974], [144.98484, -37.818896], [144.984874, -37.818861], [144.984423, -37.81867], [144.984328, -37.818628], [144.9841, -37.818526], [144.984077, -37.818581], [144.983051, -37.81852], [144.98304, -37.81852], [144.982918, -37.818515], [144.98274, -37.818583], [144.982142, -37.818784], [144.982165, -37.818822], [144.982116, -37.818845], [144.981872, -37.818821], [144.981857, -37.818855], [144.981821, -37.81888], [144.981802, -37.81889], [144.981781, -37.818899], [144.981756, -37.818953], [144.981738, -37.818997], [144.981694, -37.8191], [144.981679, -37.819135], [144.981426, -37.819764], [144.9811, -37.819681], [144.981055, -37.819807], [144.981029, -37.8198], [144.980986, -37.819788], [144.980949, -37.819776], [144.980934, -37.819772], [144.980916, -37.819835], [144.980958, -37.819847], [144.981007, -37.819859], [144.981214, -37.819934], [144.981343, -37.820004], [144.98145, -37.820077], [144.98156, -37.820207], [144.981837, -37.820472], [144.981847, -37.820481], [144.98219, -37.820747], [144.982362, -37.820867], [144.982594, -37.821005], [144.982791, -37.82111], [144.983014, -37.821248], [144.983273, -37.821327], [144.983271, -37.821306], [144.983245, -37.821267], [144.983266, -37.821258], [144.983281, -37.821318], [144.983375, -37.821329], [144.983468, -37.821341], [144.98351, -37.821285], [144.983562, -37.821273], [144.983738, -37.821234], [144.98374, -37.821255], [144.983914, -37.821221], [144.984006, -37.8212], [144.984054, -37.82119], [144.984186, -37.82115], [144.984175, -37.821132], [144.98434, -37.821066]]}, "properties": {"addr:housenumber": "120", "addr:postcode": "3004", "addr:state": "VIC", "addr:street": "Brunton Avenue", "addr:suburb": "East Melbourne", "alt_name": "MCG", "alt_sport": "Cricket", "contact:facebook": "176777081569", "contact:instagram": "mcg", "contact:twitter": "MCG", "leisure": "stadium", "name": "Melbourne Cricket Ground", "name:he": "\u05d0\u05e6\u05d8\u05d3\u05d9\u05d5\u05df \u05d4\u05e7\u05e8\u05d9\u05e7\u05d8 \u05e9\u05dc \u05de\u05dc\u05d1\u05d5\u05e8\u05df", "name:ko": "\uba5c\ubc84\ub978 \ud06c\ub9ac\ucf13 \uadf8\ub77c\uc6b4\ub4dc", "name:ru": "\u041c\u0435\u043b\u044c\u0431\u0443\u0440\u043d \u041a\u0440\u0438\u043a\u0435\u0442 \u0413\u0440\u0430\u0443\u043d\u0434", "name:vi": "S\u00e2n Kh\u00fac c\u00f4n c\u1ea7u Melbourne", "phone": "+61 3 9657 8888", "source": "Bing", "sport": "australian_football;cricket;multi", "surface": "concrete", "website": "https://www.mcg.org.au/", "wheelchair": "limited", "wikidata": "Q330136", "wikipedia": "en:Melbourne Cricket Ground"}}]}], "91": [{"type": "FeatureCollection", "features": [{"type": "Feature", "id": 8998978450, "geometry": {"type": "Point", "coordinates": [144.981877, -37.819061]}, "properties": {"historic": "memorial", "memorial": "statue", "name": "Dennis Lillee", "subject:wikidata": "Q1189313"}}]}], "92": [{"type": "FeatureCollection", "features": [{"type": "Feature", "id": 8998978445, "geometry": {"type": "Point", "coordinates": [144.982117, -37.818821]}, "properties": {"historic": "memorial", "inscription": "First recorded game of Australian Football", "memorial": "statue"}}]}], "93": [{"type": "FeatureCollection", "features": [{"type": "Feature", "id": 4148845957, "geometry": {"type": "Point", "coordinates": [144.983846, -37.816472]}, "properties": {"name": "Jolimont", "network": "PTV \u2013 Metropolitan Trains", "operator": "Metro Trains Melbourne", "public_transport": "stop_position", "railway": "stop", "ref": "JLI", "train": "yes"}}]}, {"type": "FeatureCollection", "features": [{"type": "Feature", "id": 4148845958, "geometry": {"type": "Point", "coordinates": [144.983839, -37.816503]}, "properties": {"name": "Jolimont", "network": "PTV - Metropolitan Trains", "operator": "Metro Trains Melbourne", "public_transport": "stop_position", "railway": "stop", "ref": "JLI", "train": "yes"}}]}], "95": [], "96": [], "97": [{"type": "FeatureCollection", "features": [{"type": "Feature", "id": 231442494, "geometry": {"type": "LineString", "coordinates": [[144.726609, -38.345447], [144.726554, -38.345399], [144.726469, -38.345346], [144.726238, -38.345344]]}, "properties": {"bridge": "yes", "highway": "steps", "layer": "1", "source": "Bing", "surface": "wood"}}]}, {"type": "FeatureCollection", "features": [{"type": "Feature", "id": 231442496, "geometry": {"type": "LineString", "coordinates": [[144.726238, -38.345344], [144.726077, -38.345277], [144.725898, -38.34532]]}, "properties": {"bridge": "yes", "highway": "path", "layer": "1", "source": "Bing", "surface": "wood"}}]}], "98": [{"type": "FeatureCollection", "features": [{"type": "Feature", "id": 231532290, "geometry": {"type": "LineString", "coordinates": [[144.725304, -38.34489], [144.725336, -38.344899], [144.725349, -38.344924], [144.725337, -38.344949], [144.725306, -38.344959], [144.725274, -38.34495], [144.72526, -38.344925], [144.725273, -38.3449], [144.725304, -38.34489]]}, "properties": {"building": "yes", "name": "Coppin's Lookout", "source": "Bing", "tourism": "viewpoint"}}]}], "99": [{"type": "FeatureCollection", "features": [{"type": "Feature", "id": 92640804, "geometry": {"type": "LineString", "coordinates": [[144.726313, -38.344089], [144.726297, -38.344052], [144.726297, -38.344003], [144.726253, -38.343956], [144.726158, -38.343918], [144.726016, -38.343883], [144.725893, -38.34384], [144.725835, -38.34376], [144.725777, -38.343707], [144.725556, -38.343622], [144.725454, -38.343558], [144.725298, -38.343462], [144.725209, -38.343411], [144.725179, -38.343415], [144.725126, -38.343423], [144.725055, -38.34346], [144.724958, -38.343501], [144.724874, -38.343513], [144.724779, -38.343461], [144.724675, -38.343341], [144.724622, -38.343253], [144.72458, -38.343232], [144.724412, -38.343198], [144.724238, -38.343157], [144.724108, -38.343082], [144.724007, -38.342984], [144.723936, -38.342878], [144.723913, -38.342841], [144.723875, -38.342817], [144.723798, -38.342805], [144.723671, -38.342811], [144.723537, -38.342841], [144.723459, -38.342851], [144.723351, -38.342862], [144.723219, -38.342827], [144.723157, -38.342819], [144.723089, -38.342818], [144.723021, -38.342836], [144.722966, -38.342874], [144.722837, -38.342902], [144.722505, -38.342963], [144.722303, -38.342984], [144.722219, -38.342996], [144.722112, -38.343027], [144.721927, -38.343015], [144.721824, -38.342999], [144.72175, -38.342991], [144.721679, -38.342998], [144.721598, -38.343027], [144.721522, -38.34307], [144.721452, -38.343111], [144.721382, -38.343126], [144.72119, -38.343124], [144.721125, -38.343137], [144.721045, -38.343162], [144.720952, -38.343201], [144.720879, -38.343212], [144.720799, -38.343184], [144.720756, -38.343145], [144.720749, -38.343083], [144.720689, -38.343047], [144.720598, -38.343006], [144.720523, -38.342975], [144.720456, -38.342939], [144.720364, -38.342934], [144.72026, -38.34295], [144.720178, -38.342968], [144.720109, -38.342971], [144.72003, -38.342941]]}, "properties": {"bicycle": "no", "foot": "yes", "highway": "path", "name": "Coppins Track", "surface": "dirt"}}]}], "100": [{"type": "FeatureCollection", "features": [{"type": "Feature", "id": 958620192, "geometry": {"type": "LineString", "coordinates": [[144.692407, -38.329009], [144.692429, -38.329182], [144.692419, -38.329311], [144.692454, -38.329399], [144.692676, -38.329386], [144.69282, -38.329431], [144.69297, -38.329534], [144.693068, -38.329694], [144.693138, -38.329902], [144.69333, -38.330101], [144.693545, -38.330265], [144.693762, -38.330353], [144.694176, -38.33046], [144.694573, -38.330593], [144.694951, -38.330668], [144.695381, -38.330815], [144.695816, -38.330991], [144.69637, -38.33128], [144.696755, -38.33146], [144.697171, -38.331649], [144.697593, -38.331935], [144.697982, -38.332073], [144.698633, -38.332444], [144.699164, -38.332697], [144.699489, -38.332931], [144.699946, -38.333207], [144.700672, -38.333513], [144.701431, -38.333848], [144.701992, -38.334189], [144.702862, -38.334481], [144.70349, -38.334906], [144.703915, -38.335258], [144.704679, -38.335691], [144.705593, -38.336058], [144.706242, -38.336373], [144.7071, -38.336709], [144.707837, -38.337096], [144.708455, -38.337456], [144.709108, -38.337769], [144.709808, -38.3381], [144.710481, -38.338482], [144.711036, -38.338801], [144.711777, -38.339152], [144.712294, -38.339416], [144.71281, -38.33975], [144.713326, -38.340083], [144.714099, -38.34048], [144.714884, -38.340883], [144.715448, -38.341203], [144.715987, -38.34151], [144.716557, -38.341816], [144.717195, -38.342157], [144.717762, -38.342483], [144.718233, -38.342573], [144.718501, -38.342635], [144.718672, -38.342755], [144.718789, -38.342959], [144.719131, -38.343224], [144.719256, -38.343435], [144.719428, -38.343485], [144.719749, -38.343579], [144.720553, -38.343879], [144.72043, -38.34363], [144.720379, -38.343527], [144.720132, -38.343346], [144.719853, -38.343262], [144.719549, -38.343031], [144.719368, -38.342747], [144.719038, -38.342481], [144.718817, -38.342349], [144.718485, -38.342198], [144.718162, -38.342052], [144.717592, -38.341761], [144.716334, -38.341005], [144.71472, -38.340169], [144.713293, -38.339465], [144.712706, -38.339163], [144.712385, -38.338945], [144.712078, -38.33876], [144.711668, -38.33858], [144.710569, -38.338036], [144.709394, -38.337398], [144.707775, -38.336549], [144.706623, -38.336002], [144.7056, -38.335445], [144.705272, -38.33528], [144.703857, -38.334683], [144.702634, -38.334154], [144.701503, -38.333551], [144.700242, -38.332886], [144.699282, -38.332396], [144.697696, -38.33155], [144.696581, -38.330919], [144.695822, -38.330552], [144.695254, -38.330384], [144.694193, -38.330086], [144.693715, -38.329973], [144.693477, -38.329825], [144.693325, -38.329692], [144.693271, -38.329592], [144.693061, -38.329445], [144.692864, -38.32934], [144.6927, -38.329261], [144.692626, -38.329126], [144.692556, -38.329035], [144.692472, -38.328984], [144.692407, -38.329009]]}, "properties": {"name": "Portsea Back Beach", "natural": "beach"}}]}], "101": [{"type": "FeatureCollection", "features": [{"type": "Feature", "id": 471789660, "geometry": {"type": "LineString", "coordinates": [[144.704606, -38.334705], [144.70507, -38.334953], [144.704972, -38.335067], [144.704507, -38.334819], [144.704606, -38.334705]]}, "properties": {"building": "yes", "name": "Portsea Surf Lifesaving Club"}}]}], "102": [{"type": "FeatureCollection", "features": [{"type": "Feature", "id": 147610651, "geometry": {"type": "LineString", "coordinates": [[144.697979, -38.327743], [144.697866, -38.327772], [144.697697, -38.327803], [144.69684, -38.327968], [144.696334, -38.328076], [144.696246, -38.328099], [144.696124, -38.32814], [144.695888, -38.328228], [144.69565, -38.328328], [144.695524, -38.328399], [144.69542, -38.328471], [144.695329, -38.32855], [144.695319, -38.328561], [144.695236, -38.328654], [144.695171, -38.328746], [144.695102, -38.32885]]}, "properties": {"highway": "tertiary", "lanes": "2", "maxspeed": "30", "name": "London Bridge Road", "surface": "asphalt"}}]}], "103": [{"type": "FeatureCollection", "features": [{"type": "Feature", "id": 3632860913, "geometry": {"type": "Point", "coordinates": [144.695465, -38.329136]}, "properties": {"amenity": "drinking_water"}}]}, {"type": "FeatureCollection", "features": [{"type": "Feature", "id": 357080124, "geometry": {"type": "Point", "coordinates": [144.695588, -38.329089]}, "properties": {"amenity": "toilets"}}]}], "104": [{"type": "FeatureCollection", "features": [{"type": "Feature", "id": 181376801, "geometry": {"type": "LineString", "coordinates": [[144.698666, -38.325427], [144.698705, -38.325531], [144.698723, -38.325579], [144.69867, -38.325768], [144.698375, -38.326256], [144.698294, -38.326488], [144.698101, -38.326698], [144.697994, -38.326875], [144.697827, -38.327233], [144.697415, -38.327654], [144.697227, -38.327843], [144.6969, -38.327906], [144.696663, -38.327948], [144.696047, -38.328028], [144.695929, -38.3281], [144.695671, -38.328201], [144.695483, -38.328238], [144.695285, -38.328365], [144.695092, -38.328499], [144.694947, -38.328567], [144.69485, -38.328651], [144.694759, -38.329013], [144.694716, -38.329156], [144.694732, -38.329261], [144.694807, -38.329316], [144.694989, -38.329296]]}, "properties": {"bicycle": "no", "highway": "footway", "name": "Wilsons Folly"}}]}], "105": [], "106": [], "107": [{"type": "FeatureCollection", "features": [{"type": "Feature", "id": 36897615, "geometry": {"type": "LineString", "coordinates": [[144.702996, -38.319034], [144.702893, -38.318974], [144.70285, -38.318967], [144.702824, -38.318886], [144.702858, -38.318839], [144.702936, -38.318792], [144.703013, -38.318778], [144.703116, -38.318812], [144.70315, -38.318859], [144.70315, -38.318913], [144.703125, -38.318974], [144.703073, -38.319007], [144.702996, -38.319034]]}, "properties": {"name": "Point Nepean Visitor Centre", "tourism": "information"}}]}], "108": [], "109": [], "110": [], "111": [], "112": [{"type": "FeatureCollection", "features": [{"type": "Feature", "id": 1608117633, "geometry": {"type": "Point", "coordinates": [144.709766, -38.319694]}, "properties": {"bus": "yes", "highway": "bus_stop", "name": "Delgany Avenue/Point Nepean Road", "network": "PTV - Metropolitan Buses", "public_transport": "platform", "ref": "ID.13132"}}]}], "113": [], "114": [], "115": [], "116": [{"type": "FeatureCollection", "features": [{"type": "Feature", "id": 1088334181, "geometry": {"type": "LineString", "coordinates": [[149.753703, -37.553743], [149.753891, -37.553844]]}, "properties": {"man_made": "pier"}}]}, {"type": "FeatureCollection", "features": [{"type": "Feature", "id": 1088334180, "geometry": {"type": "LineString", "coordinates": [[149.753574, -37.553897], [149.753679, -37.554038], [149.753736, -37.554004]]}, "properties": {"man_made": "pier"}}]}, {"type": "FeatureCollection", "features": [{"type": "Feature", "id": 1088334179, "geometry": {"type": "LineString", "coordinates": [[149.753473, -37.553966], [149.753554, -37.554076]]}, "properties": {"man_made": "pier"}}]}, {"type": "FeatureCollection", "features": [{"type": "Feature", "id": 1088334182, "geometry": {"type": "LineString", "coordinates": [[149.753747, -37.553571], [149.753915, -37.553587]]}, "properties": {"man_made": "pier"}}]}, {"type": "FeatureCollection", "features": [{"type": "Feature", "id": 1088334183, "geometry": {"type": "LineString", "coordinates": [[149.753807, -37.553434], [149.753959, -37.553441]]}, "properties": {"man_made": "pier"}}]}, {"type": "FeatureCollection", "features": [{"type": "Feature", "id": 1088334184, "geometry": {"type": "LineString", "coordinates": [[149.753816, -37.553299], [149.753953, -37.553297]]}, "properties": {"man_made": "pier"}}]}, {"type": "FeatureCollection", "features": [{"type": "Feature", "id": 1088334185, "geometry": {"type": "LineString", "coordinates": [[149.753768, -37.553162], [149.753954, -37.553165]]}, "properties": {"man_made": "pier"}}]}], "117": [], "118": [], "119": [], "120": [{"type": "FeatureCollection", "features": [{"type": "Feature", "id": 1088334167, "geometry": {"type": "LineString", "coordinates": [[149.756457, -37.554412], [149.75654, -37.554252]]}, "properties": {"man_made": "pier"}}]}, {"type": "FeatureCollection", "features": [{"type": "Feature", "id": 1088334166, "geometry": {"type": "LineString", "coordinates": [[149.756336, -37.554351], [149.75643, -37.554193]]}, "properties": {"man_made": "pier"}}]}, {"type": "FeatureCollection", "features": [{"type": "Feature", "id": 1088334168, "geometry": {"type": "LineString", "coordinates": [[149.756587, -37.554462], [149.756668, -37.554315]]}, "properties": {"man_made": "pier"}}]}], "121": [{"type": "FeatureCollection", "features": [{"type": "Feature", "id": 218195747, "geometry": {"type": "LineString", "coordinates": [[149.763999, -37.55583], [149.764561, -37.556456], [149.765222, -37.556776], [149.766, -37.556732], [149.766764, -37.556293], [149.767352, -37.555707], [149.767825, -37.555146], [149.768042, -37.554823], [149.768214, -37.554567], [149.768267, -37.554489], [149.76834, -37.554138], [149.768018, -37.553576], [149.767704, -37.553233], [149.767331, -37.55281], [149.767331, -37.552402], [149.767142, -37.552245], [149.766717, -37.552082], [149.766532, -37.552198], [149.766558, -37.55248], [149.766429, -37.552844], [149.766206, -37.553001], [149.765806, -37.552991], [149.765154, -37.553123], [149.764922, -37.553355], [149.764776, -37.553648], [149.764965, -37.553838], [149.765317, -37.554087], [149.765759, -37.554342], [149.765955, -37.554548], [149.76618, -37.554785], [149.766554, -37.555016], [149.766747, -37.555169], [149.766781, -37.555363], [149.7667, -37.555469], [149.766601, -37.555557], [149.766481, -37.555588], [149.766558, -37.555459], [149.766463, -37.555299], [149.766129, -37.555132], [149.765721, -37.554815], [149.765519, -37.554574], [149.765265, -37.554308], [149.76493, -37.554009], [149.764772, -37.553832], [149.764694, -37.553685], [149.764428, -37.553753], [149.764299, -37.553927], [149.764239, -37.554352], [149.764252, -37.554649], [149.764274, -37.554873], [149.764085, -37.555326], [149.76402, -37.555608], [149.763999, -37.55583]]}, "properties": {"name": "Goat Island", "place": "islet"}}]}, {"type": "FeatureCollection", "features": [{"type": "Feature", "id": 218195734, "geometry": {"type": "LineString", "coordinates": [[149.763277, -37.547295], [149.763799, -37.546477], [149.764467, -37.545707], [149.765062, -37.545562], [149.765524, -37.545861], [149.766119, -37.546708], [149.766666, -37.547218], [149.766471, -37.547421], [149.765949, -37.547517], [149.765196, -37.547883], [149.764079, -37.547835], [149.763374, -37.547546], [149.763277, -37.547295]]}, "properties": {"name": "Rabbit Island", "place": "islet"}}]}, {"type": "FeatureCollection", "features": [{"type": "Feature", "id": 218195738, "geometry": {"type": "LineString", "coordinates": [[149.771456, -37.548915], [149.770907, -37.549881], [149.770615, -37.551747], [149.770443, -37.552509], [149.770993, -37.552945], [149.770803, -37.554116], [149.770855, -37.554743], [149.771662, -37.554783], [149.772075, -37.554143], [149.772942, -37.552946], [149.773562, -37.551761], [149.77355, -37.551059], [149.773173, -37.550365], [149.772602, -37.549605], [149.772165, -37.549297], [149.771959, -37.548902], [149.771456, -37.548915]]}, "properties": {"name": "Horse Island", "natural": "scrub"}}]}], "122": [], "123": [{"type": "FeatureCollection", "features": [{"type": "Feature", "id": 167060008, "geometry": {"type": "LineString", "coordinates": [[149.75524, -37.556781], [149.75664, -37.5556], [149.75683, -37.555439], [149.757079, -37.555229], [149.758381, -37.557033], [149.758897, -37.557122], [149.760622, -37.558406], [149.76138, -37.559497], [149.760178, -37.559623], [149.758989, -37.559958], [149.758859, -37.559994], [149.759543, -37.562706], [149.760484, -37.563565], [149.761128, -37.563354], [149.761323, -37.562665], [149.760954, -37.562166], [149.760584, -37.561818], [149.760546, -37.561571], [149.76142, -37.559594], [149.762097, -37.559313], [149.761383, -37.558278], [149.761318, -37.558183], [149.759618, -37.556353], [149.758561, -37.555747], [149.758159, -37.555327], [149.757808, -37.554872], [149.756742, -37.55459], [149.7567, -37.554751], [149.75585, -37.555041], [149.75566, -37.555433], [149.755571, -37.556101], [149.755142, -37.556666], [149.75524, -37.556781]]}, "properties": {"name": "Mallacoota Foreshore Holiday Park", "source:name": "voice", "tourism": "caravan_site"}}]}], "124": [], "125": [], "126": [{"type": "FeatureCollection", "features": [{"type": "Feature", "id": 392555683, "geometry": {"type": "LineString", "coordinates": [[149.755111, -37.564191], [149.756271, -37.563823], [149.756336, -37.562241], [149.758396, -37.56122], [149.758095, -37.560268], [149.758651, -37.56016], [149.759359, -37.563051], [149.760325, -37.563817], [149.758715, -37.565007], [149.758718, -37.565728], [149.75745, -37.565637], [149.75687, -37.566283], [149.755025, -37.564684], [149.755111, -37.564191]]}, "properties": {"natural": "wood"}}]}], "127": [], "128": [], "129": [{"type": "FeatureCollection", "features": [{"type": "Feature", "id": 1008233190, "geometry": {"type": "LineString", "coordinates": [[149.76228, -37.568857], [149.76191, -37.568819], [149.761738, -37.56833], [149.761336, -37.568032], [149.761325, -37.567679], [149.761684, -37.566914], [149.762049, -37.566616], [149.762403, -37.56668], [149.762559, -37.566429], [149.762205, -37.566234], [149.761985, -37.566063], [149.76214, -37.565902], [149.762516, -37.565847], [149.762548, -37.565643], [149.762747, -37.565476], [149.763042, -37.565404], [149.763176, -37.565281], [149.763117, -37.565154], [149.763063, -37.56503], [149.762945, -37.564839], [149.762349, -37.56469], [149.762365, -37.564507], [149.76272, -37.564401], [149.762993, -37.564473], [149.763101, -37.564133], [149.762822, -37.563912], [149.762832, -37.563729], [149.762607, -37.563478], [149.762929, -37.563257], [149.763723, -37.563274], [149.76427, -37.563317], [149.765053, -37.56301], [149.765273, -37.562534], [149.766008, -37.561828], [149.766952, -37.561548], [149.76707, -37.561505], [149.766783, -37.561282], [149.766593, -37.560825], [149.76721, -37.560676], [149.767397, -37.56054], [149.767338, -37.560234], [149.76788, -37.559859], [149.767762, -37.559285], [149.767151, -37.559137], [149.767134, -37.558511], [149.767312, -37.55812], [149.767864, -37.558112], [149.768771, -37.55832], [149.768427, -37.559375], [149.768224, -37.560272], [149.76839, -37.560808], [149.768529, -37.561207], [149.768277, -37.561437], [149.767644, -37.562262], [149.767049, -37.562581], [149.766045, -37.563359], [149.765295, -37.563767], [149.764563, -37.56464], [149.763959, -37.565468], [149.762618, -37.56745], [149.762199, -37.568649], [149.76228, -37.568857]]}, "properties": {"name": "Main - Bastion Point", "natural": "beach"}}]}], "130": [{"type": "FeatureCollection", "features": [{"type": "Feature", "id": 1008233190, "geometry": {"type": "LineString", "coordinates": [[149.76228, -37.568857], [149.76191, -37.568819], [149.761738, -37.56833], [149.761336, -37.568032], [149.761325, -37.567679], [149.761684, -37.566914], [149.762049, -37.566616], [149.762403, -37.56668], [149.762559, -37.566429], [149.762205, -37.566234], [149.761985, -37.566063], [149.76214, -37.565902], [149.762516, -37.565847], [149.762548, -37.565643], [149.762747, -37.565476], [149.763042, -37.565404], [149.763176, -37.565281], [149.763117, -37.565154], [149.763063, -37.56503], [149.762945, -37.564839], [149.762349, -37.56469], [149.762365, -37.564507], [149.76272, -37.564401], [149.762993, -37.564473], [149.763101, -37.564133], [149.762822, -37.563912], [149.762832, -37.563729], [149.762607, -37.563478], [149.762929, -37.563257], [149.763723, -37.563274], [149.76427, -37.563317], [149.765053, -37.56301], [149.765273, -37.562534], [149.766008, -37.561828], [149.766952, -37.561548], [149.76707, -37.561505], [149.766783, -37.561282], [149.766593, -37.560825], [149.76721, -37.560676], [149.767397, -37.56054], [149.767338, -37.560234], [149.76788, -37.559859], [149.767762, -37.559285], [149.767151, -37.559137], [149.767134, -37.558511], [149.767312, -37.55812], [149.767864, -37.558112], [149.768771, -37.55832], [149.768427, -37.559375], [149.768224, -37.560272], [149.76839, -37.560808], [149.768529, -37.561207], [149.768277, -37.561437], [149.767644, -37.562262], [149.767049, -37.562581], [149.766045, -37.563359], [149.765295, -37.563767], [149.764563, -37.56464], [149.763959, -37.565468], [149.762618, -37.56745], [149.762199, -37.568649], [149.76228, -37.568857]]}, "properties": {"name": "Main - Bastion Point", "natural": "beach"}}]}], "131": [{"type": "FeatureCollection", "features": [{"type": "Feature", "id": 1008233190, "geometry": {"type": "LineString", "coordinates": [[149.76228, -37.568857], [149.76191, -37.568819], [149.761738, -37.56833], [149.761336, -37.568032], [149.761325, -37.567679], [149.761684, -37.566914], [149.762049, -37.566616], [149.762403, -37.56668], [149.762559, -37.566429], [149.762205, -37.566234], [149.761985, -37.566063], [149.76214, -37.565902], [149.762516, -37.565847], [149.762548, -37.565643], [149.762747, -37.565476], [149.763042, -37.565404], [149.763176, -37.565281], [149.763117, -37.565154], [149.763063, -37.56503], [149.762945, -37.564839], [149.762349, -37.56469], [149.762365, -37.564507], [149.76272, -37.564401], [149.762993, -37.564473], [149.763101, -37.564133], [149.762822, -37.563912], [149.762832, -37.563729], [149.762607, -37.563478], [149.762929, -37.563257], [149.763723, -37.563274], [149.76427, -37.563317], [149.765053, -37.56301], [149.765273, -37.562534], [149.766008, -37.561828], [149.766952, -37.561548], [149.76707, -37.561505], [149.766783, -37.561282], [149.766593, -37.560825], [149.76721, -37.560676], [149.767397, -37.56054], [149.767338, -37.560234], [149.76788, -37.559859], [149.767762, -37.559285], [149.767151, -37.559137], [149.767134, -37.558511], [149.767312, -37.55812], [149.767864, -37.558112], [149.768771, -37.55832], [149.768427, -37.559375], [149.768224, -37.560272], [149.76839, -37.560808], [149.768529, -37.561207], [149.768277, -37.561437], [149.767644, -37.562262], [149.767049, -37.562581], [149.766045, -37.563359], [149.765295, -37.563767], [149.764563, -37.56464], [149.763959, -37.565468], [149.762618, -37.56745], [149.762199, -37.568649], [149.76228, -37.568857]]}, "properties": {"name": "Main - Bastion Point", "natural": "beach"}}]}], "132": [{"type": "FeatureCollection", "features": [{"type": "Feature", "id": 7005511179, "geometry": {"type": "Point", "coordinates": [149.764431, -37.572771]}, "properties": {"name": "Bastion Point", "place": "locality"}}]}], "133": [], "134": [{"type": "FeatureCollection", "features": [{"type": "Feature", "id": 8065262, "geometry": {"type": "LineString", "coordinates": [[145.020535, -37.799067], [145.020355, -37.799203], [145.019702, -37.799461], [145.01917, -37.799651], [145.018758, -37.799841], [145.018643, -37.799917], [145.01857, -37.800037], [145.018528, -37.800144], [145.018544, -37.800281], [145.018571, -37.800413], [145.018681, -37.800559], [145.018999, -37.800783], [145.020458, -37.802004], [145.020853, -37.802357], [145.021084, -37.802675], [145.021119, -37.802886], [145.020998, -37.803062], [145.020784, -37.803225], [145.020432, -37.803442], [145.020003, -37.803632], [145.019531, -37.803693], [145.01814, -37.803435], [145.017076, -37.803198], [145.016406, -37.80296], [145.016184, -37.802852], [145.015977, -37.802716], [145.015806, -37.802596], [145.015645, -37.802443], [145.015543, -37.802284], [145.01548, -37.802112], [145.015411, -37.801733], [145.015334, -37.801136], [145.015256, -37.800716], [145.015136, -37.800417], [145.014922, -37.800139], [145.014663, -37.799944], [145.014304, -37.799732], [145.014094, -37.799614], [145.013612, -37.799427], [145.013362, -37.799334], [145.01248, -37.799175], [145.011581, -37.799046], [145.011249, -37.79905], [145.011055, -37.799095], [145.010886, -37.799171], [145.01072, -37.79929], [145.010557, -37.799476], [145.010244, -37.799759], [145.008802, -37.800417], [145.007652, -37.800899], [145.007326, -37.800919], [145.007103, -37.800878], [145.006927, -37.800796], [145.006776, -37.800682], [145.006651, -37.800578], [145.006545, -37.800424], [145.006502, -37.800153], [145.00657, -37.799732], [145.006639, -37.799183], [145.006751, -37.798891], [145.006897, -37.798647], [145.007094, -37.798505]]}, "properties": {"boat": "no", "name": "Yarra River", "waterway": "river"}}]}], "135": [], "136": [], "137": [{"type": "FeatureCollection", "features": [{"type": "Feature", "id": 8065262, "geometry": {"type": "LineString", "coordinates": [[145.020535, -37.799067], [145.020355, -37.799203], [145.019702, -37.799461], [145.01917, -37.799651], [145.018758, -37.799841], [145.018643, -37.799917], [145.01857, -37.800037], [145.018528, -37.800144], [145.018544, -37.800281], [145.018571, -37.800413], [145.018681, -37.800559], [145.018999, -37.800783], [145.020458, -37.802004], [145.020853, -37.802357], [145.021084, -37.802675], [145.021119, -37.802886], [145.020998, -37.803062], [145.020784, -37.803225], [145.020432, -37.803442], [145.020003, -37.803632], [145.019531, -37.803693], [145.01814, -37.803435], [145.017076, -37.803198], [145.016406, -37.80296], [145.016184, -37.802852], [145.015977, -37.802716], [145.015806, -37.802596], [145.015645, -37.802443], [145.015543, -37.802284], [145.01548, -37.802112], [145.015411, -37.801733], [145.015334, -37.801136], [145.015256, -37.800716], [145.015136, -37.800417], [145.014922, -37.800139], [145.014663, -37.799944], [145.014304, -37.799732], [145.014094, -37.799614], [145.013612, -37.799427], [145.013362, -37.799334], [145.01248, -37.799175], [145.011581, -37.799046], [145.011249, -37.79905], [145.011055, -37.799095], [145.010886, -37.799171], [145.01072, -37.79929], [145.010557, -37.799476], [145.010244, -37.799759], [145.008802, -37.800417], [145.007652, -37.800899], [145.007326, -37.800919], [145.007103, -37.800878], [145.006927, -37.800796], [145.006776, -37.800682], [145.006651, -37.800578], [145.006545, -37.800424], [145.006502, -37.800153], [145.00657, -37.799732], [145.006639, -37.799183], [145.006751, -37.798891], [145.006897, -37.798647], [145.007094, -37.798505]]}, "properties": {"boat": "no", "name": "Yarra River", "waterway": "river"}}]}], "138": [], "139": [{"type": "FeatureCollection", "features": [{"type": "Feature", "id": 27246521, "geometry": {"type": "LineString", "coordinates": [[145.010064, -37.80046], [145.010169, -37.800606], [145.009915, -37.800757], [145.009615, -37.8008], [145.009, -37.801299], [145.008365, -37.801152], [145.008239, -37.800866], [145.008953, -37.800537], [145.009516, -37.800252], [145.00961, -37.800225], [145.009744, -37.800166], [145.010064, -37.80046]]}, "properties": {"layer": "1", "leisure": "park", "name": "Studley Park Picnic Area"}}]}], "140": [{"type": "FeatureCollection", "features": [{"type": "Feature", "id": 6813556950, "geometry": {"type": "Point", "coordinates": [145.009539, -37.80069]}, "properties": {"information": "board", "tourism": "information"}}]}], "141": [{"type": "FeatureCollection", "features": [{"type": "Feature", "id": 969980200, "geometry": {"type": "LineString", "coordinates": [[145.010489, -37.800078], [145.010309, -37.800228], [145.010079, -37.800419]]}, "properties": {"bicycle": "yes", "highway": "track", "mtb": "yes", "mtb:scale": "0", "name": "Burnet Trail", "surface": "gravel"}}]}], "142": [{"type": "FeatureCollection", "features": [{"type": "Feature", "id": 551566138, "geometry": {"type": "LineString", "coordinates": [[145.397693, -36.387806], [145.397765, -36.387838], [145.397779, -36.387778], [145.3978, -36.387769], [145.397809, -36.387712], [145.398088, -36.38637], [145.398197, -36.385908], [145.398225, -36.38564], [145.398222, -36.385474], [145.398196, -36.38536], [145.398159, -36.385283], [145.39812, -36.38525], [145.398071, -36.385226], [145.397991, -36.3852], [145.397913, -36.385187], [145.397876, -36.385192], [145.397831, -36.385213], [145.39716, -36.385126], [145.396953, -36.386027], [145.396852, -36.386023], [145.396819, -36.386009], [145.396813, -36.386028], [145.396779, -36.386191], [145.396757, -36.386294], [145.396733, -36.38644], [145.396738, -36.386674], [145.396753, -36.386833], [145.396766, -36.386906], [145.396812, -36.387096], [145.396865, -36.387233], [145.396903, -36.387304], [145.396941, -36.387371], [145.396993, -36.387446], [145.397066, -36.387529], [145.397168, -36.387614], [145.397248, -36.387662], [145.397314, -36.387698], [145.397693, -36.387806]]}, "properties": {"leisure": "park", "name": "Skate Park"}}]}], "143": [{"type": "FeatureCollection", "features": [{"type": "Feature", "id": 988671295, "geometry": {"type": "LineString", "coordinates": [[145.396632, -36.388993], [145.396662, -36.389003], [145.396588, -36.389142], [145.396592, -36.389143], [145.396605, -36.389178], [145.396545, -36.389158], [145.396632, -36.388993]]}, "properties": {"area": "yes", "floating": "no", "man_made": "pier"}}]}], "144": [], "145": [{"type": "FeatureCollection", "features": [{"type": "Feature", "id": 9768437122, "geometry": {"type": "Point", "coordinates": [145.396702, -36.390789]}, "properties": {"amenity": "cafe"}}]}], "146": [{"type": "FeatureCollection", "features": [{"type": "Feature", "id": 984506297, "geometry": {"type": "LineString", "coordinates": [[145.393989, -36.392397], [145.393787, -36.392276]]}, "properties": {"bicycle": "yes", "bridge": "yes", "foot": "yes", "highway": "cycleway", "layer": "1", "lit": "yes", "name": "Shepparton Lake Bike Track", "surface": "asphalt", "width": "2"}}]}], "147": [], "148": [{"type": "FeatureCollection", "features": [{"type": "Feature", "id": 117907012, "geometry": {"type": "LineString", "coordinates": [[145.395501, -36.385625], [145.395337, -36.385678], [145.395282, -36.385697], [145.395097, -36.385804], [145.395055, -36.38576], [145.394969, -36.385812], [145.39496, -36.385803], [145.394774, -36.385917], [145.394695, -36.385953], [145.394735, -36.385993], [145.394699, -36.386019], [145.394691, -36.386013], [145.394674, -36.386027], [145.394663, -36.386019], [145.394594, -36.386073], [145.394583, -36.386064], [145.39444, -36.386179], [145.394368, -36.386241], [145.394265, -36.386381], [145.394195, -36.386499], [145.394102, -36.38672], [145.39405, -36.386825], [145.394023, -36.386897], [145.39401, -36.386931], [145.394003, -36.386967], [145.393998, -36.387037], [145.394003, -36.387076], [145.394038, -36.387148], [145.394154, -36.387269], [145.394139, -36.387489], [145.394254, -36.38747], [145.394347, -36.38747], [145.394348, -36.387501], [145.394637, -36.387507], [145.394851, -36.387501], [145.395162, -36.387505], [145.395309, -36.387306], [145.395353, -36.387231], [145.395392, -36.387164], [145.395487, -36.386997], [145.395643, -36.386702], [145.395757, -36.386473], [145.396086, -36.386131], [145.396202, -36.385848], [145.396194, -36.385813], [145.396156, -36.385779], [145.3961, -36.385744], [145.396001, -36.385686], [145.395943, -36.385621], [145.395743, -36.385596], [145.395627, -36.385584], [145.395501, -36.385625]]}, "properties": {"leisure": "sports_centre", "name": "Aquamoves", "sport": "swimming", "website": "https://aquamoves.com.au/"}}]}], "149": [{"type": "FeatureCollection", "features": [{"type": "Feature", "id": 1061599415, "geometry": {"type": "LineString", "coordinates": [[145.394776, -36.38774], [145.394746, -36.387733], [145.394576, -36.387783], [145.39454, -36.387784], [145.394477, -36.387766], [145.394423, -36.38783], [145.394513, -36.387855], [145.394587, -36.387882], [145.394811, -36.387805], [145.394776, -36.38774]]}, "properties": {"leisure": "playground"}}]}, {"type": "FeatureCollection", "features": [{"type": "Feature", "id": 1061599404, "geometry": {"type": "LineString", "coordinates": [[145.394298, -36.387575], [145.394358, -36.387605], [145.394411, -36.38767], [145.394499, -36.387714], [145.394499, -36.387739], [145.394477, -36.387766], [145.394423, -36.38783], [145.39418, -36.38781], [145.39408, -36.387744], [145.394104, -36.387642], [145.394253, -36.38762], [145.394298, -36.387575]]}, "properties": {"leisure": "playground"}}]}, {"type": "FeatureCollection", "features": [{"type": "Feature", "id": 8155881731, "geometry": {"type": "Point", "coordinates": [145.394281, -36.387712]}, "properties": {"leisure": "playground"}}]}, {"type": "FeatureCollection", "features": [{"type": "Feature", "id": 1327155803, "geometry": {"type": "Point", "coordinates": [145.39444, -36.387689]}, "properties": {"leisure": "playground", "name": "Fenced Children's Playground"}}]}], "150": [{"type": "FeatureCollection", "features": [{"type": "Feature", "id": 461975104, "geometry": {"type": "LineString", "coordinates": [[145.394679, -36.386201], [145.394874, -36.386328], [145.394764, -36.386449], [145.394801, -36.386474], [145.394761, -36.386528], [145.394724, -36.386583], [145.394689, -36.386639], [145.394657, -36.386696], [145.394611, -36.386683], [145.394566, -36.38676], [145.394782, -36.386824], [145.394789, -36.386832], [145.39479, -36.386842], [145.394756, -36.386932], [145.394728, -36.387027], [145.394708, -36.387144], [145.394701, -36.387273], [145.394635, -36.387275], [145.394634, -36.387384], [145.394395, -36.387383], [145.394396, -36.387279], [145.394314, -36.387281], [145.394311, -36.387218], [145.394213, -36.38721], [145.394229, -36.387087], [145.394244, -36.386991], [145.394266, -36.386909], [145.394242, -36.386903], [145.394262, -36.386838], [145.394189, -36.386821], [145.394219, -36.386736], [145.394253, -36.386653], [145.394191, -36.38663], [145.394202, -36.386602], [145.394219, -36.386571], [145.394238, -36.386579], [145.39428, -36.38659], [145.394349, -36.386472], [145.394413, -36.386364], [145.394453, -36.38638], [145.394532, -36.386285], [145.394583, -36.386312], [145.394679, -36.386201]]}, "properties": {"building": "yes", "leisure": "fitness_centre", "name": "Aquamoves", "sport": "swimming;fitness"}}]}, {"type": "FeatureCollection", "features": [{"type": "Feature", "id": 117907012, "geometry": {"type": "LineString", "coordinates": [[145.395501, -36.385625], [145.395337, -36.385678], [145.395282, -36.385697], [145.395097, -36.385804], [145.395055, -36.38576], [145.394969, -36.385812], [145.39496, -36.385803], [145.394774, -36.385917], [145.394695, -36.385953], [145.394735, -36.385993], [145.394699, -36.386019], [145.394691, -36.386013], [145.394674, -36.386027], [145.394663, -36.386019], [145.394594, -36.386073], [145.394583, -36.386064], [145.39444, -36.386179], [145.394368, -36.386241], [145.394265, -36.386381], [145.394195, -36.386499], [145.394102, -36.38672], [145.39405, -36.386825], [145.394023, -36.386897], [145.39401, -36.386931], [145.394003, -36.386967], [145.393998, -36.387037], [145.394003, -36.387076], [145.394038, -36.387148], [145.394154, -36.387269], [145.394139, -36.387489], [145.394254, -36.38747], [145.394347, -36.38747], [145.394348, -36.387501], [145.394637, -36.387507], [145.394851, -36.387501], [145.395162, -36.387505], [145.395309, -36.387306], [145.395353, -36.387231], [145.395392, -36.387164], [145.395487, -36.386997], [145.395643, -36.386702], [145.395757, -36.386473], [145.396086, -36.386131], [145.396202, -36.385848], [145.396194, -36.385813], [145.396156, -36.385779], [145.3961, -36.385744], [145.396001, -36.385686], [145.395943, -36.385621], [145.395743, -36.385596], [145.395627, -36.385584], [145.395501, -36.385625]]}, "properties": {"leisure": "sports_centre", "name": "Aquamoves", "sport": "swimming", "website": "https://aquamoves.com.au/"}}]}], "151": [{"type": "FeatureCollection", "features": [{"type": "Feature", "id": 233100431, "geometry": {"type": "LineString", "coordinates": [[145.357299, -37.765096], [145.357366, -37.765225], [145.35745, -37.765263], [145.357551, -37.765265], [145.357651, -37.765252], [145.357723, -37.765215], [145.357719, -37.765151], [145.357658, -37.765092], [145.357684, -37.76507], [145.35766, -37.765034], [145.357651, -37.764984], [145.357657, -37.76495], [145.357662, -37.764916], [145.357631, -37.764884], [145.357627, -37.764834], [145.357658, -37.764775], [145.357644, -37.764719], [145.357547, -37.764692], [145.357404, -37.764732], [145.357304, -37.764771], [145.357315, -37.76495], [145.357413, -37.764997], [145.35757, -37.76499], [145.357605, -37.765025], [145.357485, -37.765089], [145.357299, -37.765096]]}, "properties": {"access": "yes", "leisure": "playground", "min_age": "1", "name": "Lillydale Lake Playground", "pets": "leashed", "playground:theme": "playground", "website": "https://schoolholidays.com.au/l/lillydale-lake-park-playground", "wheelchair": "limited"}}]}, {"type": "FeatureCollection", "features": [{"type": "Feature", "id": 1028843720, "geometry": {"type": "LineString", "coordinates": [[145.357657, -37.76495], [145.357702, -37.764945], [145.357766, -37.764936], [145.357808, -37.764922], [145.357842, -37.764912], [145.357884, -37.764922], [145.357896, -37.764959], [145.357872, -37.764995], [145.357869, -37.765027], [145.357857, -37.765049], [145.357818, -37.765059], [145.357778, -37.765053], [145.357728, -37.765056], [145.357684, -37.76507], [145.35766, -37.765034], [145.357651, -37.764984], [145.357657, -37.76495]]}, "properties": {"access": "yes", "leisure": "playground", "playground:theme": "water"}}]}], "152": [{"type": "FeatureCollection", "features": [{"type": "Feature", "id": 1054321732, "geometry": {"type": "LineString", "coordinates": [[145.355663, -37.763986], [145.35555, -37.763933], [145.355617, -37.763849], [145.355729, -37.763896], [145.355663, -37.763986]]}, "properties": {"leisure": "fitness_station", "opening_hours": "24/7", "sport": "fitness", "wheelchair": "yes"}}]}], "153": [{"type": "FeatureCollection", "features": [{"type": "Feature", "id": 1098121848, "geometry": {"type": "LineString", "coordinates": [[145.349715, -37.764373], [145.352226, -37.76274], [145.352245, -37.762565], [145.352014, -37.762398], [145.351458, -37.762292], [145.350939, -37.762434], [145.350564, -37.762505], [145.350461, -37.76259], [145.350421, -37.762953], [145.350465, -37.763115], [145.3505, -37.763294], [145.350462, -37.763404], [145.350408, -37.763546], [145.350107, -37.763734], [145.349711, -37.763813], [145.349402, -37.764037], [145.349715, -37.764373]]}, "properties": {"access": "yes", "leisure": "dog_park"}}]}], "154": [], "155": [], "156": [{"type": "FeatureCollection", "features": [{"type": "Feature", "id": 3294344712, "geometry": {"type": "Point", "coordinates": [145.356785, -37.766245]}, "properties": {"leisure": "slipway"}}]}], "157": [{"type": "FeatureCollection", "features": [{"type": "Feature", "id": 246723285, "geometry": {"type": "LineString", "coordinates": [[145.356315, -37.764819], [145.356425, -37.764731], [145.356616, -37.764829], [145.356691, -37.764924], [145.356674, -37.764985], [145.356814, -37.765125], [145.356803, -37.765342], [145.356795, -37.765717], [145.356673, -37.765696], [145.356673, -37.765228], [145.356408, -37.764912], [145.356315, -37.764819]]}, "properties": {"natural": "beach"}}]}], "158": [{"type": "FeatureCollection", "features": [{"type": "Feature", "id": 951694224, "geometry": {"type": "LineString", "coordinates": [[145.352825, -37.762785], [145.353026, -37.762928], [145.353096, -37.762867], [145.352968, -37.762775], [145.353025, -37.762724], [145.352953, -37.762673], [145.352825, -37.762785]]}, "properties": {"building": "ruins", "name": "Cashins Flour Mill ruins"}}]}], "159": [], "160": [{"type": "FeatureCollection", "features": [{"type": "Feature", "id": 330869393, "geometry": {"type": "LineString", "coordinates": [[146.981256, -37.483315], [146.981192, -37.48313], [146.980966, -37.482742], [146.980907, -37.482678], [146.980883, -37.482515], [146.980953, -37.482474], [146.981119, -37.482423], [146.981312, -37.48247], [146.981492, -37.482466], [146.981522, -37.482423], [146.981476, -37.482274], [146.981433, -37.482219], [146.981473, -37.482095], [146.981771, -37.481865], [146.981996, -37.481623], [146.982248, -37.481372], [146.982543, -37.481325], [146.982828, -37.481359], [146.983101, -37.481486], [146.983713, -37.48141], [146.983995, -37.481347], [146.984308, -37.481201], [146.984727, -37.481116], [146.984893, -37.481022], [146.984877, -37.480771], [146.985124, -37.480401], [146.985671, -37.479992], [146.985966, -37.479771], [146.986084, -37.479511], [146.986138, -37.479209], [146.986164, -37.478877], [146.986052, -37.478609], [146.986068, -37.478179], [146.985864, -37.477821], [146.984963, -37.476876], [146.98419, -37.476301], [146.983831, -37.475752], [146.983584, -37.475343], [146.983498, -37.475101], [146.983461, -37.474845], [146.983573, -37.474573], [146.983933, -37.47419], [146.984209, -37.473833], [146.98499, -37.472994], [146.985971, -37.472078], [146.986197, -37.471869], [146.986588, -37.471644], [146.986578, -37.471546], [146.986556, -37.471431], [146.986508, -37.471316], [146.986427, -37.471231], [146.986256, -37.471197], [146.986148, -37.471107], [146.986095, -37.470971], [146.986154, -37.470822], [146.986277, -37.470681], [146.986572, -37.470562], [146.986765, -37.470511], [146.986905, -37.470328], [146.987221, -37.470128], [146.987307, -37.469898], [146.987286, -37.469762], [146.987366, -37.46946], [146.987516, -37.469243], [146.987768, -37.46894], [146.987919, -37.468714], [146.987967, -37.46857], [146.988112, -37.468378], [146.988198, -37.468263], [146.988316, -37.468182], [146.988493, -37.468084], [146.988686, -37.46794], [146.988847, -37.467752], [146.988847, -37.467616], [146.988841, -37.467501], [146.988761, -37.467437], [146.988648, -37.467433], [146.988407, -37.467437], [146.988235, -37.467322], [146.988053, -37.467216], [146.987999, -37.467114], [146.988021, -37.467011], [146.988128, -37.466948], [146.988348, -37.466918], [146.98853, -37.466777], [146.988831, -37.466373], [146.98905, -37.465955], [146.989571, -37.465347], [146.989764, -37.465142], [146.989903, -37.464946], [146.989914, -37.464631], [146.989844, -37.464171], [146.989812, -37.463575], [146.989807, -37.463277], [146.989673, -37.463081], [146.989489, -37.462904], [146.989308, -37.462779], [146.989099, -37.462728], [146.988809, -37.462745], [146.988317, -37.462944], [146.987447, -37.463456], [146.986164, -37.464316], [146.985757, -37.464487], [146.985285, -37.46458], [146.984721, -37.464563], [146.98367, -37.464619], [146.983166, -37.464597], [146.982951, -37.464508], [146.982817, -37.464423], [146.982699, -37.464205], [146.98264, -37.464022], [146.982683, -37.463827], [146.982801, -37.463682], [146.983243, -37.463439], [146.98363, -37.463335], [146.98389, -37.463196], [146.984126, -37.46303], [146.984346, -37.462728], [146.984947, -37.461974], [146.985231, -37.461617], [146.985344, -37.461297], [146.985333, -37.460837], [146.985328, -37.460045], [146.985569, -37.459543], [146.98588, -37.459292], [146.987023, -37.45907], [146.987318, -37.4589], [146.987607, -37.45821], [146.988047, -37.457686], [146.988498, -37.456924], [146.988772, -37.456566], [146.988745, -37.456349], [146.988648, -37.456162], [146.988471, -37.455928], [146.988078, -37.455796], [146.987044, -37.455689], [146.986009, -37.455562], [146.985472, -37.455506], [146.984662, -37.455348], [146.984072, -37.455204], [146.983504, -37.455046], [146.983182, -37.454897], [146.983112, -37.454774], [146.983069, -37.454586], [146.983187, -37.454339], [146.983976, -37.453479], [146.984314, -37.453057], [146.984426, -37.452721], [146.984335, -37.452359], [146.984083, -37.452087], [146.983799, -37.451852], [146.983439, -37.45169], [146.982849, -37.451575], [146.982565, -37.451592], [146.981455, -37.451635], [146.980575, -37.451495], [146.980076, -37.451371], [146.979727, -37.451201], [146.97933, -37.451005], [146.979126, -37.450745], [146.97889, -37.45026], [146.978681, -37.449885], [146.978525, -37.449761], [146.978091, -37.449731], [146.977517, -37.449915], [146.97697, -37.450068], [146.976321, -37.450251], [146.975918, -37.450251], [146.975656, -37.450221], [146.975377, -37.450149], [146.975098, -37.450068]]}, "properties": {"name": "Moroka River", "source": "bing", "source:geometry": "Esri World Imagery", "waterway": "stream"}}]}], "161": [], "162": [], "163": [{"type": "FeatureCollection", "features": [{"type": "Feature", "id": 45422580, "geometry": {"type": "LineString", "coordinates": [[144.979959, -37.832796], [144.97979, -37.832777], [144.979561, -37.832708], [144.978995, -37.832502], [144.978811, -37.832357], [144.978682, -37.832248], [144.978484, -37.832197], [144.978321, -37.832145], [144.978276, -37.832105], [144.977986, -37.831889], [144.977711, -37.831528], [144.977589, -37.831367], [144.977621, -37.831208], [144.977516, -37.831078], [144.977415, -37.831044]]}, "properties": {"bicycle": "no", "highway": "footway", "name": "Australian Forest Walk", "surface": "paved"}}]}], "164": [], "165": [], "166": [], "167": [{"type": "FeatureCollection", "features": [{"type": "Feature", "id": 1011672045, "geometry": {"type": "LineString", "coordinates": [[144.979938, -37.827689], [144.979861, -37.827775], [144.979795, -37.827786], [144.979748, -37.827815], [144.979706, -37.827892], [144.979733, -37.827955], [144.979777, -37.828025], [144.979871, -37.828063], [144.979939, -37.828207], [144.979954, -37.828226], [144.980055, -37.828229], [144.980156, -37.828313], [144.980294, -37.828282], [144.980428, -37.828366], [144.980566, -37.828403], [144.980681, -37.828308], [144.980789, -37.828194], [144.980931, -37.828176], [144.980866, -37.828091], [144.980793, -37.828095], [144.980676, -37.828166], [144.980515, -37.828186], [144.98042, -37.828151], [144.980311, -37.828093], [144.980299, -37.828013], [144.980279, -37.827939], [144.980145, -37.827949], [144.980111, -37.82792], [144.980069, -37.827746], [144.979995, -37.827686], [144.979938, -37.827689]]}, "properties": {"landuse": "forest", "leaf_type": "broadleaved", "name": "Long Island", "place": "islet"}}]}], "168": [{"type": "FeatureCollection", "features": [{"type": "Feature", "id": 24488865, "geometry": {"type": "LineString", "coordinates": [[144.974672, -37.823483], [144.974538, -37.823491], [144.97444, -37.823511], [144.974344, -37.823537], [144.974246, -37.823571], [144.974151, -37.82361], [144.974272, -37.823495], [144.97459, -37.823105], [144.974852, -37.823127], [144.97506, -37.82356], [144.97514, -37.823692], [144.975064, -37.823638], [144.974982, -37.82359], [144.974894, -37.823548], [144.974801, -37.823512], [144.974672, -37.823483]]}, "properties": {"amenity": "events_venue", "building": "yes", "name": "Sidney Myer Music Bowl", "website": "https://artscentremelbourne.com.au/visit/theatres-and-spaces/sidney-myer-music-bowl", "wikidata": "Q7509252", "wikipedia": "en:Sidney Myer Music Bowl"}}]}], "169": [], "170": [], "171": [], "172": [], "173": [], "174": [{"type": "FeatureCollection", "features": [{"type": "Feature", "id": 196098436, "geometry": {"type": "LineString", "coordinates": [[142.19427, -36.757292], [142.196142, -36.758086], [142.195421, -36.759177], [142.193549, -36.758384], [142.19427, -36.757292]]}, "properties": {"addr:housenumber": "4362", "addr:street": "Henty Highway", "amenity": "school", "grades": "0-6", "isced:level": "1", "name": "Horsham West and Haven Primary School Haven Campus", "operator": "Victorian Department of Education", "operator:type": "public", "operator:wikidata": "Q5260272"}}]}], "175": [{"type": "FeatureCollection", "features": [{"type": "Feature", "id": 4469522889, "geometry": {"type": "Point", "coordinates": [144.975579, -37.811658]}, "properties": {"addr:housenumber": "6", "addr:street": "Cathedral Place", "description": "HQ of National Trust of Australia (Victoria)", "fixme": "not clear if tourism information is available to general public by physically visiting this location; if not please remove toursm tag", "information": "office", "name": "National Trust of Australia (Victoria)", "opening_hours": "Mo-Fr 09:00-17:00", "phone": "+61 3 9556 9840", "tourism": "information", "website": "http://www.nattrust.com.au", "wikipedia": "en:National Trust of Australia (Victoria)"}}]}], "176": [{"type": "FeatureCollection", "features": [{"type": "Feature", "id": 2318297625, "geometry": {"type": "Point", "coordinates": [144.975175, -37.811497]}, "properties": {"artist_name": "Susan Hewitt;Penelope Lee", "artwork_type": "sculpture", "description": "Large-scale sculpture unveiled in December 2008 to celebrate the 100th anniversary of women's right to vote in Victoria. The sculpture is a white scroll-like structure, which is twenty metres long and imposing on the small reserve.", "name": "Great Petition", "source:description": "monumentaustralia.org.au/display/98923-great-petition", "start_date": "2008-12", "tourism": "artwork", "website": "https://www.monumentaustralia.org.au/display/98923-great-petition", "wikidata": "Q23073295"}}]}], "177": [{"type": "FeatureCollection", "features": [{"type": "Feature", "id": 32656612, "geometry": {"type": "LineString", "coordinates": [[144.97492, -37.811709], [144.975167, -37.811298], [144.975421, -37.810879], [144.975435, -37.810875], [144.975449, -37.810881], [144.975456, -37.810893], [144.975316, -37.811754], [144.97492, -37.811709]]}, "properties": {"leisure": "park", "name": "Burston Reserve"}}]}], "178": [{"type": "FeatureCollection", "features": [{"type": "Feature", "id": 589396597, "geometry": {"type": "Point", "coordinates": [144.973862, -37.812256]}, "properties": {"access": "yes", "amenity": "toilets", "operator": "Melbourne City Council", "toilets:disposal": "flush", "unisex": "yes"}}]}], "179": [{"type": "FeatureCollection", "features": [{"type": "Feature", "id": 24530652, "geometry": {"type": "LineString", "coordinates": [[144.973753, -37.811404], [144.973801, -37.81139], [144.973879, -37.811563], [144.973765, -37.811596], [144.973748, -37.811559], [144.973589, -37.811603], [144.973568, -37.811555], [144.973524, -37.811567], [144.973485, -37.811481], [144.973514, -37.811473], [144.973492, -37.811425], [144.97351, -37.81142], [144.97357, -37.811403], [144.973528, -37.81131], [144.973552, -37.811303], [144.973473, -37.811127], [144.973448, -37.811133], [144.973404, -37.811035], [144.973344, -37.811052], [144.973327, -37.811056], [144.973308, -37.811016], [144.973279, -37.811024], [144.973235, -37.810924], [144.973255, -37.810919], [144.97323, -37.810864], [144.973394, -37.810818], [144.97338, -37.810788], [144.973898, -37.810643], [144.973907, -37.810663], [144.97408, -37.810615], [144.974123, -37.810711], [144.97404, -37.810735], [144.974094, -37.810855], [144.974177, -37.810831], [144.97422, -37.810927], [144.974201, -37.810933], [144.974264, -37.811073], [144.974284, -37.811068], [144.974322, -37.811154], [144.974292, -37.811162], [144.974321, -37.811226], [144.974157, -37.811272], [144.974168, -37.811296], [144.974102, -37.811314], [144.974091, -37.81129], [144.97382, -37.811366], [144.973787, -37.811293], [144.973712, -37.811314], [144.973725, -37.811342], [144.973743, -37.811337], [144.973754, -37.811362], [144.973736, -37.811367], [144.973753, -37.811404]]}, "properties": {"addr:country": "AU", "addr:housenumber": "160", "addr:postcode": "3002", "addr:state": "VIC", "addr:street": "Spring Street", "addr:suburb": "East Melbourne", "building": "yes", "email": "info@parliament.vic.gov.au", "fax": "+61 3 9654 5284", "government": "parliament", "height": "10 m", "name": "Parliament House", "name:el": "\u039a\u03bf\u03b9\u03bd\u03bf\u03b2\u03bf\u03cd\u03bb\u03b9\u03bf", "name:fr": "Chambre du Parlement de Victoria", "name:vi": "To\u00e0 nh\u00e0 Ngh\u1ecb vi\u1ec7n bang Victoria", "name:zh": "\u8bae\u4f1a\u5927\u53a6", "office": "government", "phone": "+61 3 9651 8911", "source": "Vicmap Address", "website": "https://www.parliament.vic.gov.au/", "wikidata": "Q1464314", "wikipedia": "en:Parliament House, Melbourne"}}]}], "180": [{"type": "FeatureCollection", "features": [{"type": "Feature", "id": 32943319, "geometry": {"type": "LineString", "coordinates": [[144.972537, -37.811639], [144.972737, -37.81158], [144.972935, -37.811522], [144.973061, -37.811789], [144.97307, -37.811787], [144.973095, -37.811839], [144.973086, -37.811842], [144.97315, -37.811977], [144.973158, -37.811974], [144.973183, -37.812027], [144.973174, -37.81203], [144.97318, -37.812043], [144.973191, -37.812065], [144.973202, -37.812088], [144.973207, -37.8121], [144.973216, -37.812097], [144.973242, -37.812151], [144.973233, -37.812154], [144.973297, -37.812289], [144.973302, -37.812288], [144.973327, -37.812341], [144.973249, -37.812364], [144.973246, -37.812357], [144.97292, -37.812452], [144.972537, -37.811639]]}, "properties": {"addr:country": "AU", "addr:housenumber": "103-137", "addr:postcode": "3000", "addr:state": "VIC", "addr:street": "Spring Street", "addr:suburb": "Melbourne", "building": "yes", "building:levels": "5", "name": "Windsor Hotel", "name:fr": "H\u00f4tel Windsor", "source": "Vicmap Address", "tourism": "hotel", "website": "https://www.thehotelwindsor.com.au/", "wikidata": "Q12060553"}}]}], "181": [], "182": [{"type": "FeatureCollection", "features": [{"type": "Feature", "id": 219393602, "geometry": {"type": "LineString", "coordinates": [[144.974007, -37.813851], [144.973852, -37.813897], [144.973839, -37.81387], [144.973592, -37.813943], [144.973435, -37.81361], [144.973432, -37.813603], [144.97368, -37.81353], [144.97369, -37.813552], [144.973782, -37.813748], [144.973902, -37.813713], [144.97391, -37.81373], [144.973945, -37.813719], [144.974007, -37.813851]]}, "properties": {"addr:country": "AU", "addr:housenumber": "1-9", "addr:postcode": "3000", "addr:state": "VIC", "addr:street": "Collins Street", "addr:suburb": "Melbourne", "building": "yes", "building:levels": "15", "source": "Vicmap Address"}}]}], "183": [], "184": [{"type": "FeatureCollection", "features": [{"type": "Feature", "id": 726571334, "geometry": {"type": "LineString", "coordinates": [[144.972349, -37.813414], [144.972248, -37.813443], [144.97222, -37.813451], [144.972119, -37.81348], [144.972055, -37.813498], [144.972139, -37.813682], [144.972434, -37.813597], [144.972349, -37.813414]]}, "properties": {"building": "yes", "club": "social", "name": "The Melbourne Club", "wikidata": "Q14935214"}}]}], "185": [], "186": [], "187": [], "188": [{"type": "FeatureCollection", "features": [{"type": "Feature", "id": 46652486, "geometry": {"type": "LineString", "coordinates": [[144.97056, -37.813288], [144.970709, -37.813242], [144.970956, -37.813321], [144.971004, -37.813421], [144.970889, -37.813635], [144.970819, -37.813654], [144.970758, -37.813671], [144.970506, -37.813565], [144.97046, -37.813448], [144.97056, -37.813288]]}, "properties": {"addr:city": "Melbourne", "addr:housenumber": "80", "addr:postcode": "3000", "addr:street": "Collins Street", "alt_name": "80 Collins Street", "building": "office", "building:colour": "white", "building:levels": "54", "height": "182", "name": "Nauru House", "start_date": "1977", "wikidata": "Q960951"}}]}], "189": [{"type": "FeatureCollection", "features": [{"type": "Feature", "id": 22931009, "geometry": {"type": "LineString", "coordinates": [[144.968981, -37.814288], [144.969351, -37.81418], [144.969462, -37.814418], [144.969092, -37.814526], [144.968981, -37.814288]]}, "properties": {"amenity": "place_of_worship", "building": "church", "check_date": "2024-03-05", "denomination": "uniting", "name": "Saint Michaels Uniting Church", "religion": "christian", "website": "https://stmichaels.org.au/", "wheelchair": "no", "wikidata": "Q7594834", "wikipedia": "en:St Michael's Uniting Church, Melbourne"}}]}], "190": [{"type": "FeatureCollection", "features": [{"type": "Feature", "id": 4308557, "geometry": {"type": "LineString", "coordinates": [[144.974351, -37.81431], [144.974289, -37.814328], [144.974258, -37.814338], [144.973791, -37.814475], [144.973364, -37.8146], [144.97266, -37.814807], [144.972149, -37.814957], [144.972076, -37.814979], [144.972038, -37.81499], [144.972011, -37.814998], [144.971846, -37.815046], [144.971823, -37.815053], [144.97179, -37.815063], [144.971453, -37.815162], [144.97138, -37.815183], [144.971246, -37.815223], [144.970812, -37.81535], [144.970457, -37.815455], [144.97022, -37.815511], [144.96989, -37.815611], [144.969657, -37.815679], [144.969603, -37.815695], [144.969529, -37.815719], [144.969387, -37.815766], [144.96931, -37.815793], [144.968875, -37.815919], [144.968475, -37.816037], [144.968348, -37.816074], [144.968241, -37.816106], [144.968043, -37.816164], [144.967793, -37.816237], [144.967416, -37.816348], [144.967125, -37.816435], [144.967008, -37.816465], [144.96699, -37.81647]]}, "properties": {"cycleway:both": "no", "highway": "living_street", "lit": "yes", "maxspeed": "20", "name": "Flinders Lane", "oneway": "yes", "source": "survey;Yahoo,bing", "surface": "asphalt"}}]}], "191": [], "192": [{"type": "FeatureCollection", "features": [{"type": "Feature", "id": 17037928, "geometry": {"type": "LineString", "coordinates": [[144.968268, -37.814404], [144.968354, -37.814378], [144.96835, -37.814366], [144.968369, -37.814338], [144.968411, -37.814326], [144.96844, -37.814338], [144.968451, -37.814351], [144.968551, -37.814325], [144.968597, -37.814432], [144.968566, -37.814438], [144.968636, -37.814595], [144.968716, -37.814575], [144.968739, -37.814625], [144.968661, -37.814645], [144.968672, -37.814668], [144.968445, -37.814733], [144.96835, -37.814501], [144.968313, -37.81451], [144.968268, -37.814404]]}, "properties": {"amenity": "place_of_worship", "building": "church", "check_date": "2023-09-24", "denomination": "presbyterian", "name": "Scots Church", "religion": "christian", "website": "https://www.scotschurch.com/", "wheelchair": "no", "wikidata": "Q7435772", "wikipedia": "en:Scots' Church, Melbourne"}}]}], "193": [{"type": "FeatureCollection", "features": [{"type": "Feature", "id": 46817076, "geometry": {"type": "LineString", "coordinates": [[144.968138, -37.814877], [144.968357, -37.814814], [144.968164, -37.814393], [144.967945, -37.814456], [144.968138, -37.814877]]}, "properties": {"addr:city": "Melbourne", "addr:housenumber": "156", "addr:postcode": "3000", "addr:street": "Collins Street", "building": "yes", "name": "Assembly Hall"}}]}], "194": [{"type": "FeatureCollection", "features": [{"type": "Feature", "id": 11466742435, "geometry": {"type": "Point", "coordinates": [144.966261, -37.816553]}, "properties": {"level": "1", "name": "Melbourne Theosophical Society", "office": "religion"}}]}], "195": [{"type": "FeatureCollection", "features": [{"type": "Feature", "id": 17037612, "geometry": {"type": "LineString", "coordinates": [[144.967077, -37.814658], [144.967272, -37.814601], [144.9675, -37.815099], [144.967303, -37.815157], [144.967077, -37.814658]]}, "properties": {"amenity": "theatre", "building": "hall", "building:levels": "3", "name": "Athenaeum Theatre", "toilets:wheelchair": "yes", "wikidata": "Q12122406"}}]}], "196": [], "197": [{"type": "FeatureCollection", "features": [{"type": "Feature", "id": 525738401, "geometry": {"type": "LineString", "coordinates": [[144.965049, -37.812016], [144.969759, -37.810643], [144.970209, -37.811606], [144.965498, -37.812979], [144.965049, -37.812016]]}, "properties": {"name": "Chinatown", "name:zh": "\u5510\u4eba\u8857", "note": "There is no agreed-upon boundary of Melbourne's Chinatown on Little Bourke Street. The extent from the West Gate to the East Gate and half way in to each block north and south is a sensible compromise in the absence of a formal definition.", "place": "neighbourhood", "website": "https://chinatownmelbourne.com.au/", "wikidata": "Q2461579", "wikipedia": "en:Chinatown,_Melbourne"}}]}], "198": [{"type": "FeatureCollection", "features": [{"type": "Feature", "id": 46699058, "geometry": {"type": "LineString", "coordinates": [[144.965616, -37.810791], [144.965899, -37.810711], [144.965913, -37.810716], [144.965933, -37.810754], [144.965925, -37.810777], [144.965865, -37.810794], [144.965903, -37.810885], [144.966009, -37.810857], [144.966049, -37.810943], [144.965981, -37.810959], [144.965993, -37.810987], [144.965767, -37.811054], [144.965741, -37.811], [144.965773, -37.810989], [144.965693, -37.810824], [144.965638, -37.810839], [144.965616, -37.810791]]}, "properties": {"building": "yes", "building:levels": "5", "building:material": "brick", "name": "Queen Victoria Women's Centre"}}]}], "199": [{"type": "FeatureCollection", "features": [{"type": "Feature", "id": 22820458, "geometry": {"type": "LineString", "coordinates": [[144.966555, -37.809849], [144.966403, -37.809892], [144.966392, -37.809869], [144.965874, -37.810016], [144.965884, -37.810038], [144.965344, -37.810192], [144.965335, -37.810171], [144.964874, -37.810302], [144.964881, -37.810318], [144.964758, -37.810353], [144.964708, -37.810243], [144.964758, -37.810229], [144.964675, -37.810049], [144.964639, -37.810059], [144.964597, -37.809967], [144.964554, -37.809872], [144.964593, -37.809861], [144.96451, -37.809678], [144.964466, -37.80969], [144.964421, -37.809592], [144.964562, -37.809552], [144.964745, -37.8095], [144.964737, -37.809474], [144.965282, -37.809315], [144.96529, -37.809335], [144.965345, -37.80932], [144.965339, -37.809299], [144.966191, -37.80905], [144.966382, -37.80947], [144.966555, -37.809849]]}, "properties": {"addr:city": "Melbourne", "addr:housenumber": "328", "addr:postcode": "3000", "addr:street": "Swanston Street", "amenity": "library", "building": "yes", "fax": "+61 3 9639 4737", "internet_access": "wlan", "internet_access:fee": "no", "landmark:name": "No value", "name": "State Library of Victoria", "name:fr": "Biblioth\u00e8que d'\u00c9tat du Victoria", "name:vi": "Th\u01b0 vi\u1ec7n Bang Victoria", "name:zh": "\u7ef4\u591a\u5229\u4e9a\u5dde\u7acb\u56fe\u4e66\u9986", "opening_hours": "Mo-Th 10:00-21:00; Fr-Su 10:00-18:00", "phone": "+61 3 8664 7000", "website": "https://www.slv.vic.gov.au", "wikidata": "Q1200052"}}]}], "200": [], "201": [], "202": [{"type": "FeatureCollection", "features": [{"type": "Feature", "id": 28775707, "geometry": {"type": "LineString", "coordinates": [[144.959696, -37.810268], [144.959906, -37.810213], [144.959951, -37.810321], [144.959922, -37.810328], [144.959992, -37.810495], [144.959868, -37.810528], [144.959803, -37.810372], [144.959746, -37.810387], [144.959696, -37.810268]]}, "properties": {"amenity": "place_of_worship", "building": "church", "landmark:name": "welsh church", "name": "Welsh Church", "religion": "christian", "website": "http://www.melbournewelshchurch.org/"}}]}], "203": [{"type": "FeatureCollection", "features": [{"type": "Feature", "id": 260997166, "geometry": {"type": "LineString", "coordinates": [[144.95937, -37.807441], [144.959799, -37.807318], [144.959904, -37.80755], [144.95966, -37.807619], [144.959626, -37.80763], [144.959478, -37.807672], [144.95937, -37.807441]]}, "properties": {"addr:city": "Melbourne", "addr:housenumber": "489", "addr:postcode": "3000", "addr:street": "Elizabeth Street", "building": "yes", "name": "Jasper Hotel", "phone": "+61 3 8327 2777", "tourism": "hotel", "website": "https://www.jasperhotel.com.au/"}}]}], "204": [], "205": [{"type": "FeatureCollection", "features": [{"type": "Feature", "id": 26564392, "geometry": {"type": "LineString", "coordinates": [[144.964803, -37.807691], [144.964946, -37.807648], [144.964954, -37.807641], [144.964979, -37.807653], [144.964968, -37.80767], [144.964958, -37.807673], [144.964962, -37.807681], [144.965034, -37.807831], [144.965413, -37.807718], [144.965458, -37.807811], [144.965465, -37.807827], [144.964953, -37.80798], [144.964943, -37.807983], [144.964814, -37.807713], [144.964805, -37.807716], [144.964785, -37.807709], [144.964797, -37.807689], [144.964803, -37.807691]]}, "properties": {"addr:city": "Melbourne", "addr:housenumber": "377", "addr:postcode": "3000", "addr:state": "VIC", "addr:street": "Russell Street", "addr:suburb": "Melbourne", "building": "yes", "contact:email": "info@oldmelbournegaol.com.au", "contact:phone": "+61 3 8663 7228", "description": "Closed prison, now a museum and tourist attraction.", "name": "Old Melbourne Gaol", "opening_hours": "09:30-17:00; Dec 25 closed; easter -2 days closed", "phone": "+61 3 8663 7228", "tourism": "attraction", "website": "https://www.oldmelbournegaol.com.au", "wikidata": "Q2018436", "wikipedia": "en:Old Melbourne Gaol"}}]}], "206": [], "207": [], "208": [], "209": [{"type": "FeatureCollection", "features": [{"type": "Feature", "id": 46194494, "geometry": {"type": "LineString", "coordinates": [[144.972456, -37.810463], [144.972027, -37.810583], [144.972133, -37.810819], [144.972204, -37.810799], [144.972276, -37.810959], [144.972634, -37.810859], [144.972456, -37.810463]]}, "properties": {"addr:city": "Melbourne", "addr:housenumber": "163", "addr:postcode": "3000", "addr:street": "Spring Street", "amenity": "theatre", "building": "yes", "name": "Princess Theatre", "operator": "Marriner Group", "tourism": "attraction", "website": "https://www.marrinergroup.com.au/theatre-princess.php", "wheelchair": "limited", "wikidata": "Q7244850", "wikipedia": "en:Princess Theatre (Melbourne)"}}]}], "210": [{"type": "FeatureCollection", "features": [{"type": "Feature", "id": 47063198, "geometry": {"type": "LineString", "coordinates": [[145.196642, -37.896864], [145.196249, -37.896812], [145.196312, -37.896484], [145.19652, -37.896511], [145.196496, -37.896652], [145.196463, -37.896648], [145.196454, -37.896692], [145.196549, -37.896706], [145.196547, -37.896721], [145.196571, -37.896724], [145.196575, -37.89671], [145.19667, -37.896723], [145.196667, -37.896743], [145.196681, -37.896745], [145.196665, -37.896843], [145.196647, -37.896842], [145.196642, -37.896864]]}, "properties": {"building": "yes"}}]}, {"type": "FeatureCollection", "features": [{"type": "Feature", "id": 270652136, "geometry": {"type": "Point", "coordinates": [145.196498, -37.896754]}, "properties": {"amenity": "cafe", "created_by": "Potlatch 0.9c", "name": "Madeline's at Jells"}}]}], "211": [], "212": [], "213": [], "214": [], "215": [{"type": "FeatureCollection", "features": [{"type": "Feature", "id": 4024684, "geometry": {"type": "MultiPolygon", "coordinates": [[[[145.200496, -37.899274], [145.200724, -37.898973], [145.200835, -37.898829], [145.200939, -37.898463], [145.201019, -37.898264], [145.2012, -37.89804], [145.201474, -37.897861], [145.201777, -37.897726], [145.20186, -37.897646], [145.202015, -37.897307], [145.201941, -37.897097], [145.201785, -37.896606], [145.201767, -37.896473], [145.201884, -37.896324], [145.202001, -37.896201], [145.202048, -37.895993], [145.202187, -37.896169], [145.202229, -37.896277], [145.202214, -37.89637], [145.202264, -37.89644], [145.202341, -37.896501], [145.202352, -37.896645], [145.202227, -37.897064], [145.20225, -37.897129], [145.202252, -37.89725], [145.202246, -37.897333], [145.202249, -37.897455], [145.202294, -37.897529], [145.202383, -37.897564], [145.202544, -37.897498], [145.202732, -37.897439], [145.202877, -37.897522], [145.202903, -37.897694], [145.202828, -37.897822], [145.202658, -37.897888], [145.202311, -37.897861], [145.202084, -37.897875], [145.201818, -37.898053], [145.201749, -37.898302], [145.20174, -37.898533], [145.201852, -37.898722], [145.202178, -37.89902], [145.202478, -37.899115], [145.202855, -37.899103], [145.203587, -37.898981], [145.204243, -37.898917], [145.204313, -37.898943], [145.204967, -37.898898], [145.205311, -37.899007], [145.205671, -37.899237], [145.205972, -37.899535], [145.20604, -37.899826], [145.20598, -37.900002], [145.205817, -37.900192], [145.205508, -37.900327], [145.205165, -37.900354], [145.204564, -37.900212], [145.204324, -37.900259], [145.204152, -37.900354], [145.204058, -37.900557], [145.204066, -37.900835], [145.204135, -37.901066], [145.204161, -37.901302], [145.204015, -37.901513], [145.203809, -37.901641], [145.2035, -37.901756], [145.203216, -37.901729], [145.202942, -37.901594], [145.202701, -37.901302], [145.20238, -37.900773], [145.202195, -37.90063], [145.20191, -37.900568], [145.201486, -37.900607], [145.201326, -37.900568], [145.201176, -37.90035], [145.200965, -37.900208], [145.200894, -37.899947], [145.200677, -37.899476], [145.200496, -37.899274]], [[145.203381, -37.900629], [145.203643, -37.900132], [145.204158, -37.899644], [145.204012, -37.899529], [145.203663, -37.899572], [145.203351, -37.899692], [145.203179, -37.899868], [145.203071, -37.900019], [145.203154, -37.90045], [145.203203, -37.900534], [145.203225, -37.900636], [145.203381, -37.900629]], [[145.205248, -37.89963], [145.205291, -37.899542], [145.205196, -37.899474], [145.205068, -37.899474], [145.20505, -37.899549], [145.205248, -37.89963]]]]}, "properties": {"natural": "water", "type": "multipolygon"}}]}], "216": [], "217": [], "218": [], "219": [], "220": [], "221": [{"type": "FeatureCollection", "features": [{"type": "Feature", "id": 926075393, "geometry": {"type": "LineString", "coordinates": [[145.205172, -37.8989], [145.205261, -37.898927], [145.20524, -37.89897], [145.205151, -37.898943], [145.205172, -37.8989]]}, "properties": {"building": "yes", "name": "Bird Watching Hut"}}]}], "222": [], "223": [], "224": [{"type": "FeatureCollection", "features": [{"type": "Feature", "id": 266053739, "geometry": {"type": "LineString", "coordinates": [[145.863453, -38.132179], [145.862045, -38.133275], [145.861435, -38.1336], [145.861212, -38.133559], [145.860799, -38.133494], [145.859421, -38.133283], [145.858246, -38.133237], [145.858135, -38.133206], [145.858004, -38.133584], [145.857495, -38.133533], [145.857398, -38.134264], [145.857133, -38.134602], [145.857308, -38.134702], [145.857509, -38.134523], [145.858253, -38.134893], [145.858361, -38.134967], [145.858489, -38.135212], [145.858511, -38.135112], [145.858691, -38.135127], [145.858849, -38.135202], [145.858821, -38.135264], [145.858849, -38.135267], [145.858884, -38.135276], [145.858915, -38.135288], [145.858953, -38.135302], [145.858961, -38.135255], [145.859223, -38.135281], [145.859246, -38.135291], [145.859795, -38.135212], [145.859782, -38.135173], [145.860027, -38.135143], [145.860387, -38.135098], [145.860428, -38.135073], [145.860478, -38.134846], [145.8605, -38.134777], [145.860537, -38.134715], [145.860573, -38.134672], [145.860622, -38.134616], [145.860656, -38.134585], [145.860685, -38.134565], [145.860719, -38.134549], [145.860753, -38.134539], [145.860806, -38.134534], [145.860891, -38.134538], [145.861245, -38.134579], [145.861528, -38.134289], [145.861828, -38.134055], [145.861959, -38.134199], [145.862075, -38.134057], [145.862373, -38.133869], [145.862393, -38.133857], [145.862396, -38.133825], [145.862412, -38.133799], [145.862441, -38.133778], [145.862484, -38.133769], [145.862528, -38.133773], [145.862572, -38.133796], [145.86303, -38.133972], [145.86312, -38.133975], [145.863179, -38.133926], [145.863191, -38.13379], [145.86218, -38.133688], [145.862501, -38.133193], [145.862685, -38.133223], [145.862854, -38.133004], [145.863077, -38.132745], [145.86333, -38.132722], [145.863453, -38.132179]]}, "properties": {"leisure": "park", "name": "Civic Park"}}]}], "225": [], "226": [], "227": [], "228": [{"type": "FeatureCollection", "features": [{"type": "Feature", "id": 629160097, "geometry": {"type": "LineString", "coordinates": [[145.878497, -38.131426], [145.879258, -38.132327], [145.879515, -38.132626], [145.879844, -38.132927], [145.880091, -38.133116]]}, "properties": {"bicycle": "yes", "bridge": "yes", "cycleway": "track", "foot": "yes", "highway": "cycleway", "layer": "1", "name": "Two Towns Trail", "surface": "wood"}}]}, {"type": "FeatureCollection", "features": [{"type": "Feature", "id": 629160090, "geometry": {"type": "LineString", "coordinates": [[145.871409, -38.128163], [145.87142, -38.128115], [145.872516, -38.128252], [145.872628, -38.128257], [145.872718, -38.128252], [145.872775, -38.128242], [145.872805, -38.128237], [145.872921, -38.128202], [145.87301, -38.128176], [145.873099, -38.128142], [145.873191, -38.128093], [145.873255, -38.128067], [145.873334, -38.128045], [145.8734, -38.128033], [145.873467, -38.128046], [145.873533, -38.128088], [145.873806, -38.12839], [145.873852, -38.128441], [145.873935, -38.128541], [145.874135, -38.128703], [145.87426, -38.128807], [145.875068, -38.129732], [145.875415, -38.130135], [145.875791, -38.130523], [145.875888, -38.130606], [145.875914, -38.130623], [145.875949, -38.130648], [145.876002, -38.130682], [145.876078, -38.130696], [145.876158, -38.130694], [145.876243, -38.13069], [145.876319, -38.130675], [145.876486, -38.130602], [145.876746, -38.130504], [145.87704, -38.130413], [145.877167, -38.130377], [145.877284, -38.130336], [145.877402, -38.130286], [145.877535, -38.130223], [145.877638, -38.130193], [145.877752, -38.130162], [145.87798, -38.130117], [145.878012, -38.130111], [145.878083, -38.130094], [145.878149, -38.130089], [145.878442, -38.130139], [145.878569, -38.130161], [145.878897, -38.130171], [145.878952, -38.130253], [145.878917, -38.130361], [145.877684, -38.130523], [145.877631, -38.130549], [145.877595, -38.130599], [145.877587, -38.130665], [145.877604, -38.130725], [145.877649, -38.130776], [145.878326, -38.131254], [145.87842, -38.131332], [145.878497, -38.131426]]}, "properties": {"bicycle": "yes", "cycleway": "track", "foot": "yes", "highway": "cycleway", "name": "Two Towns Trail", "surface": "concrete"}}]}], "229": [{"type": "FeatureCollection", "features": [{"type": "Feature", "id": 3008339621, "geometry": {"type": "Point", "coordinates": [145.98362, -38.26924]}, "properties": {"ele": "507", "name": "Mount Worth", "natural": "peak"}}]}, {"type": "FeatureCollection", "features": [{"type": "Feature", "id": 702322193, "geometry": {"type": "Point", "coordinates": [146.275877, -37.839535]}, "properties": {"ele": "1567", "name": "Mount Baw Baw", "natural": "peak", "source": "Vicmap Lite (data.vic.gov.au)", "source:ele": "Wikipedia", "wikidata": "Q1162079"}}]}], "230": [], "231": [{"type": "FeatureCollection", "features": [{"type": "Feature", "id": 9295131630, "geometry": {"type": "Point", "coordinates": [145.893549, -38.144166]}, "properties": {"historic": "memorial"}}]}], "232": [], "233": [], "234": [{"type": "FeatureCollection", "features": [{"type": "Feature", "id": 219971240, "geometry": {"type": "LineString", "coordinates": [[145.920003, -38.153532], [145.920193, -38.153421], [145.920474, -38.153355], [145.920776, -38.153421], [145.921, -38.153609], [145.921134, -38.153852], [145.921148, -38.154167], [145.921092, -38.154482], [145.920937, -38.154741], [145.920727, -38.15489], [145.920425, -38.15499], [145.920095, -38.15494], [145.919807, -38.154763], [145.919702, -38.154575], [145.919645, -38.154277], [145.91968, -38.153996], [145.9198, -38.15372], [145.920003, -38.153532]]}, "properties": {"leisure": "pitch", "lit": "yes", "sport": "australian_football", "surface": "grass"}}]}], "235": [{"type": "FeatureCollection", "features": [{"type": "Feature", "id": 158514482, "geometry": {"type": "LineString", "coordinates": [[145.923971, -38.158628], [145.92396, -38.158703], [145.923896, -38.1588], [145.923762, -38.159588], [145.923591, -38.159675], [145.923446, -38.159662], [145.923296, -38.159801], [145.922781, -38.159502], [145.923141, -38.157132], [145.924353, -38.157266], [145.924594, -38.157152], [145.92476, -38.156882], [145.924417, -38.156439], [145.92497, -38.156144], [145.92534, -38.155883], [145.925715, -38.155562], [145.926015, -38.155244], [145.926322, -38.154875], [145.926583, -38.154425], [145.92668, -38.154126], [145.926858, -38.153407], [145.926917, -38.153348], [145.927008, -38.153306], [145.927346, -38.153267], [145.927545, -38.153179], [145.928312, -38.152508], [145.928493, -38.152515], [145.927924, -38.155353], [145.926643, -38.156228], [145.925553, -38.157024], [145.925157, -38.157414], [145.92461, -38.157355], [145.924401, -38.158076], [145.92387, -38.158042], [145.923778, -38.158601], [145.923971, -38.158628]]}, "properties": {"leisure": "park"}}]}, {"type": "FeatureCollection", "features": [{"type": "Feature", "id": 1030246052, "geometry": {"type": "LineString", "coordinates": [[145.923127, -38.157926], [145.923137, -38.157834], [145.923367, -38.157851], [145.923335, -38.157918], [145.92327, -38.157955], [145.923127, -38.157926]]}, "properties": {"leisure": "playground"}}]}, {"type": "FeatureCollection", "features": [{"type": "Feature", "id": 1707006508, "geometry": {"type": "Point", "coordinates": [145.923091, -38.158728]}, "properties": {"amenity": "toilets"}}]}, {"type": "FeatureCollection", "features": [{"type": "Feature", "id": 5574887776, "geometry": {"type": "Point", "coordinates": [145.92308, -38.158456]}, "properties": {"amenity": "bbq"}}]}, {"type": "FeatureCollection", "features": [{"type": "Feature", "id": 5574888853, "geometry": {"type": "Point", "coordinates": [145.923102, -38.15856]}, "properties": {"amenity": "drinking_water"}}]}], "236": [], "237": [{"type": "FeatureCollection", "features": [{"type": "Feature", "id": 487543644, "geometry": {"type": "LineString", "coordinates": [[145.859244, -38.13529], [145.859296, -38.135478], [145.860093, -38.135357], [145.860035, -38.135142], [145.860027, -38.135143], [145.859788, -38.135173], [145.859795, -38.135213], [145.859244, -38.13529]]}, "properties": {"addr:city": "Drouin", "addr:postcode": "3818", "building": "public", "building:levels": "1", "name": "Baw Baw Shire Council Office"}}]}], "238": [], "239": [{"type": "FeatureCollection", "features": [{"type": "Feature", "id": 35200710, "geometry": {"type": "LineString", "coordinates": [[145.299734, -37.969106], [145.30016, -37.969168], [145.300349, -37.969276], [145.300342, -37.969534], [145.300262, -37.969978], [145.300495, -37.970751], [145.300439, -37.970904], [145.300358, -37.971014], [145.30024, -37.971078], [145.299801, -37.971012], [145.300035, -37.970888], [145.300109, -37.970832], [145.300208, -37.970695], [145.300223, -37.970612], [145.300204, -37.970455], [145.300023, -37.97025], [145.299784, -37.970177], [145.299767, -37.970141], [145.299767, -37.970083], [145.299901, -37.969999], [145.30011, -37.969833], [145.300182, -37.969696], [145.3002, -37.969565], [145.300165, -37.969379], [145.300017, -37.969229], [145.299841, -37.969147], [145.299734, -37.969106]]}, "properties": {"area": "yes", "natural": "beach", "note": "Swimming Beach Only\nNo Boats Allowed", "surface": "sand"}}]}], "240": [{"type": "FeatureCollection", "features": [{"type": "Feature", "id": 35200710, "geometry": {"type": "LineString", "coordinates": [[145.299734, -37.969106], [145.30016, -37.969168], [145.300349, -37.969276], [145.300342, -37.969534], [145.300262, -37.969978], [145.300495, -37.970751], [145.300439, -37.970904], [145.300358, -37.971014], [145.30024, -37.971078], [145.299801, -37.971012], [145.300035, -37.970888], [145.300109, -37.970832], [145.300208, -37.970695], [145.300223, -37.970612], [145.300204, -37.970455], [145.300023, -37.97025], [145.299784, -37.970177], [145.299767, -37.970141], [145.299767, -37.970083], [145.299901, -37.969999], [145.30011, -37.969833], [145.300182, -37.969696], [145.3002, -37.969565], [145.300165, -37.969379], [145.300017, -37.969229], [145.299841, -37.969147], [145.299734, -37.969106]]}, "properties": {"area": "yes", "natural": "beach", "note": "Swimming Beach Only\nNo Boats Allowed", "surface": "sand"}}]}], "241": [{"type": "FeatureCollection", "features": [{"type": "Feature", "id": 1080887782, "geometry": {"type": "LineString", "coordinates": [[145.300235, -37.971207], [145.300264, -37.971164]]}, "properties": {"highway": "steps"}}]}, {"type": "FeatureCollection", "features": [{"type": "Feature", "id": 179896505, "geometry": {"type": "LineString", "coordinates": [[145.295415, -37.97057], [145.295843, -37.970514], [145.299801, -37.971012], [145.30012, -37.971111], [145.300291, -37.971145], [145.300447, -37.971251], [145.300559, -37.971555], [145.300538, -37.971686], [145.300208, -37.971796], [145.29958, -37.97183], [145.299586, -37.971584], [145.299752, -37.971411], [145.299452, -37.971462], [145.299125, -37.971445], [145.299012, -37.971525], [145.297893, -37.971365], [145.296676, -37.971225], [145.296434, -37.971124], [145.296316, -37.971014], [145.295796, -37.970807], [145.295538, -37.970722], [145.295442, -37.970671], [145.295415, -37.97057]]}, "properties": {"waterway": "dam"}}]}], "242": [], "243": [{"type": "FeatureCollection", "features": [{"type": "Feature", "id": 179896505, "geometry": {"type": "LineString", "coordinates": [[145.295415, -37.97057], [145.295843, -37.970514], [145.299801, -37.971012], [145.30012, -37.971111], [145.300291, -37.971145], [145.300447, -37.971251], [145.300559, -37.971555], [145.300538, -37.971686], [145.300208, -37.971796], [145.29958, -37.97183], [145.299586, -37.971584], [145.299752, -37.971411], [145.299452, -37.971462], [145.299125, -37.971445], [145.299012, -37.971525], [145.297893, -37.971365], [145.296676, -37.971225], [145.296434, -37.971124], [145.296316, -37.971014], [145.295796, -37.970807], [145.295538, -37.970722], [145.295442, -37.970671], [145.295415, -37.97057]]}, "properties": {"waterway": "dam"}}]}], "244": [{"type": "FeatureCollection", "features": [{"type": "Feature", "id": 5914565, "geometry": {"type": "LineString", "coordinates": [[145.299782, -37.969036], [145.299743, -37.96907], [145.299734, -37.969106], [145.299841, -37.969147], [145.300017, -37.969229], [145.300165, -37.969379], [145.3002, -37.969565], [145.300182, -37.969696], [145.30011, -37.969833], [145.299901, -37.969999], [145.299767, -37.970083], [145.299767, -37.970141], [145.299784, -37.970177], [145.300023, -37.97025], [145.300204, -37.970455], [145.300223, -37.970612], [145.300208, -37.970695], [145.300109, -37.970832], [145.300035, -37.970888], [145.299801, -37.971012], [145.295843, -37.970514], [145.295657, -37.970458], [145.295584, -37.970373], [145.295565, -37.970303], [145.29545, -37.970212], [145.295321, -37.970043], [145.29512, -37.969965], [145.294919, -37.969834], [145.294788, -37.969582], [145.294699, -37.96922], [145.294672, -37.969024], [145.294659, -37.968789], [145.294576, -37.968451], [145.294584, -37.968239], [145.294659, -37.968091], [145.294651, -37.967749], [145.294737, -37.967563], [145.294608, -37.967161], [145.294506, -37.966844], [145.294436, -37.966391], [145.294278, -37.965736], [145.29413, -37.965196], [145.294093, -37.964833], [145.29409, -37.964674], [145.294136, -37.964573], [145.294535, -37.963902], [145.294916, -37.963172], [145.295155, -37.961315], [145.295391, -37.960403], [145.296066, -37.959626], [145.296283, -37.958906], [145.296351, -37.958132], [145.296099, -37.957522], [145.295575, -37.956889], [145.295328, -37.955864], [145.296043, -37.955621], [145.296898, -37.955382], [145.297177, -37.955323], [145.297488, -37.955442], [145.298593, -37.956097], [145.298831, -37.956241], [145.298985, -37.956315], [145.299097, -37.95642], [145.2992, -37.956719], [145.299093, -37.956943], [145.2992, -37.957277], [145.299076, -37.957586], [145.299178, -37.957822], [145.299162, -37.958026], [145.2992, -37.959244], [145.299259, -37.9595], [145.299302, -37.960192], [145.299328, -37.960348], [145.299221, -37.960462], [145.299495, -37.960894], [145.299983, -37.961367], [145.300273, -37.961642], [145.300627, -37.961815], [145.302204, -37.96223], [145.302549, -37.962695], [145.30289, -37.96289], [145.303169, -37.962932], [145.303298, -37.963059], [145.303217, -37.963207], [145.302241, -37.963681], [145.301909, -37.963715], [145.30155, -37.963797], [145.301184, -37.963998], [145.300745, -37.964], [145.300294, -37.96404], [145.29994, -37.964203], [145.29968, -37.96456], [145.299543, -37.964797], [145.299645, -37.965094], [145.299908, -37.965439], [145.299791, -37.965511], [145.299871, -37.965541], [145.299982, -37.965535], [145.299935, -37.965576], [145.299586, -37.965705], [145.299561, -37.965745], [145.299591, -37.965777], [145.299753, -37.965749], [145.299865, -37.965794], [145.299935, -37.966001], [145.299966, -37.966302], [145.300074, -37.966495], [145.300353, -37.966823], [145.300399, -37.966966], [145.300399, -37.967089], [145.300299, -37.967254], [145.300055, -37.967442], [145.29983, -37.967588], [145.299801, -37.967621], [145.299772, -37.967668], [145.299826, -37.967727], [145.299998, -37.967764], [145.300181, -37.967791], [145.300254, -37.96792], [145.300211, -37.968394], [145.300147, -37.968751], [145.299986, -37.96891], [145.299782, -37.969036]]}, "properties": {"name": "Lysterfield Lake", "natural": "water", "wikidata": "Q21953383"}}]}, {"type": "FeatureCollection", "features": [{"type": "Feature", "id": 255495106, "geometry": {"type": "LineString", "coordinates": [[145.295312, -37.97032], [145.294695, -37.970151], [145.294232, -37.97043], [145.294082, -37.970277], [145.293835, -37.970218], [145.293417, -37.970252], [145.293084, -37.97021], [145.292913, -37.970192], [145.29287, -37.969795], [145.292569, -37.968831], [145.292473, -37.968027], [145.291888, -37.966952], [145.291861, -37.966903], [145.29229, -37.966911], [145.292204, -37.965921], [145.291936, -37.965566], [145.291718, -37.96511], [145.29123, -37.964772], [145.291251, -37.964495], [145.293149, -37.964712], [145.294071, -37.965219], [145.294368, -37.966476], [145.293955, -37.966908], [145.294556, -37.967601], [145.294588, -37.967973], [145.294373, -37.968367], [145.294625, -37.968845], [145.29462, -37.9692], [145.294749, -37.9698], [145.294996, -37.97005], [145.295371, -37.970198], [145.295312, -37.97032]]}, "properties": {"natural": "scrub"}}]}], "245": [{"type": "FeatureCollection", "features": [{"type": "Feature", "id": 34614467, "geometry": {"type": "LineString", "coordinates": [[145.292574, -37.967232], [145.292692, -37.967189], [145.292821, -37.967137], [145.29284, -37.966988], [145.292955, -37.966826], [145.293068, -37.966843], [145.293156, -37.966986], [145.293288, -37.966955], [145.29332, -37.96687], [145.293256, -37.966766], [145.293237, -37.966699], [145.293191, -37.966665], [145.293151, -37.966574], [145.293071, -37.966542], [145.293054, -37.966447], [145.293071, -37.966197], [145.292968, -37.966068], [145.293092, -37.965864], [145.293088, -37.965801], [145.292951, -37.965661], [145.292913, -37.965388], [145.292985, -37.965325], [145.292968, -37.965174], [145.293274, -37.965098], [145.293346, -37.965013], [145.293601, -37.964686], [145.293577, -37.96441], [145.293629, -37.964197], [145.293787, -37.964], [145.293825, -37.963705], [145.293922, -37.96365], [145.293978, -37.963474], [145.294097, -37.963389], [145.294214, -37.963196], [145.294226, -37.963102], [145.294274, -37.963017], [145.294202, -37.962695], [145.294269, -37.962542], [145.294279, -37.962299], [145.294249, -37.962196], [145.294273, -37.961986], [145.294255, -37.961894], [145.294267, -37.96177], [145.294204, -37.961681], [145.294241, -37.961629], [145.294253, -37.961538], [145.294218, -37.96142], [145.294331, -37.961323], [145.294354, -37.961149], [145.294518, -37.9609], [145.294494, -37.960783], [145.294595, -37.960628], [145.294594, -37.960503], [145.294671, -37.960316], [145.294666, -37.960231], [145.294687, -37.959892], [145.294796, -37.959651], [145.294765, -37.959437], [145.294825, -37.959346], [145.294811, -37.959187], [145.294743, -37.959157], [145.294719, -37.959062], [145.294732, -37.958983], [145.294712, -37.958817], [145.294647, -37.958798], [145.294619, -37.958714], [145.294694, -37.958503]]}, "properties": {"bicycle": "no", "foot": "yes", "highway": "path", "horse": "no", "motorcar": "no", "motorcycle": "no", "name": "Acacia Nature Trail", "source": "survey", "surface": "ground"}}]}], "246": [], "247": [{"type": "FeatureCollection", "features": [{"type": "Feature", "id": 89640136, "geometry": {"type": "LineString", "coordinates": [[145.284528, -37.948186], [145.283428, -37.953588], [145.283975, -37.95413], [145.283707, -37.954645], [145.283664, -37.954795], [145.283568, -37.95513], [145.284831, -37.955275], [145.287226, -37.957111], [145.289902, -37.957573], [145.289951, -37.958249], [145.289012, -37.958364], [145.288585, -37.95916], [145.288777, -37.959914], [145.288654, -37.960715], [145.288609, -37.96102], [145.2886, -37.961083], [145.288858, -37.962463], [145.290048, -37.962682], [145.293363, -37.963485], [145.294535, -37.963902], [145.294916, -37.963172], [145.295155, -37.961315], [145.295391, -37.960403], [145.296066, -37.959626], [145.296283, -37.958906], [145.296351, -37.958132], [145.296099, -37.957522], [145.295575, -37.956889], [145.295328, -37.955864], [145.295311, -37.955796], [145.29509, -37.954891], [145.295412, -37.95473], [145.295487, -37.954502], [145.29567, -37.954409], [145.295702, -37.954248], [145.296453, -37.95374], [145.296689, -37.953047], [145.295884, -37.952987], [145.295616, -37.952928], [145.295626, -37.952887], [145.296319, -37.949621], [145.293427, -37.949269], [145.284528, -37.948186]]}, "properties": {"natural": "wood"}}]}], "248": [], "249": [{"type": "FeatureCollection", "features": [{"type": "Feature", "id": 89752395, "geometry": {"type": "LineString", "coordinates": [[145.301217, -37.966184], [145.30082, -37.966133], [145.300477, -37.965981], [145.300335, -37.965885], [145.300251, -37.965829], [145.300101, -37.965575], [145.299972, -37.965152], [145.299886, -37.964704], [145.300144, -37.964382], [145.300648, -37.964315], [145.301013, -37.964382], [145.301367, -37.964069], [145.30155, -37.963797], [145.301909, -37.963715], [145.302204, -37.963731], [145.302612, -37.963587], [145.303277, -37.963198], [145.303813, -37.963012], [145.303652, -37.962936], [145.303395, -37.962995], [145.30318, -37.962843], [145.302976, -37.96275], [145.303084, -37.962386], [145.302708, -37.962504], [145.302569, -37.962589], [145.302247, -37.9622], [145.301399, -37.961971], [145.300594, -37.961735], [145.299758, -37.961049], [145.299446, -37.960406], [145.299436, -37.960102], [145.299318, -37.958545], [145.299275, -37.957074], [145.299296, -37.956498], [145.299232, -37.95627], [145.298813, -37.956058], [145.29862, -37.956058], [145.298116, -37.955771], [145.297333, -37.955306], [145.297129, -37.955263], [145.296131, -37.955534], [145.296217, -37.955416], [145.296646, -37.955289], [145.29699, -37.955196], [145.297065, -37.955043], [145.296807, -37.954823], [145.296453, -37.954646], [145.29567, -37.954409], [145.295702, -37.954248], [145.296453, -37.95374], [145.296689, -37.953047], [145.295884, -37.952987], [145.295616, -37.952928], [145.296319, -37.949621], [145.297945, -37.949837], [145.298738, -37.949942], [145.298781, -37.950103], [145.299114, -37.95012], [145.299554, -37.950094], [145.299801, -37.950103], [145.300305, -37.95012], [145.30053, -37.95028], [145.300916, -37.95034], [145.301174, -37.950255], [145.301654, -37.950255], [145.301839, -37.950255], [145.302869, -37.95039], [145.303448, -37.950551], [145.303856, -37.950602], [145.304317, -37.950678], [145.304596, -37.950619], [145.305358, -37.950695], [145.305873, -37.950746], [145.306828, -37.950932], [145.30789, -37.95105], [145.307708, -37.952125], [145.307161, -37.954426], [145.306914, -37.955551], [145.306013, -37.959459], [145.305916, -37.959662], [145.305669, -37.959747], [145.305347, -37.959924], [145.305337, -37.960762], [145.305433, -37.960923], [145.305691, -37.961007], [145.305948, -37.960686], [145.305852, -37.961329], [145.30509, -37.962792], [145.303792, -37.964991], [145.303771, -37.965682], [145.30377, -37.965719], [145.303652, -37.965743], [145.303568, -37.965735], [145.303145, -37.965716], [145.301706, -37.965541], [145.301669, -37.965758], [145.303088, -37.965944], [145.303296, -37.966007], [145.303105, -37.96618], [145.302799, -37.966175], [145.302606, -37.966247], [145.302155, -37.96623], [145.301624, -37.966175], [145.301297, -37.966175], [145.301217, -37.966184]]}, "properties": {"natural": "wood"}}]}, {"type": "FeatureCollection", "features": [{"type": "Feature", "id": 5914565, "geometry": {"type": "LineString", "coordinates": [[145.299782, -37.969036], [145.299743, -37.96907], [145.299734, -37.969106], [145.299841, -37.969147], [145.300017, -37.969229], [145.300165, -37.969379], [145.3002, -37.969565], [145.300182, -37.969696], [145.30011, -37.969833], [145.299901, -37.969999], [145.299767, -37.970083], [145.299767, -37.970141], [145.299784, -37.970177], [145.300023, -37.97025], [145.300204, -37.970455], [145.300223, -37.970612], [145.300208, -37.970695], [145.300109, -37.970832], [145.300035, -37.970888], [145.299801, -37.971012], [145.295843, -37.970514], [145.295657, -37.970458], [145.295584, -37.970373], [145.295565, -37.970303], [145.29545, -37.970212], [145.295321, -37.970043], [145.29512, -37.969965], [145.294919, -37.969834], [145.294788, -37.969582], [145.294699, -37.96922], [145.294672, -37.969024], [145.294659, -37.968789], [145.294576, -37.968451], [145.294584, -37.968239], [145.294659, -37.968091], [145.294651, -37.967749], [145.294737, -37.967563], [145.294608, -37.967161], [145.294506, -37.966844], [145.294436, -37.966391], [145.294278, -37.965736], [145.29413, -37.965196], [145.294093, -37.964833], [145.29409, -37.964674], [145.294136, -37.964573], [145.294535, -37.963902], [145.294916, -37.963172], [145.295155, -37.961315], [145.295391, -37.960403], [145.296066, -37.959626], [145.296283, -37.958906], [145.296351, -37.958132], [145.296099, -37.957522], [145.295575, -37.956889], [145.295328, -37.955864], [145.296043, -37.955621], [145.296898, -37.955382], [145.297177, -37.955323], [145.297488, -37.955442], [145.298593, -37.956097], [145.298831, -37.956241], [145.298985, -37.956315], [145.299097, -37.95642], [145.2992, -37.956719], [145.299093, -37.956943], [145.2992, -37.957277], [145.299076, -37.957586], [145.299178, -37.957822], [145.299162, -37.958026], [145.2992, -37.959244], [145.299259, -37.9595], [145.299302, -37.960192], [145.299328, -37.960348], [145.299221, -37.960462], [145.299495, -37.960894], [145.299983, -37.961367], [145.300273, -37.961642], [145.300627, -37.961815], [145.302204, -37.96223], [145.302549, -37.962695], [145.30289, -37.96289], [145.303169, -37.962932], [145.303298, -37.963059], [145.303217, -37.963207], [145.302241, -37.963681], [145.301909, -37.963715], [145.30155, -37.963797], [145.301184, -37.963998], [145.300745, -37.964], [145.300294, -37.96404], [145.29994, -37.964203], [145.29968, -37.96456], [145.299543, -37.964797], [145.299645, -37.965094], [145.299908, -37.965439], [145.299791, -37.965511], [145.299871, -37.965541], [145.299982, -37.965535], [145.299935, -37.965576], [145.299586, -37.965705], [145.299561, -37.965745], [145.299591, -37.965777], [145.299753, -37.965749], [145.299865, -37.965794], [145.299935, -37.966001], [145.299966, -37.966302], [145.300074, -37.966495], [145.300353, -37.966823], [145.300399, -37.966966], [145.300399, -37.967089], [145.300299, -37.967254], [145.300055, -37.967442], [145.29983, -37.967588], [145.299801, -37.967621], [145.299772, -37.967668], [145.299826, -37.967727], [145.299998, -37.967764], [145.300181, -37.967791], [145.300254, -37.96792], [145.300211, -37.968394], [145.300147, -37.968751], [145.299986, -37.96891], [145.299782, -37.969036]]}, "properties": {"name": "Lysterfield Lake", "natural": "water", "wikidata": "Q21953383"}}]}], "250": [], "251": [{"type": "FeatureCollection", "features": [{"type": "Feature", "id": 37722945, "geometry": {"type": "LineString", "coordinates": [[145.301493, -37.965595], [145.301102, -37.9653], [145.30131, -37.965142], [145.301749, -37.964821], [145.301808, -37.96482], [145.301982, -37.964817], [145.30215, -37.964957], [145.302128, -37.965037], [145.301493, -37.965595]]}, "properties": {"amenity": "parking", "fee": "no", "name": "Boat Trailer Carpark", "operator": "Parks Victoria", "operator:type": "government", "parking": "surface", "surface": "asphalt"}}]}], "252": [], "253": [], "254": [], "255": [], "256": [], "257": [], "258": [{"type": "FeatureCollection", "features": [{"type": "Feature", "id": 604106938, "geometry": {"type": "LineString", "coordinates": [[145.000663, -37.755265], [145.000656, -37.755307], [145.00076, -37.755318], [145.000816, -37.755325], [145.001026, -37.755348], [145.001033, -37.755309], [145.000792, -37.755281], [145.000663, -37.755265]]}, "properties": {"amenity": "cafe", "building": "yes"}}]}], "259": [], "260": [{"type": "FeatureCollection", "features": [{"type": "Feature", "id": 617332907, "geometry": {"type": "LineString", "coordinates": [[145.000478, -37.758455], [145.000463, -37.75854], [145.000154, -37.758505], [145.000169, -37.75842], [145.000478, -37.758455]]}, "properties": {"addr:housenumber": "735", "addr:postcode": "3071", "addr:state": "VIC", "addr:street": "High Street", "addr:suburb": "Thornbury", "building": "yes", "name": "Lions Club of Northcote Op Shop", "operator": "Lions Club", "second_hand": "only", "shop": "charity"}}]}], "261": [{"type": "FeatureCollection", "features": [{"type": "Feature", "id": 617332910, "geometry": {"type": "LineString", "coordinates": [[145.000404, -37.758712], [145.000397, -37.758753], [145.000324, -37.758745], [145.000314, -37.758808], [145.000442, -37.758822], [145.00046, -37.758718], [145.000404, -37.758712]]}, "properties": {"addr:housenumber": "731", "addr:postcode": "3071", "addr:state": "VIC", "addr:street": "High Street", "addr:suburb": "Thornbury", "amenity": "cafe", "building": "yes", "name": "Short Round", "outdoor_seating": "yes", "phone": "+61 3 9484 3904", "website": "http://www.shortround.com.au/"}}]}], "262": [{"type": "FeatureCollection", "features": [{"type": "Feature", "id": 617332920, "geometry": {"type": "LineString", "coordinates": [[145.000143, -37.759253], [145.000031, -37.75924], [145.000022, -37.759286], [145.000355, -37.759324], [145.000364, -37.759277], [145.000143, -37.759253]]}, "properties": {"addr:housenumber": "709", "addr:postcode": "3071", "addr:state": "VIC", "addr:street": "High Street", "addr:suburb": "Thornbury", "amenity": "cafe", "building": "yes", "cuisine": "french", "name": "Le Cafe Flo", "phone": "+61 3 9484 2089", "website": "https://www.lecafeflo.com/"}}]}], "263": [{"type": "FeatureCollection", "features": [{"type": "Feature", "id": 1036449860, "geometry": {"type": "LineString", "coordinates": [[144.923984, -37.799414], [144.923978, -37.799439], [144.924179, -37.799469], [144.924175, -37.799481], [144.925431, -37.79967], [144.925722, -37.799713], [144.925726, -37.799696], [144.925761, -37.799701], [144.925766, -37.799681], [144.925734, -37.799658], [144.925678, -37.799619], [144.925648, -37.799598], [144.925651, -37.799587], [144.925654, -37.799573], [144.923893, -37.799315], [144.923888, -37.79934], [144.923909, -37.799357], [144.92396, -37.799395], [144.923984, -37.799414]]}, "properties": {"internet_access": "no", "name": "South Kensington", "network": "Metro Trains Melbourne", "network:wikidata": "Q10931299", "note": "Sunbury services do not stop here.", "operator": "Metro Trains Melbourne", "public_transport": "station", "railway": "station", "railway:ref": "SKN", "ref": "20026", "train": "yes", "wheelchair": "yes", "wikidata": "Q7567602"}}]}], "264": [{"type": "FeatureCollection", "features": [{"type": "Feature", "id": 45810508, "geometry": {"type": "LineString", "coordinates": [[144.926097, -37.79791], [144.926145, -37.797891], [144.926185, -37.797945], [144.926253, -37.79796], [144.926261, -37.798007], [144.926007, -37.798117], [144.92588, -37.798002], [144.92582, -37.79787], [144.92582, -37.797761], [144.925934, -37.797728], [144.926037, -37.797885], [144.926097, -37.79791]]}, "properties": {"access": "yes", "leisure": "playground", "source": "nearmap"}}]}], "265": [{"type": "FeatureCollection", "features": [{"type": "Feature", "id": 45810540, "geometry": {"type": "LineString", "coordinates": [[144.924147, -37.798542], [144.924235, -37.798634], [144.924298, -37.798709], [144.924135, -37.798806], [144.92407, -37.798732], [144.923728, -37.798924], [144.923629, -37.798825], [144.924147, -37.798542]]}, "properties": {"building": "yes", "layer": "1", "name": "Bill Vanina Pavillon"}}]}], "266": [{"type": "FeatureCollection", "features": [{"type": "Feature", "id": 1093776316, "geometry": {"type": "LineString", "coordinates": [[144.921437, -37.798047], [144.921575, -37.798045], [144.921583, -37.798516], [144.921444, -37.798517], [144.921437, -37.798047]]}, "properties": {"leisure": "pitch", "sport": "skateboard"}}]}], "267": [{"type": "FeatureCollection", "features": []}, {"type": "FeatureCollection", "features": [{"type": "Feature", "id": 729799716, "geometry": {"type": "LineString", "coordinates": [[144.923415, -37.796985], [144.923622, -37.796868], [144.923776, -37.797025], [144.923982, -37.797245], [144.923827, -37.797316], [144.923826, -37.797371], [144.923826, -37.797389], [144.923827, -37.79741], [144.923616, -37.797409], [144.923617, -37.797385], [144.923596, -37.797385], [144.923597, -37.797335], [144.923588, -37.797311], [144.923439, -37.797213], [144.923424, -37.797058], [144.923415, -37.796985]]}, "properties": {"addr:housenumber": "85", "addr:postcode": "3031", "addr:state": "VIC", "addr:street": "Kensington Road", "addr:suburb": "Kensington", "amenity": "community_centre", "community_centre:for": "juvenile", "email": "Info@thevenny.org.au", "name": "The Venny", "phone": "+61 3 9376 0589", "website": "https://thevenny.org.au"}}]}, {"type": "FeatureCollection", "features": [{"type": "Feature", "id": 311890145, "geometry": {"type": "LineString", "coordinates": [[144.925655, -37.797832], [144.925655, -37.797788], [144.925614, -37.797753], [144.925542, -37.79773], [144.925473, -37.797779], [144.925627, -37.797868], [144.925655, -37.797832]]}, "properties": {"leisure": "hoop", "sport": "basketball"}}]}, {"type": "FeatureCollection", "features": [{"type": "Feature", "id": 1035917503, "geometry": {"type": "LineString", "coordinates": [[144.923291, -37.798774], [144.923179, -37.798757], [144.923202, -37.798665], [144.923314, -37.798682], [144.923291, -37.798774]]}, "properties": {"building": "yes", "hoops": "1", "leisure": "pitch", "sport": "basketball"}}]}], "268": [{"type": "FeatureCollection", "features": [{"type": "Feature", "id": 729799716, "geometry": {"type": "LineString", "coordinates": [[144.923415, -37.796985], [144.923622, -37.796868], [144.923776, -37.797025], [144.923982, -37.797245], [144.923827, -37.797316], [144.923826, -37.797371], [144.923826, -37.797389], [144.923827, -37.79741], [144.923616, -37.797409], [144.923617, -37.797385], [144.923596, -37.797385], [144.923597, -37.797335], [144.923588, -37.797311], [144.923439, -37.797213], [144.923424, -37.797058], [144.923415, -37.796985]]}, "properties": {"addr:housenumber": "85", "addr:postcode": "3031", "addr:state": "VIC", "addr:street": "Kensington Road", "addr:suburb": "Kensington", "amenity": "community_centre", "community_centre:for": "juvenile", "email": "Info@thevenny.org.au", "name": "The Venny", "phone": "+61 3 9376 0589", "website": "https://thevenny.org.au"}}]}], "269": [{"type": "FeatureCollection", "features": [{"type": "Feature", "id": 41411230, "geometry": {"type": "LineString", "coordinates": [[144.920375, -37.798444], [144.92321, -37.796807], [144.924595, -37.796005], [144.926936, -37.798642], [144.925951, -37.799253], [144.921445, -37.798596], [144.921191, -37.798559], [144.92093, -37.798521], [144.920375, -37.798444]]}, "properties": {"leisure": "park", "name": "J.J. Holland Park", "website": "http://www.thatsmelbourne.com.au/Placestogo/ParksandGardens/AllParksandGardens/Pages/4443.aspx", "wikidata": "Q6104138", "wikipedia": "en:J.J. Holland Park"}}]}], "270": [{"type": "FeatureCollection", "features": [{"type": "Feature", "id": 267164575, "geometry": {"type": "LineString", "coordinates": [[144.92151, -37.795831], [144.92103, -37.796105], [144.920467, -37.795488], [144.920947, -37.795214], [144.92151, -37.795831]]}, "properties": {"leisure": "park", "name": "Mercantile Parade North Reserve", "source": "Bing"}}]}], "271": [], "272": [{"type": "FeatureCollection", "features": [{"type": "Feature", "id": 1010522855, "geometry": {"type": "LineString", "coordinates": [[144.919208, -37.794778], [144.919344, -37.794701], [144.919232, -37.794578], [144.919096, -37.794655], [144.919208, -37.794778]]}, "properties": {"leisure": "pitch", "sport": "basketball"}}]}], "273": [{"type": "FeatureCollection", "features": [{"type": "Feature", "id": 95649761, "geometry": {"type": "LineString", "coordinates": [[144.915584, -37.794405], [144.915707, -37.794422], [144.915662, -37.794634], [144.915539, -37.794618], [144.915584, -37.794405]]}, "properties": {"fee": "yes", "leisure": "pitch", "lit": "yes", "sport": "tennis", "surface": "paved"}}]}, {"type": "FeatureCollection", "features": [{"type": "Feature", "id": 95649764, "geometry": {"type": "LineString", "coordinates": [[144.915761, -37.794429], [144.915883, -37.794445], [144.915839, -37.794657], [144.915716, -37.794641], [144.915761, -37.794429]]}, "properties": {"fee": "yes", "leisure": "pitch", "lit": "yes", "sport": "tennis", "surface": "paved"}}]}, {"type": "FeatureCollection", "features": [{"type": "Feature", "id": 95649767, "geometry": {"type": "LineString", "coordinates": [[144.91541, -37.794382], [144.915533, -37.794398], [144.915488, -37.79461], [144.915365, -37.794594], [144.91541, -37.794382]]}, "properties": {"fee": "yes", "leisure": "pitch", "lit": "yes", "sport": "tennis", "surface": "paved"}}]}], "274": [{"type": "FeatureCollection", "features": [{"type": "Feature", "id": 2718787387, "geometry": {"type": "Point", "coordinates": [144.914633, -37.796728]}, "properties": {"tourism": "viewpoint"}}]}], "275": [{"type": "FeatureCollection", "features": [{"type": "Feature", "id": 1211389019, "geometry": {"type": "LineString", "coordinates": [[144.914802, -37.796653], [144.914845, -37.796683], [144.915648, -37.795957], [144.915604, -37.795932], [144.914802, -37.796653]]}, "properties": {"layer": "1", "man_made": "bridge", "name": "Stock Bridge"}}]}], "276": [{"type": "FeatureCollection", "features": [{"type": "Feature", "id": 23043775, "geometry": {"type": "LineString", "coordinates": [[146.318899, -39.028254], [146.318911, -39.028297], [146.318924, -39.028338], [146.318914, -39.028421], [146.318886, -39.028484], [146.318858, -39.028538], [146.318803, -39.028632]]}, "properties": {"bridge": "yes", "foot": "yes", "highway": "footway", "layer": "1"}}]}], "277": [{"type": "FeatureCollection", "features": [{"type": "Feature", "id": 23043770, "geometry": {"type": "LineString", "coordinates": [[146.318899, -39.028254], [146.318812, -39.028168], [146.318797, -39.028091], [146.318744, -39.02807], [146.318659, -39.028036], [146.318463, -39.028006], [146.317786, -39.027854], [146.317697, -39.02785], [146.317639, -39.027836], [146.31757, -39.027852], [146.317505, -39.02792], [146.317271, -39.02801], [146.317159, -39.028023], [146.316999, -39.028013], [146.316893, -39.028041], [146.316849, -39.028076], [146.316838, -39.028125], [146.316756, -39.028167], [146.31665, -39.028171], [146.316555, -39.028203], [146.316484, -39.028269], [146.316532, -39.028349], [146.316562, -39.028389], [146.31654, -39.028427], [146.316499, -39.028447], [146.316437, -39.028489], [146.316421, -39.028571], [146.316366, -39.028665], [146.316299, -39.028705], [146.316228, -39.028718], [146.316169, -39.028722], [146.316126, -39.028749], [146.316121, -39.028785], [146.316149, -39.028822], [146.31613, -39.028855], [146.316028, -39.028914], [146.315799, -39.029136], [146.315733, -39.029206], [146.31571, -39.029259], [146.315681, -39.029325], [146.315619, -39.029385], [146.315643, -39.029487], [146.315625, -39.029578], [146.315577, -39.029637], [146.315465, -39.029681], [146.315403, -39.029757], [146.315249, -39.029928], [146.315175, -39.029981], [146.315085, -39.029985], [146.314993, -39.029995], [146.314863, -39.030025], [146.314838, -39.03013], [146.314779, -39.030181], [146.314688, -39.030224], [146.314605, -39.030328], [146.314574, -39.030377], [146.314486, -39.030395], [146.314404, -39.030444], [146.314337, -39.030534], [146.314251, -39.030606], [146.31407, -39.030629], [146.313909, -39.030738], [146.313775, -39.030766], [146.313626, -39.030782], [146.313329, -39.030766], [146.313037, -39.030686], [146.312845, -39.030672], [146.312749, -39.030697], [146.312611, -39.030764], [146.312372, -39.030934], [146.312286, -39.030984], [146.312212, -39.030993], [146.311884, -39.030989], [146.311692, -39.031089], [146.311517, -39.031134], [146.31116, -39.031169], [146.311103, -39.031163], [146.311031, -39.031145], [146.310994, -39.03119], [146.311002, -39.03124], [146.310976, -39.031307], [146.310819, -39.031405], [146.310776, -39.031438], [146.310768, -39.031488], [146.310748, -39.031563], [146.310775, -39.031634], [146.310739, -39.031684], [146.310655, -39.031815], [146.310562, -39.031849], [146.310389, -39.031974], [146.310146, -39.032145], [146.31003, -39.032254], [146.309738, -39.03243]]}, "properties": {"highway": "path", "name": "Tidal Overlook Circuit", "surface": "fine_gravel"}}]}], "278": [{"type": "FeatureCollection", "features": [{"type": "Feature", "id": 265022296, "geometry": {"type": "Point", "coordinates": [146.316423, -39.028747]}, "properties": {"name": "Whale Rock", "tourism": "viewpoint"}}]}], "279": [{"type": "FeatureCollection", "features": [{"type": "Feature", "id": 44948474, "geometry": {"type": "LineString", "coordinates": [[146.316894, -39.029208], [146.317076, -39.029111], [146.31697, -39.029205], [146.316925, -39.029264], [146.316731, -39.02954], [146.3166, -39.029866], [146.316507, -39.029878], [146.316353, -39.03], [146.316253, -39.030188], [146.316087, -39.030502], [146.315883, -39.030689], [146.315761, -39.030819], [146.315506, -39.031031], [146.315413, -39.031043], [146.315269, -39.03113], [146.315178, -39.031143], [146.314977, -39.031253], [146.314825, -39.031374], [146.31476, -39.031489], [146.314785, -39.0316], [146.3151, -39.031993], [146.315307, -39.032183], [146.315551, -39.032452], [146.316141, -39.032859], [146.316974, -39.033344], [146.317124, -39.033406], [146.3188, -39.034106], [146.319464, -39.034454], [146.320493, -39.034967], [146.32097, -39.035284], [146.321471, -39.035698], [146.322072, -39.036188], [146.322993, -39.036977], [146.323745, -39.037819], [146.325321, -39.039787], [146.325929, -39.040339], [146.326116, -39.040312], [146.326287, -39.040275], [146.326413, -39.040352], [146.326238, -39.040478], [146.326231, -39.04054], [146.326259, -39.040594], [146.326434, -39.040741], [146.326577, -39.040754], [146.326684, -39.04071], [146.326793, -39.040625], [146.32684, -39.040569], [146.326859, -39.040634], [146.326856, -39.040729], [146.326803, -39.040754], [146.326749, -39.040756], [146.32672, -39.040798], [146.32669, -39.04085], [146.326726, -39.040912], [146.326568, -39.04112], [146.326459, -39.041336], [146.324504, -39.039483], [146.322637, -39.037023], [146.321879, -39.036336], [146.320623, -39.03544], [146.319147, -39.034666], [146.317764, -39.034046], [146.317271, -39.033805], [146.316904, -39.033602], [146.316535, -39.033346], [146.315999, -39.03306], [146.315196, -39.032674], [146.31422, -39.032139], [146.313969, -39.031996], [146.313828, -39.031837], [146.313797, -39.031762], [146.31385, -39.031685], [146.314281, -39.031334], [146.314495, -39.031179], [146.314784, -39.031111], [146.314963, -39.031084], [146.315365, -39.030976], [146.315558, -39.030895], [146.315695, -39.030769], [146.315811, -39.030586], [146.315953, -39.030444], [146.316036, -39.030298], [146.316082, -39.030215], [146.316165, -39.030069], [146.316267, -39.02987], [146.316303, -39.029738], [146.316373, -39.029649], [146.316511, -39.029567], [146.316623, -39.029499], [146.316768, -39.02936], [146.316894, -39.029208]]}, "properties": {"name": "Norman Beach", "natural": "beach", "surface": "sand", "wikidata": "Q21955842"}}]}], "280": [], "281": [{"type": "FeatureCollection", "features": [{"type": "Feature", "id": 3302170025, "geometry": {"type": "Point", "coordinates": [146.309537, -39.032521]}, "properties": {"tourism": "viewpoint"}}]}], "282": [], "283": [], "284": [{"type": "FeatureCollection", "features": [{"type": "Feature", "id": 28755691, "geometry": {"type": "LineString", "coordinates": [[146.309738, -39.03243], [146.309664, -39.032452], [146.309632, -39.032444], [146.309606, -39.03239], [146.309484, -39.032382], [146.309352, -39.032448], [146.30919, -39.032492], [146.308999, -39.032587], [146.308797, -39.03263], [146.308575, -39.032662], [146.308403, -39.032735], [146.308208, -39.032937], [146.308133, -39.033104], [146.30806, -39.033201], [146.307918, -39.03327], [146.307811, -39.033289], [146.307741, -39.033329], [146.307671, -39.033333], [146.307545, -39.033468], [146.307426, -39.033528], [146.307245, -39.033651], [146.307158, -39.033691], [146.307041, -39.033732], [146.306926, -39.03381], [146.306819, -39.033928], [146.306748, -39.033983], [146.306711, -39.033989], [146.306695, -39.033949], [146.30669, -39.033827], [146.306735, -39.033672], [146.306745, -39.03358], [146.306841, -39.033515], [146.306895, -39.033454], [146.306901, -39.033401], [146.307002, -39.03328], [146.307067, -39.033217], [146.307105, -39.033139], [146.307199, -39.032947], [146.307344, -39.032882], [146.307502, -39.032735], [146.307563, -39.032643], [146.30761, -39.032503], [146.307668, -39.032356], [146.307736, -39.03226], [146.307816, -39.032134], [146.307921, -39.032045], [146.308062, -39.031914], [146.308103, -39.031835], [146.308085, -39.031688], [146.308036, -39.031539], [146.307987, -39.031501], [146.307913, -39.031493], [146.307861, -39.031424], [146.307762, -39.031355], [146.307618, -39.031226], [146.307603, -39.031165], [146.307483, -39.031018], [146.307331, -39.030901], [146.307348, -39.030808], [146.307303, -39.030719], [146.307213, -39.030589], [146.307269, -39.030391], [146.307325, -39.030318], [146.30738, -39.03029], [146.30736, -39.030214], [146.307347, -39.030184], [146.307359, -39.030096], [146.307457, -39.029949], [146.307462, -39.029743], [146.307494, -39.02943], [146.307505, -39.029139], [146.307548, -39.028915], [146.307564, -39.028791], [146.307545, -39.028668], [146.307736, -39.028403], [146.307771, -39.02832], [146.30776, -39.028234], [146.307778, -39.028086], [146.307861, -39.027978], [146.307841, -39.027907]]}, "properties": {"highway": "path", "name": "Squeaky Beach Walk"}}]}], "285": [], "286": [], "287": [{"type": "FeatureCollection", "features": [{"type": "Feature", "id": 446436436, "geometry": {"type": "LineString", "coordinates": [[146.311096, -39.035307], [146.31023, -39.03627], [146.309803, -39.036452], [146.30939, -39.03679], [146.309407, -39.036982], [146.309051, -39.037552], [146.308527, -39.038061], [146.30801, -39.038336], [146.307795, -39.038372], [146.307615, -39.038294], [146.307359, -39.038338], [146.307113, -39.038581], [146.306419, -39.039011], [146.306355, -39.039093], [146.305419, -39.039606], [146.304711, -39.039363], [146.304508, -39.03925], [146.304329, -39.038288], [146.3043, -39.038123], [146.303876, -39.03772], [146.303856, -39.037588], [146.304063, -39.037227], [146.304154, -39.035971], [146.304378, -39.035825], [146.304765, -39.035436], [146.304772, -39.035328], [146.304885, -39.034726], [146.304877, -39.034572], [146.305051, -39.033986], [146.305101, -39.033881], [146.305334, -39.0334], [146.305382, -39.033317], [146.305834, -39.032581], [146.306648, -39.032152], [146.306966, -39.031953], [146.306956, -39.031712], [146.30663, -39.031668], [146.306566, -39.031653], [146.306426, -39.031532], [146.306383, -39.031453], [146.306335, -39.031183], [146.306385, -39.03041], [146.306341, -39.030134], [146.306408, -39.029212], [146.30645, -39.029142], [146.30663, -39.02896], [146.306579, -39.028521], [146.307047, -39.028285], [146.306979, -39.028074], [146.307435, -39.027948], [146.307841, -39.027907], [146.307947, -39.027932], [146.308102, -39.027944], [146.308367, -39.027936], [146.308526, -39.027898], [146.308623, -39.027961], [146.308561, -39.028016], [146.30807, -39.028036], [146.307874, -39.02817], [146.307627, -39.028278], [146.307364, -39.028295], [146.307373, -39.028419], [146.307303, -39.028665], [146.307351, -39.028757], [146.307394, -39.028844], [146.307287, -39.029073], [146.307214, -39.029324], [146.30733, -39.029432], [146.307265, -39.029694], [146.307142, -39.029877], [146.30712, -39.03009], [146.307094, -39.030323], [146.307024, -39.030461], [146.307115, -39.030603], [146.30711, -39.030752], [146.307201, -39.030869], [146.307314, -39.031048], [146.30741, -39.031257], [146.307324, -39.031336], [146.307394, -39.031482], [146.307598, -39.031569], [146.307756, -39.03168], [146.30777, -39.031869], [146.3077, -39.031932], [146.307592, -39.032015], [146.307389, -39.032182], [146.307029, -39.032394], [146.306901, -39.032624], [146.306554, -39.032762], [146.306359, -39.032978], [146.306064, -39.033211], [146.305919, -39.03342], [146.305849, -39.033682], [146.305645, -39.033907], [146.30571, -39.034149], [146.305887, -39.034244], [146.305903, -39.034486], [146.305779, -39.034678], [146.305637, -39.034983], [146.305683, -39.035136], [146.305908, -39.035153], [146.306187, -39.035065], [146.306321, -39.035145], [146.306501, -39.035075], [146.306734, -39.03512], [146.306788, -39.035211], [146.306527, -39.035295], [146.306208, -39.035386], [146.305948, -39.035375], [146.305632, -39.03527], [146.305452, -39.035307], [146.305358, -39.0355], [146.305235, -39.0357], [146.305125, -39.03582], [146.305025, -39.035933], [146.304776, -39.036182], [146.304878, -39.036303], [146.305125, -39.036461], [146.305157, -39.036649], [146.305334, -39.03669], [146.305272, -39.036787], [146.305052, -39.03687], [146.304841, -39.036861], [146.304841, -39.036945], [146.304943, -39.037074], [146.304873, -39.037207], [146.304792, -39.037286], [146.304921, -39.037391], [146.304932, -39.037486], [146.304878, -39.037682], [146.304873, -39.037878], [146.304975, -39.037999], [146.305034, -39.038157], [146.305039, -39.038311], [146.305146, -39.038365], [146.305302, -39.038311], [146.305379, -39.038225], [146.305495, -39.038311], [146.305409, -39.038407], [146.305254, -39.038516], [146.305297, -39.038645], [146.305602, -39.038865], [146.305871, -39.038941], [146.306085, -39.038945], [146.306259, -39.038816], [146.306294, -39.038703], [146.306192, -39.038599], [146.306192, -39.038399], [146.306364, -39.038307], [146.306402, -39.038111], [146.306498, -39.038053], [146.306643, -39.038149], [146.306697, -39.038324], [146.306933, -39.038257], [146.307008, -39.038107], [146.307147, -39.037816], [146.307367, -39.037707], [146.30756, -39.037707], [146.307743, -39.037807], [146.307869, -39.037758], [146.308043, -39.037695], [146.308172, -39.037711], [146.308327, -39.037641], [146.308394, -39.037491], [146.30858, -39.037386], [146.308789, -39.037299], [146.308934, -39.037082], [146.309078, -39.03697], [146.309231, -39.03682], [146.309288, -39.036507], [146.30961, -39.03632], [146.309937, -39.03609], [146.310237, -39.035732], [146.31043, -39.035415], [146.310835, -39.035208], [146.310924, -39.034957], [146.310969, -39.03472], [146.311197, -39.034345], [146.311264, -39.034012], [146.311149, -39.033815], [146.310607, -39.033586], [146.310345, -39.033478], [146.310404, -39.033415], [146.310827, -39.03349], [146.311106, -39.033532], [146.311466, -39.033657], [146.311632, -39.033578], [146.311686, -39.03347], [146.311747, -39.033341], [146.31187, -39.033141], [146.311975, -39.032982], [146.312106, -39.032941], [146.312222, -39.032986], [146.312297, -39.033032], [146.312324, -39.033149], [146.312276, -39.033207], [146.312149, -39.033137], [146.312037, -39.033087], [146.311996, -39.033204], [146.311935, -39.033441], [146.311889, -39.033582], [146.311734, -39.033794], [146.311615, -39.033833], [146.3113, -39.034013], [146.311469, -39.03427], [146.311096, -39.035307]]}, "properties": {"natural": "bare_rock"}}]}], "288": [{"type": "FeatureCollection", "features": [{"type": "Feature", "id": 28755691, "geometry": {"type": "LineString", "coordinates": [[146.309738, -39.03243], [146.309664, -39.032452], [146.309632, -39.032444], [146.309606, -39.03239], [146.309484, -39.032382], [146.309352, -39.032448], [146.30919, -39.032492], [146.308999, -39.032587], [146.308797, -39.03263], [146.308575, -39.032662], [146.308403, -39.032735], [146.308208, -39.032937], [146.308133, -39.033104], [146.30806, -39.033201], [146.307918, -39.03327], [146.307811, -39.033289], [146.307741, -39.033329], [146.307671, -39.033333], [146.307545, -39.033468], [146.307426, -39.033528], [146.307245, -39.033651], [146.307158, -39.033691], [146.307041, -39.033732], [146.306926, -39.03381], [146.306819, -39.033928], [146.306748, -39.033983], [146.306711, -39.033989], [146.306695, -39.033949], [146.30669, -39.033827], [146.306735, -39.033672], [146.306745, -39.03358], [146.306841, -39.033515], [146.306895, -39.033454], [146.306901, -39.033401], [146.307002, -39.03328], [146.307067, -39.033217], [146.307105, -39.033139], [146.307199, -39.032947], [146.307344, -39.032882], [146.307502, -39.032735], [146.307563, -39.032643], [146.30761, -39.032503], [146.307668, -39.032356], [146.307736, -39.03226], [146.307816, -39.032134], [146.307921, -39.032045], [146.308062, -39.031914], [146.308103, -39.031835], [146.308085, -39.031688], [146.308036, -39.031539], [146.307987, -39.031501], [146.307913, -39.031493], [146.307861, -39.031424], [146.307762, -39.031355], [146.307618, -39.031226], [146.307603, -39.031165], [146.307483, -39.031018], [146.307331, -39.030901], [146.307348, -39.030808], [146.307303, -39.030719], [146.307213, -39.030589], [146.307269, -39.030391], [146.307325, -39.030318], [146.30738, -39.03029], [146.30736, -39.030214], [146.307347, -39.030184], [146.307359, -39.030096], [146.307457, -39.029949], [146.307462, -39.029743], [146.307494, -39.02943], [146.307505, -39.029139], [146.307548, -39.028915], [146.307564, -39.028791], [146.307545, -39.028668], [146.307736, -39.028403], [146.307771, -39.02832], [146.30776, -39.028234], [146.307778, -39.028086], [146.307861, -39.027978], [146.307841, -39.027907]]}, "properties": {"highway": "path", "name": "Squeaky Beach Walk"}}]}], "289": [{"type": "FeatureCollection", "features": [{"type": "Feature", "id": 45041177, "geometry": {"type": "LineString", "coordinates": [[146.302446, -39.023152], [146.302896, -39.022669], [146.302996, -39.0227], [146.30487, -39.024019], [146.306222, -39.025436], [146.307467, -39.02707], [146.307975, -39.027673], [146.307841, -39.027907], [146.307435, -39.027948], [146.306999, -39.028075], [146.30685, -39.027657], [146.306759, -39.027536], [146.306571, -39.02737], [146.306142, -39.026911], [146.305557, -39.025978], [146.304865, -39.025165], [146.304742, -39.025086], [146.304452, -39.024815], [146.304098, -39.024448], [146.303953, -39.024307], [146.303599, -39.023898], [146.303444, -39.023761], [146.303234, -39.023602], [146.303063, -39.023473], [146.302784, -39.023315], [146.30251, -39.023223], [146.302446, -39.023152]]}, "properties": {"name": "Squeaky Beach", "natural": "beach", "surface": "sand", "wikidata": "Q21955797"}}]}], "290": [{"type": "FeatureCollection", "features": [{"type": "Feature", "id": 2707956414, "geometry": {"type": "Point", "coordinates": [146.298224, -39.02929]}, "properties": {"name": "Leonard Bay", "natural": "bay", "source": "Bing", "wikidata": "Q21907323"}}]}], "291": [{"type": "FeatureCollection", "features": [{"type": "Feature", "id": 172237649, "geometry": {"type": "LineString", "coordinates": [[144.889122, -38.492948], [144.889224, -38.492953], [144.889163, -38.493006], [144.888972, -38.49302], [144.888973, -38.493088], [144.889131, -38.493078], [144.889219, -38.493059], [144.889292, -38.493023], [144.889336, -38.492979], [144.889361, -38.49291], [144.889359, -38.492845], [144.88933, -38.49279], [144.88928, -38.492735], [144.889201, -38.4927], [144.889105, -38.492676], [144.888911, -38.492654], [144.888729, -38.492601], [144.888611, -38.492557], [144.888583, -38.492608], [144.888491, -38.492553], [144.888438, -38.492605], [144.888588, -38.492705], [144.888718, -38.49275], [144.888863, -38.492783], [144.888884, -38.492714], [144.888992, -38.492733], [144.889131, -38.492751], [144.88921, -38.492779], [144.889243, -38.492846], [144.889139, -38.492841], [144.889122, -38.492948]]}, "properties": {"amenity": "parking", "fee": "no"}}]}, {"type": "FeatureCollection", "features": [{"type": "Feature", "id": 172237582, "geometry": {"type": "LineString", "coordinates": [[144.88828, -38.492555], [144.888218, -38.492641], [144.88823, -38.492784], [144.888236, -38.492817], [144.888294, -38.492875], [144.888235, -38.492936], [144.888407, -38.493027], [144.888769, -38.493084], [144.888796, -38.493008], [144.888821, -38.492936], [144.888592, -38.492893], [144.888384, -38.492846], [144.888332, -38.492806], [144.888307, -38.492742], [144.888307, -38.492669], [144.888334, -38.492593], [144.88828, -38.492555]]}, "properties": {"amenity": "parking", "fee": "no"}}]}, {"type": "FeatureCollection", "features": [{"type": "Feature", "id": 172237647, "geometry": {"type": "LineString", "coordinates": [[144.889055, -38.492942], [144.888875, -38.492923], [144.888893, -38.492813], [144.889074, -38.492832], [144.889055, -38.492942]]}, "properties": {"amenity": "parking", "fee": "no"}}]}], "292": [], "293": [{"type": "FeatureCollection", "features": [{"type": "Feature", "id": 172237557, "geometry": {"type": "LineString", "coordinates": [[144.888812, -38.493124], [144.888958, -38.49315], [144.889313, -38.493252], [144.88946, -38.493331], [144.889608, -38.493372], [144.889723, -38.493366], [144.889817, -38.493333], [144.889919, -38.493247], [144.890116, -38.493062], [144.890232, -38.492995]]}, "properties": {"fixme": "probably also part of Mornington Penninsula Walk?", "foot": "yes", "highway": "path", "surface": "unpaved"}}]}], "294": [{"type": "FeatureCollection", "features": [{"type": "Feature", "id": 176328441, "geometry": {"type": "LineString", "coordinates": [[144.885645, -38.479906], [144.885588, -38.480105], [144.885382, -38.480552], [144.884942, -38.48123], [144.885103, -38.482247], [144.885125, -38.482235], [144.885151, -38.482461], [144.884969, -38.483158], [144.884731, -38.483498], [144.88424, -38.483766], [144.884166, -38.48383], [144.884164, -38.484047], [144.884425, -38.484491], [144.884559, -38.485067], [144.88447, -38.486098], [144.884479, -38.486337], [144.884353, -38.486774], [144.884348, -38.486881], [144.884495, -38.486966], [144.884905, -38.486998], [144.885024, -38.487054], [144.885099, -38.487156], [144.885148, -38.487567], [144.885014, -38.488079], [144.885089, -38.488169], [144.885131, -38.488181], [144.885181, -38.488228], [144.88523, -38.488369], [144.885243, -38.488521], [144.88514, -38.488774], [144.884935, -38.488972], [144.884436, -38.488995], [144.884299, -38.489028], [144.884122, -38.48914], [144.884118, -38.489261], [144.884146, -38.489303], [144.884256, -38.489383], [144.884821, -38.489595], [144.884864, -38.489634], [144.884873, -38.489806], [144.884579, -38.490146], [144.884517, -38.490551], [144.884481, -38.490625], [144.884316, -38.49073], [144.883906, -38.490841], [144.883817, -38.490975], [144.883825, -38.491043], [144.884112, -38.491356], [144.884231, -38.491604], [144.884296, -38.491629], [144.884408, -38.491589], [144.88438, -38.491407], [144.884446, -38.491385], [144.884497, -38.491444], [144.884512, -38.491541], [144.884572, -38.491679], [144.884644, -38.491694], [144.884737, -38.491649], [144.884815, -38.49164], [144.884837, -38.491663], [144.884914, -38.491876], [144.884911, -38.492042], [144.88488, -38.49207], [144.88464, -38.492097], [144.884579, -38.492153], [144.884576, -38.49235], [144.885008, -38.493197], [144.885145, -38.493357], [144.885372, -38.493522], [144.885602, -38.493568], [144.886004, -38.493623], [144.886429, -38.493493], [144.886658, -38.493734], [144.886822, -38.493857], [144.886855, -38.493902], [144.88688, -38.494189], [144.886866, -38.494354], [144.886751, -38.494871], [144.886822, -38.495261], [144.886787, -38.495503], [144.886707, -38.495565], [144.886649, -38.495567], [144.886531, -38.495568], [144.886209, -38.495502], [144.886128, -38.495522], [144.886141, -38.495637], [144.886486, -38.496206], [144.886561, -38.496291], [144.886607, -38.496403], [144.887132, -38.497338], [144.887116, -38.497517], [144.886979, -38.497663], [144.886947, -38.497737], [144.88694, -38.497872], [144.886958, -38.498121], [144.887013, -38.498492], [144.887062, -38.498632], [144.887137, -38.49876], [144.887158, -38.498749], [144.887258, -38.498821], [144.887258, -38.498848], [144.887687, -38.498905], [144.887858, -38.498965], [144.887866, -38.498988], [144.887888, -38.498977], [144.88793, -38.499008], [144.888052, -38.499293], [144.888097, -38.499289], [144.888097, -38.499307], [144.888281, -38.499367], [144.888363, -38.499357], [144.888795, -38.499196], [144.888802, -38.499168], [144.889019, -38.499], [144.88908, -38.498741], [144.88901, -38.498459], [144.888866, -38.498224], [144.888882, -38.498047], [144.888987, -38.497957], [144.889107, -38.497927], [144.889288, -38.497936], [144.889501, -38.498045], [144.889552, -38.498099], [144.889973, -38.498326], [144.890058, -38.498341], [144.890259, -38.498344], [144.890392, -38.498312], [144.890443, -38.498216], [144.890384, -38.4981], [144.889973, -38.498062], [144.889775, -38.497911], [144.889704, -38.49782], [144.889359, -38.497672], [144.889352, -38.497483], [144.889257, -38.497424], [144.88882, -38.497415], [144.888691, -38.497375], [144.888367, -38.496866], [144.888397, -38.496535], [144.888506, -38.496303], [144.888627, -38.496219], [144.889102, -38.496031], [144.889284, -38.495978], [144.889478, -38.495823], [144.889617, -38.495627], [144.889925, -38.495427], [144.889932, -38.495387], [144.89028, -38.495163], [144.890392, -38.494826], [144.890486, -38.494708], [144.89077, -38.494479], [144.890925, -38.494396], [144.891237, -38.494166], [144.891289, -38.494008], [144.891237, -38.493754], [144.891274, -38.493635], [144.89166, -38.493351], [144.891808, -38.493276], [144.891826, -38.493239], [144.891848, -38.493245], [144.891949, -38.493033], [144.891979, -38.493025], [144.892023, -38.492964], [144.892174, -38.49288], [144.893304, -38.492642], [144.893499, -38.492556], [144.893587, -38.492456], [144.893707, -38.492241], [144.893973, -38.492087], [144.894134, -38.491776], [144.894487, -38.491485], [144.894919, -38.49142], [144.895435, -38.491451], [144.895877, -38.491637], [144.896114, -38.49168], [144.89621, -38.491673], [144.896458, -38.491558], [144.896798, -38.491443], [144.897002, -38.491424], [144.89738, -38.491436], [144.897591, -38.49142], [144.898249, -38.491274], [144.898433, -38.491277], [144.898609, -38.49132], [144.898776, -38.491336], [144.899224, -38.491291], [144.899414, -38.491354], [144.899599, -38.49139], [144.899851, -38.491381], [144.899978, -38.491331], [144.900112, -38.491347], [144.900503, -38.491464], [144.900665, -38.491561], [144.900935, -38.491605], [144.901223, -38.491573], [144.901505, -38.491577], [144.901739, -38.491502], [144.901885, -38.491408], [144.902042, -38.491248], [144.902197, -38.491136], [144.902518, -38.490563], [144.90254, -38.490472], [144.902736, -38.49031], [144.903117, -38.490403], [144.903368, -38.490421], [144.904062, -38.490375], [144.904471, -38.490273], [144.904502, -38.490295], [144.904505, -38.490388], [144.904229, -38.49068], [144.904229, -38.490708], [144.904265, -38.490765], [144.904472, -38.490801], [144.904616, -38.490778], [144.905074, -38.490769], [144.905449, -38.490783], [144.90552, -38.4908], [144.905863, -38.490965], [144.906119, -38.491114], [144.90641, -38.491124], [144.906726, -38.491016], [144.907298, -38.490737], [144.907892, -38.490583], [144.907987, -38.490533], [144.907986, -38.490442], [144.907954, -38.490414], [144.907621, -38.490316], [144.907614, -38.490198], [144.907738, -38.490063], [144.907996, -38.48996], [144.908389, -38.489875], [144.908696, -38.489883], [144.909022, -38.489972], [144.909029, -38.489991], [144.909197, -38.490016], [144.909197, -38.490032], [144.909989, -38.490102], [144.910201, -38.490022], [144.910344, -38.489678], [144.910226, -38.489407], [144.910406, -38.489357], [144.910428, -38.489177], [144.910448, -38.489029], [144.910839, -38.489047], [144.910981, -38.489107], [144.911197, -38.489039], [144.911773, -38.489086], [144.912274, -38.48919], [144.912846, -38.489258], [144.913039, -38.489275], [144.913116, -38.48935], [144.913631, -38.489613], [144.91417, -38.489844], [144.914704, -38.490405], [144.915051, -38.490752], [144.915345, -38.491032], [144.915532, -38.491646], [144.915492, -38.4919], [144.915532, -38.492207], [144.915407, -38.492604], [144.915589, -38.4928], [144.915943, -38.492907], [144.916054, -38.493531], [144.91648, -38.493836], [144.917374, -38.494076], [144.918416, -38.493956], [144.918643, -38.494156], [144.919417, -38.494276], [144.920058, -38.494316], [144.920258, -38.494503], [144.920165, -38.494683], [144.919942, -38.494805], [144.91975, -38.494997], [144.919912, -38.495504], [144.919697, -38.495838], [144.91927, -38.495999], [144.918549, -38.496105], [144.918482, -38.496466], [144.918856, -38.49676], [144.919377, -38.496973], [144.919884, -38.497147], [144.921246, -38.497214], [144.921847, -38.497093], [144.922808, -38.497307], [144.923516, -38.4972]]}, "properties": {"natural": "coastline", "source": "Bing"}}]}], "295": [{"type": "FeatureCollection", "features": [{"type": "Feature", "id": 1230053996, "geometry": {"type": "LineString", "coordinates": [[144.911733, -38.488717], [144.911449, -38.488372], [144.911637, -38.487512], [144.912264, -38.486575], [144.912506, -38.486298]]}, "properties": {"natural": "cliff", "source": "survey;Bing"}}]}], "296": [], "297": [{"type": "FeatureCollection", "features": [{"type": "Feature", "id": 1230053997, "geometry": {"type": "LineString", "coordinates": [[144.912274, -38.48919], [144.911773, -38.489086], [144.911197, -38.489039], [144.910981, -38.489107], [144.910839, -38.489047], [144.911028, -38.488962], [144.911598, -38.488906], [144.91201, -38.488962], [144.912469, -38.48914], [144.912639, -38.489179], [144.91292, -38.489085], [144.91324, -38.489113], [144.913089, -38.489245], [144.913039, -38.489275], [144.912846, -38.489258], [144.912274, -38.48919]]}, "properties": {"beach": "pebble", "natural": "beach", "source": "Bing"}}]}, {"type": "FeatureCollection", "features": [{"type": "Feature", "id": 173009911, "geometry": {"type": "LineString", "coordinates": [[144.91566, -38.492319], [144.91553, -38.492503], [144.915407, -38.492604], [144.915532, -38.492207], [144.915492, -38.4919], [144.915532, -38.491646], [144.915345, -38.491032], [144.915051, -38.490752], [144.914704, -38.490405], [144.91417, -38.489844], [144.913631, -38.489613], [144.913116, -38.48935], [144.913039, -38.489275], [144.913089, -38.489245], [144.91324, -38.489113], [144.913627, -38.489209], [144.913781, -38.48926], [144.913965, -38.489281], [144.914053, -38.489333], [144.914427, -38.489271], [144.914506, -38.489268], [144.914674, -38.489242], [144.914826, -38.489222], [144.915692, -38.489095], [144.915413, -38.489254], [144.915777, -38.489333], [144.916045, -38.489446], [144.916088, -38.489559], [144.916207, -38.489897], [144.916245, -38.490077], [144.91618, -38.490232], [144.916019, -38.490434], [144.915912, -38.490514], [144.915746, -38.490686], [144.915515, -38.490795], [144.915451, -38.490804], [144.915601, -38.49106], [144.915659, -38.491331], [144.915703, -38.491627], [144.915654, -38.49187], [144.915644, -38.492055], [144.91566, -38.492319]]}, "properties": {"beach": "pebble", "name": "Bushrangers Bay", "natural": "beach", "source": "Bing"}}]}], "298": [], "299": [], "300": [], "301": [], "302": [], "303": [], "304": [], "305": [], "306": [], "307": [], "308": [], "309": [], "310": [{"type": "FeatureCollection", "features": [{"type": "Feature", "id": 13858293, "geometry": {"type": "LineString", "coordinates": [[144.968875, -37.815919], [144.968892, -37.815953], [144.969026, -37.816252], [144.969163, -37.816539], [144.969285, -37.816795], [144.969309, -37.816845]]}, "properties": {"access": "yes", "highway": "service", "name": "Hosier Lane", "oneway": "yes", "source": "nearmap", "source:name": "photo", "surface": "cobblestone"}}]}], "311": [{"type": "FeatureCollection", "features": [{"type": "Feature", "id": 3105263070, "geometry": {"type": "Point", "coordinates": [144.969093, -37.816421]}, "properties": {"artwork_type": "graffiti", "name": "Hosier Lane", "name:ko": "\ud638\uc2dc\uc5b4\ub808\uc778", "name:zh": "\u6d82\u9e26\u8857", "tourism": "artwork", "wheelchair": "limited"}}]}], "312": [{"type": "FeatureCollection", "features": [{"type": "Feature", "id": 3105263071, "geometry": {"type": "Point", "coordinates": [144.968863, -37.81646]}, "properties": {"artwork_type": "graffiti", "name": "Street Art", "name:zh": "\u6d82\u9e26\u8857", "tourism": "artwork"}}]}], "313": [], "314": [], "315": [], "316": [], "317": [], "318": [], "319": [], "320": [{"type": "FeatureCollection", "features": []}], "321": [{"type": "FeatureCollection", "features": []}], "322": [], "323": [{"type": "FeatureCollection", "features": []}], "324": [{"type": "FeatureCollection", "features": []}], "325": [{"type": "FeatureCollection", "features": []}], "326": [{"type": "FeatureCollection", "features": []}], "327": [{"type": "FeatureCollection", "features": []}], "328": [{"type": "FeatureCollection", "features": []}], "329": [], "330": [{"type": "FeatureCollection", "features": []}], "331": [{"type": "FeatureCollection", "features": []}], "332": [{"type": "FeatureCollection", "features": []}], "333": [{"type": "FeatureCollection", "features": []}], "334": [{"type": "FeatureCollection", "features": []}], "335": [{"type": "FeatureCollection", "features": []}], "336": [{"type": "FeatureCollection", "features": []}], "337": [], "338": [], "339": [], "340": [{"type": "FeatureCollection", "features": [{"type": "Feature", "id": 2363102335, "geometry": {"type": "Point", "coordinates": [144.966743, -37.779354]}, "properties": {"historic:railway": "station_site", "name": "North Carlton", "note": "Closed 1948"}}]}], "341": [{"type": "FeatureCollection", "features": [{"type": "Feature", "id": 715659053, "geometry": {"type": "LineString", "coordinates": [[144.965949, -37.779482], [144.965964, -37.779526], [144.966074, -37.77954], [144.9661, -37.77955], [144.966155, -37.779534], [144.966164, -37.779515], [144.96639, -37.779449], [144.966448, -37.779407], [144.966412, -37.779336], [144.965949, -37.779482]]}, "properties": {"access": "yes", "leisure": "playground"}}]}], "342": [{"type": "FeatureCollection", "features": [{"type": "Feature", "id": 1175521177, "geometry": {"type": "LineString", "coordinates": [[144.966013, -37.778875], [144.965974, -37.778947], [144.965926, -37.779002], [144.96586, -37.779053], [144.965802, -37.779077], [144.965913, -37.779229], [144.966054, -37.779275], [144.966177, -37.77935], [144.966476, -37.779309], [144.966807, -37.77923], [144.967042, -37.779147], [144.967157, -37.779096], [144.967127, -37.779003], [144.966872, -37.778969], [144.966013, -37.778875]]}, "properties": {"leaf_type": "mixed", "natural": "wood"}}]}], "343": [], "344": [], "345": [], "346": [], "347": [], "348": [], "349": [{"type": "FeatureCollection", "features": [{"type": "Feature", "id": 4805373169, "geometry": {"type": "Point", "coordinates": [144.952321, -37.781181]}, "properties": {"name": "Royal Park", "network": "PTV - Metropolitan Trains", "operator": "Metro Trains Melbourne", "public_transport": "station", "railway": "station", "ref": "RPK", "train": "yes", "wheelchair": "yes"}}]}], "350": [], "351": [{"type": "FeatureCollection", "features": [{"type": "Feature", "id": 4749328, "geometry": {"type": "LineString", "coordinates": [[144.955148, -37.783978], [144.954938, -37.784134], [144.954202, -37.784702], [144.953667, -37.785077], [144.953386, -37.785293], [144.95336, -37.785272], [144.953329, -37.785296], [144.953308, -37.785312], [144.953224, -37.785377], [144.953211, -37.785387], [144.953156, -37.785429], [144.95315, -37.785424], [144.953105, -37.785459], [144.953149, -37.785495], [144.953052, -37.785569], [144.951837, -37.78659], [144.951524, -37.786837], [144.951184, -37.787109], [144.950771, -37.787431], [144.950011, -37.786796], [144.949483, -37.786346], [144.948857, -37.78372], [144.94896, -37.783273], [144.949237, -37.782767], [144.949381, -37.782603], [144.949553, -37.782447], [144.949675, -37.782354], [144.949813, -37.782258], [144.949978, -37.782167], [144.950179, -37.782077], [144.95032, -37.782027], [144.950421, -37.781995], [144.95045, -37.782013], [144.950472, -37.782006], [144.950509, -37.781985], [144.950622, -37.781967], [144.950909, -37.781916], [144.950946, -37.781912], [144.951004, -37.781863], [144.951195, -37.78185], [144.95141, -37.781847], [144.951629, -37.781859], [144.951954, -37.781893], [144.95201, -37.781875], [144.952371, -37.78197], [144.952831, -37.78214], [144.953329, -37.782459], [144.953777, -37.782834], [144.955148, -37.783978]]}, "properties": {"barrier": "wall", "name": "Melbourne Zoological Gardens", "name:fr": "Zoo de Melbourne", "operator": "Zoos Victoria", "short_name": "Melbourne Zoo", "tourism": "zoo", "website": "https://www.zoo.org.au/MelbourneZoo", "wikidata": "Q578027", "wikipedia": "en:Melbourne Zoo"}}]}]}